{
    "codes": {
        "7678": [
            "Abaliget",
            null
        ]
    },
    "streets": [
        {
            "name": "Ak\u00e1cdomb",
            "kind": "utca",
            "post_code": 0
        },
        {
            "name": "Bem",
            "kind": "utca",
            "post_code": 0
        },
        {
            "name": "ben\u0151tt \u00fatszakasz",
            "kind": "",
            "post_code": 0
        },
        {
            "name": "Gyalogh\u00edd",
            "kind": "",
            "post_code": 0
        },
        {
            "name": "K\u00f6lessy Vince",
            "kind": "utca",
            "post_code": 0
        },
        {
            "name": "Kossuth Lajos",
            "kind": "utca",
            "post_code": 0
        },
        {
            "name": "Kossuth",
            "kind": "utca",
            "post_code": 0
        },
        {
            "name": "Ny\u00e1ras-v\u00f6lgy",
            "kind": "",
            "post_code": 0
        },
        {
            "name": "Pertelek",
            "kind": "utca",
            "post_code": 0
        },
        {
            "name": "Pet\u0151fi S\u00e1ndor",
            "kind": "utca",
            "post_code": 0
        },
        {
            "name": "R\u00f3zsadomb",
            "kind": "utca",
            "post_code": 0
        },
        {
            "name": "Sz\u00e9chenyi",
            "kind": "utca",
            "post_code": 0
        },
        {
            "name": "tervezett",
            "kind": "utca",
            "post_code": 0
        },
        {
            "name": "V\u00e1rhegy",
            "kind": "utca",
            "post_code": 0
        },
        {
            "name": "Vir\u00e1gos-v\u00f6lgy",
            "kind": "",
            "post_code": 0
        }
    ]
}