{
    "codes": {
        "9746": [
            "Acs\u00e1d",
            null
        ]
    },
    "streets": [
        {
            "name": "8638",
            "kind": "",
            "post_code": 0
        },
        {
            "name": "Arany J\u00e1nos",
            "kind": "utca",
            "post_code": 0
        },
        {
            "name": "B\u00e9ke",
            "kind": "utca",
            "post_code": 0
        },
        {
            "name": "Kossuth Lajos",
            "kind": "utca",
            "post_code": 0
        },
        {
            "name": "Pet\u0151fi S\u00e1ndor",
            "kind": "utca",
            "post_code": 0
        },
        {
            "name": "Plat\u00e1nsor",
            "kind": "",
            "post_code": 0
        },
        {
            "name": "Semmelweis",
            "kind": "t\u00e9r",
            "post_code": 0
        },
        {
            "name": "Szombathelyi",
            "kind": "utca",
            "post_code": 0
        },
        {
            "name": "T\u00e1ncsics Mih\u00e1ly",
            "kind": "utca",
            "post_code": 0
        },
        {
            "name": "V\u00f6r\u00f6smarty",
            "kind": "utca",
            "post_code": 0
        }
    ]
}