{
    "codes": {
        "8394": [
            "Als\u00f3p\u00e1hok",
            null
        ]
    },
    "streets": [
        {
            "name": "Ady Endre",
            "kind": "utca",
            "post_code": 0
        },
        {
            "name": "\u00c1rp\u00e1d",
            "kind": "utca",
            "post_code": 0
        },
        {
            "name": "De\u00e1k Ferenc",
            "kind": "utca",
            "post_code": 0
        },
        {
            "name": "D\u00f3zsa Gy\u00f6rgy",
            "kind": "utca",
            "post_code": 0
        },
        {
            "name": "F\u0151",
            "kind": "utca",
            "post_code": 0
        },
        {
            "name": "H\u00e9v\u00edzi",
            "kind": "utca",
            "post_code": 0
        },
        {
            "name": "Keszthelyi",
            "kind": "utca",
            "post_code": 0
        },
        {
            "name": "K\u00f6lcsey Ferenc",
            "kind": "utca",
            "post_code": 0
        },
        {
            "name": "Kossuth Lajos",
            "kind": "utca",
            "post_code": 0
        },
        {
            "name": "Napf\u00e9ny",
            "kind": "sor",
            "post_code": 0
        },
        {
            "name": "Panor\u00e1ma",
            "kind": "utca",
            "post_code": 0
        }
    ]
}