{
    "codes": {
        "3571": [
            "Als\u00f3zsolca",
            null
        ]
    },
    "streets": [
        {
            "name": "Ady Endre",
            "kind": "utca",
            "post_code": 0
        },
        {
            "name": "Ak\u00e1c",
            "kind": "utca",
            "post_code": 0
        },
        {
            "name": "Alkotm\u00e1ny",
            "kind": "utca",
            "post_code": 0
        },
        {
            "name": "\u00c1llom\u00e1s",
            "kind": "utca",
            "post_code": 0
        },
        {
            "name": "Arany J\u00e1nos",
            "kind": "utca",
            "post_code": 0
        },
        {
            "name": "\u00c1rp\u00e1d fejedelem",
            "kind": "\u00fatja",
            "post_code": 0
        },
        {
            "name": "Bajcsy-Zsilinszky",
            "kind": "\u00fat",
            "post_code": 0
        },
        {
            "name": "Baross G\u00e1bor",
            "kind": "utca",
            "post_code": 0
        },
        {
            "name": "Bart\u00f3k B\u00e9la",
            "kind": "utca",
            "post_code": 0
        },
        {
            "name": "Bem J\u00f3zsef",
            "kind": "utca",
            "post_code": 0
        },
        {
            "name": "Bocskai",
            "kind": "utca",
            "post_code": 0
        },
        {
            "name": "Corvin",
            "kind": "utca",
            "post_code": 0
        },
        {
            "name": "Damjanich J.",
            "kind": "",
            "post_code": 0
        },
        {
            "name": "Dank\u00f3 Pista",
            "kind": "utca",
            "post_code": 0
        },
        {
            "name": "De\u00e1k Ferenc",
            "kind": "utca",
            "post_code": 0
        },
        {
            "name": "Dob\u00f3",
            "kind": "utca",
            "post_code": 0
        },
        {
            "name": "D\u00f3zsa Gy\u00f6rgy",
            "kind": "\u00fat",
            "post_code": 0
        },
        {
            "name": "D\u00f3zsa Gy\u00f6rgy",
            "kind": "utca",
            "post_code": 0
        },
        {
            "name": "Erkel Ferenc",
            "kind": "utca",
            "post_code": 0
        },
        {
            "name": "Fekete Istv\u00e1n",
            "kind": "utca",
            "post_code": 0
        },
        {
            "name": "Gagarin",
            "kind": "utca",
            "post_code": 0
        },
        {
            "name": "G\u00e1rdonyi",
            "kind": "utca",
            "post_code": 0
        },
        {
            "name": "G\u00f6rgey Art\u00far",
            "kind": "utca",
            "post_code": 0
        },
        {
            "name": "Gy\u00e1r",
            "kind": "utca",
            "post_code": 0
        },
        {
            "name": "Herman O.",
            "kind": "utca",
            "post_code": 0
        },
        {
            "name": "Hunyadi J\u00e1nos",
            "kind": "utca",
            "post_code": 0
        },
        {
            "name": "Ifj\u00fas\u00e1g",
            "kind": "utca",
            "post_code": 0
        },
        {
            "name": "Ilona",
            "kind": "utca",
            "post_code": 0
        },
        {
            "name": "Johanna",
            "kind": "utca",
            "post_code": 0
        },
        {
            "name": "J\u00f3kai",
            "kind": "utca",
            "post_code": 0
        },
        {
            "name": "J\u00f3zsef Attila",
            "kind": "utca",
            "post_code": 0
        },
        {
            "name": "Kassai",
            "kind": "utca",
            "post_code": 0
        },
        {
            "name": "Kast\u00e9ly",
            "kind": "k\u00f6z",
            "post_code": 0
        },
        {
            "name": "Kisvas\u00fat",
            "kind": "utca",
            "post_code": 0
        },
        {
            "name": "Klapka Gy\u00f6rgy",
            "kind": "utca",
            "post_code": 0
        },
        {
            "name": "Kod\u00e1ly Zolt\u00e1n",
            "kind": "utca",
            "post_code": 0
        },
        {
            "name": "K\u00f6lcsey Ferenc",
            "kind": "utca",
            "post_code": 0
        },
        {
            "name": "Kossuth Lajos",
            "kind": "utca",
            "post_code": 0
        },
        {
            "name": "L\u00e1di",
            "kind": "utca",
            "post_code": 0
        },
        {
            "name": "L\u00e9vay J.",
            "kind": "",
            "post_code": 0
        },
        {
            "name": "L\u00e9vay J\u00f3zsef",
            "kind": "utca",
            "post_code": 0
        },
        {
            "name": "Miksz\u00e1th K\u00e1lm\u00e1n",
            "kind": "utca",
            "post_code": 0
        },
        {
            "name": "M\u00f3ra Ferenc",
            "kind": "utca",
            "post_code": 0
        },
        {
            "name": "M\u00f3ricz Zsigmond",
            "kind": "utca",
            "post_code": 0
        },
        {
            "name": "Pet\u0151fi S\u00e1ndor",
            "kind": "utca",
            "post_code": 0
        },
        {
            "name": "Radn\u00f3ti Mikl\u00f3s",
            "kind": "utca",
            "post_code": 0
        },
        {
            "name": "R\u00e1k\u00f3czi",
            "kind": "utca",
            "post_code": 0
        },
        {
            "name": "R\u00f3zsa",
            "kind": "utca",
            "post_code": 0
        },
        {
            "name": "Saj\u00f3",
            "kind": "utca",
            "post_code": 0
        },
        {
            "name": "Szabads\u00e1g",
            "kind": "utca",
            "post_code": 0
        },
        {
            "name": "Sz\u00e9chenyi",
            "kind": "utca",
            "post_code": 0
        },
        {
            "name": "Szegf\u0171",
            "kind": "k\u00f6z",
            "post_code": 0
        },
        {
            "name": "Tan\u00e1cs",
            "kind": "utca",
            "post_code": 0
        },
        {
            "name": "T\u00e1ncsics",
            "kind": "utca",
            "post_code": 0
        },
        {
            "name": "Tulip\u00e1n",
            "kind": "k\u00f6z",
            "post_code": 0
        },
        {
            "name": "Vay",
            "kind": "utca",
            "post_code": 0
        },
        {
            "name": "Zr\u00ednyi",
            "kind": "utca",
            "post_code": 0
        }
    ]
}