{
    "codes": {
        "2351": [
            "Als\u00f3n\u00e9medi",
            null
        ]
    },
    "streets": [
        {
            "name": "Ady Endre",
            "kind": "utca",
            "post_code": 0
        },
        {
            "name": "Ak\u00e1cfa",
            "kind": "utca",
            "post_code": 0
        },
        {
            "name": "Als\u00f3erd\u0151sor",
            "kind": "utca",
            "post_code": 0
        },
        {
            "name": "Arany\u00e1g",
            "kind": "utca",
            "post_code": 0
        },
        {
            "name": "Arany J\u00e1nos",
            "kind": "utca",
            "post_code": 0
        },
        {
            "name": "\u00c1rp\u00e1d",
            "kind": "utca",
            "post_code": 0
        },
        {
            "name": "Bajcsy-Zsilinszky Endre",
            "kind": "utca",
            "post_code": 0
        },
        {
            "name": "Bercs\u00e9nyi",
            "kind": "utca",
            "post_code": 0
        },
        {
            "name": "Damjanich",
            "kind": "utca",
            "post_code": 0
        },
        {
            "name": "De\u00e1k Ferenc",
            "kind": "utca",
            "post_code": 0
        },
        {
            "name": "D\u00e9li",
            "kind": "utca",
            "post_code": 0
        },
        {
            "name": "Di\u00f3fa",
            "kind": "utca",
            "post_code": 0
        },
        {
            "name": "Domb",
            "kind": "utca",
            "post_code": 0
        },
        {
            "name": "D\u00f3zsa Gy\u00f6rgy",
            "kind": "t\u00e9r",
            "post_code": 0
        },
        {
            "name": "Elker\u00fcl\u0151",
            "kind": "\u00fat",
            "post_code": 0
        },
        {
            "name": "Fels\u0151erd\u0151sor",
            "kind": "utca",
            "post_code": 0
        },
        {
            "name": "Fels\u0151r\u00e1da",
            "kind": "",
            "post_code": 0
        },
        {
            "name": "Felt\u00e1r\u00f3",
            "kind": "utca",
            "post_code": 0
        },
        {
            "name": "F\u0151",
            "kind": "\u00fat",
            "post_code": 0
        },
        {
            "name": "F\u0151 \u00fati",
            "kind": "erd\u0151",
            "post_code": 0
        },
        {
            "name": "Garay",
            "kind": "utca",
            "post_code": 0
        },
        {
            "name": "GLS Eur\u00f3pa",
            "kind": "utca",
            "post_code": 0
        },
        {
            "name": "Hal\u00e1szy K\u00e1roly",
            "kind": "utca",
            "post_code": 0
        },
        {
            "name": "Haraszti",
            "kind": "utca",
            "post_code": 0
        },
        {
            "name": "Hat\u00e1r",
            "kind": "utca",
            "post_code": 0
        },
        {
            "name": "Hold",
            "kind": "utca",
            "post_code": 0
        },
        {
            "name": "H\u0151s",
            "kind": "utca",
            "post_code": 0
        },
        {
            "name": "Hunyadi",
            "kind": "utca",
            "post_code": 0
        },
        {
            "name": "Ibolya",
            "kind": "utca",
            "post_code": 0
        },
        {
            "name": "Iskola",
            "kind": "utca",
            "post_code": 0
        },
        {
            "name": "J\u00e1cint",
            "kind": "utca",
            "post_code": 0
        },
        {
            "name": "J\u00f3kai M\u00f3r",
            "kind": "utca",
            "post_code": 0
        },
        {
            "name": "J\u00f3zsef Attila",
            "kind": "utca",
            "post_code": 0
        },
        {
            "name": "K\u00e1polna",
            "kind": "utca",
            "post_code": 0
        },
        {
            "name": "Kinizsi",
            "kind": "utca",
            "post_code": 0
        },
        {
            "name": "Kisfaludy",
            "kind": "utca",
            "post_code": 0
        },
        {
            "name": "Kist\u00f3i",
            "kind": "utca",
            "post_code": 0
        },
        {
            "name": "K\u00f6lcsey Ferenc",
            "kind": "utca",
            "post_code": 0
        },
        {
            "name": "Kossuth Lajos",
            "kind": "utca",
            "post_code": 0
        },
        {
            "name": "Liliom",
            "kind": "utca",
            "post_code": 0
        },
        {
            "name": "Magyari",
            "kind": "utca",
            "post_code": 0
        },
        {
            "name": "M\u00e1jus 1.",
            "kind": "t\u00e9r",
            "post_code": 0
        },
        {
            "name": "M\u00e1ty\u00e1s kir\u00e1ly",
            "kind": "utca",
            "post_code": 0
        },
        {
            "name": "Nap",
            "kind": "utca",
            "post_code": 0
        },
        {
            "name": "Nefelejcs",
            "kind": "utca",
            "post_code": 0
        },
        {
            "name": "\u00d3csai",
            "kind": "\u00fat",
            "post_code": 0
        },
        {
            "name": "\u00d6regt\u00f3",
            "kind": "utca",
            "post_code": 0
        },
        {
            "name": "Orgona",
            "kind": "utca",
            "post_code": 0
        },
        {
            "name": "\u00d6sszek\u00f6t\u0151",
            "kind": "utca",
            "post_code": 0
        },
        {
            "name": "\u00d3",
            "kind": "utca",
            "post_code": 0
        },
        {
            "name": "P\u00e1skomi",
            "kind": "utca",
            "post_code": 0
        },
        {
            "name": "Pet\u0151fi S\u00e1ndor",
            "kind": "utca",
            "post_code": 0
        },
        {
            "name": "R\u00e1dai",
            "kind": "utca",
            "post_code": 0
        },
        {
            "name": "R\u00e1k\u00f3czi",
            "kind": "utca",
            "post_code": 0
        },
        {
            "name": "R\u00f3na",
            "kind": "utca",
            "post_code": 0
        },
        {
            "name": "Sert\u00e9stelepi",
            "kind": "\u00fat",
            "post_code": 0
        },
        {
            "name": "Somogyi B\u00e9la",
            "kind": "utca",
            "post_code": 0
        },
        {
            "name": "Szabads\u00e1g",
            "kind": "t\u00e9r",
            "post_code": 0
        },
        {
            "name": "Sz\u00e9ch\u00e9nyi",
            "kind": "utca",
            "post_code": 0
        },
        {
            "name": "Szent Istv\u00e1n",
            "kind": "t\u00e9r",
            "post_code": 0
        },
        {
            "name": "Szil\u00e1gyi Erzs\u00e9bet",
            "kind": "utca",
            "post_code": 0
        },
        {
            "name": "Tankcsapda",
            "kind": "utca",
            "post_code": 0
        },
        {
            "name": "Temet\u0151",
            "kind": "utca",
            "post_code": 0
        },
        {
            "name": "Templom",
            "kind": "utca",
            "post_code": 0
        },
        {
            "name": "Toldi Mikl\u00f3s",
            "kind": "utca",
            "post_code": 0
        },
        {
            "name": "Tulip\u00e1n",
            "kind": "utca",
            "post_code": 0
        },
        {
            "name": "V\u00e1llalkoz\u00f3i",
            "kind": "utca",
            "post_code": 0
        },
        {
            "name": "V\u00e1nyi",
            "kind": "\u00fat",
            "post_code": 0
        },
        {
            "name": "V\u00e1s\u00e1rt\u00e9r",
            "kind": "utca",
            "post_code": 0
        },
        {
            "name": "Veresmarty J\u00f3zsef",
            "kind": "utca",
            "post_code": 0
        },
        {
            "name": "V\u00f6r\u00f6smarty",
            "kind": "utca",
            "post_code": 0
        },
        {
            "name": "Zr\u00ednyi Mikl\u00f3s",
            "kind": "utca",
            "post_code": 0
        }
    ]
}