{
    "codes": {
        "9351": [
            "Bab\u00f3t",
            null
        ]
    },
    "streets": [
        {
            "name": "Ady Endre",
            "kind": "utca",
            "post_code": 0
        },
        {
            "name": "Arany J\u00e1nos",
            "kind": "utca",
            "post_code": 0
        },
        {
            "name": "Bercs\u00e9nyi",
            "kind": "utca",
            "post_code": 0
        },
        {
            "name": "Cseng\u0151",
            "kind": "sor",
            "post_code": 0
        },
        {
            "name": "Csokonai",
            "kind": "utca",
            "post_code": 0
        },
        {
            "name": "D\u00f3zsa Gy\u00f6rgy",
            "kind": "utca",
            "post_code": 0
        },
        {
            "name": "Faluhelyi",
            "kind": "utca",
            "post_code": 0
        },
        {
            "name": "F\u0151",
            "kind": "utca",
            "post_code": 0
        },
        {
            "name": "Honv\u00e9d",
            "kind": "utca",
            "post_code": 0
        },
        {
            "name": "J\u00f3zsef Attila",
            "kind": "utca",
            "post_code": 0
        },
        {
            "name": "M\u00e1ty\u00e1s kir\u00e1ly",
            "kind": "utca",
            "post_code": 0
        },
        {
            "name": "Pet\u0151fi",
            "kind": "sor",
            "post_code": 0
        },
        {
            "name": "R\u00e1k\u00f3czi Ferenc",
            "kind": "utca",
            "post_code": 0
        },
        {
            "name": "Sport",
            "kind": "utca",
            "post_code": 0
        },
        {
            "name": "Sz\u00e9chenyi Istv\u00e1n",
            "kind": "utca",
            "post_code": 0
        },
        {
            "name": "Sz\u00e9les",
            "kind": "utca",
            "post_code": 0
        },
        {
            "name": "Z\u00f6ldmez\u0151",
            "kind": "utca",
            "post_code": 0
        }
    ]
}