{
    "codes": {
        "8257": [
            "Badacsonytomaj",
            "Badacsony\u00f6rs"
        ],
        "8258": [
            "Badacsonytomaj",
            null
        ],
        "8261": [
            "Badacsonytomaj",
            "Badacsony"
        ]
    },
    "streets": [
        {
            "name": "Ady Endre",
            "kind": "utca",
            "post_code": 0
        },
        {
            "name": "Ak\u00e1cfa",
            "kind": "utca",
            "post_code": 0
        },
        {
            "name": "Arbor\u00e9tum",
            "kind": "\u00fat",
            "post_code": 0
        },
        {
            "name": "Badacsony",
            "kind": "\u00fat",
            "post_code": 0
        },
        {
            "name": "Balaton",
            "kind": "utca",
            "post_code": 0
        },
        {
            "name": "B\u00e9ke",
            "kind": "utca",
            "post_code": 0
        },
        {
            "name": "Bercs\u00e9nyi",
            "kind": "utca",
            "post_code": 0
        },
        {
            "name": "Bogyay Lajos",
            "kind": "\u00fatja",
            "post_code": 0
        },
        {
            "name": "Csabagy\u00f6ngye",
            "kind": "utca",
            "post_code": 0
        },
        {
            "name": "Cs\u00e1ng\u00f3",
            "kind": "",
            "post_code": 0
        },
        {
            "name": "Csendes",
            "kind": "d\u0171l\u0151",
            "post_code": 0
        },
        {
            "name": "Cserfa",
            "kind": "utca",
            "post_code": 0
        },
        {
            "name": "Csig\u00e1skuti",
            "kind": "\u00fat",
            "post_code": 0
        },
        {
            "name": "Egry",
            "kind": "s\u00e9t\u00e1ny",
            "post_code": 0
        },
        {
            "name": "Erd\u0151s",
            "kind": "k\u00f6z",
            "post_code": 0
        },
        {
            "name": "Erd\u0151s",
            "kind": "utca",
            "post_code": 0
        },
        {
            "name": "F\u00e1c\u00e1nos",
            "kind": "k\u00f6z",
            "post_code": 0
        },
        {
            "name": "Fels\u0151b\u00fcki",
            "kind": "\u00fat",
            "post_code": 0
        },
        {
            "name": "Feny\u0151",
            "kind": "k\u00f6z",
            "post_code": 0
        },
        {
            "name": "F\u00f6ld",
            "kind": "\u00fat",
            "post_code": 0
        },
        {
            "name": "F\u0151",
            "kind": "utca",
            "post_code": 0
        },
        {
            "name": "F\u00fcge",
            "kind": "k\u00f6z",
            "post_code": 0
        },
        {
            "name": "F\u00fcredi",
            "kind": "\u00fat",
            "post_code": 0
        },
        {
            "name": "F\u0171v\u00e9sz",
            "kind": "telep",
            "post_code": 0
        },
        {
            "name": "F\u0171zfa",
            "kind": "utca",
            "post_code": 0
        },
        {
            "name": "Gyurkovics",
            "kind": "k\u00f6z",
            "post_code": 0
        },
        {
            "name": "Hamvas B\u00e9la",
            "kind": "\u00fatja",
            "post_code": 0
        },
        {
            "name": "H\u00e1rsfa",
            "kind": "utca",
            "post_code": 0
        },
        {
            "name": "Harsona K\u00f6z",
            "kind": "",
            "post_code": 0
        },
        {
            "name": "Hegyalja",
            "kind": "\u00fat",
            "post_code": 0
        },
        {
            "name": "Helbeck",
            "kind": "\u00fatja",
            "post_code": 0
        },
        {
            "name": "Herczeg Ferenc",
            "kind": "\u00fatja",
            "post_code": 0
        },
        {
            "name": "H\u0151s\u00f6k",
            "kind": "tere",
            "post_code": 0
        },
        {
            "name": "Ibos Ferenc",
            "kind": "\u00fat",
            "post_code": 0
        },
        {
            "name": "Iskola",
            "kind": "utca",
            "post_code": 0
        },
        {
            "name": "J\u00f3zsef Attila",
            "kind": "utca",
            "post_code": 0
        },
        {
            "name": "K\u00e1polna",
            "kind": "k\u00f6z",
            "post_code": 0
        },
        {
            "name": "K\u00e1polnav\u00f6lgyi",
            "kind": "\u00fat",
            "post_code": 0
        },
        {
            "name": "K\u00e1ptalant\u00f3ti",
            "kind": "utca",
            "post_code": 0
        },
        {
            "name": "Kemping",
            "kind": "\u00fat",
            "post_code": 0
        },
        {
            "name": "Kert",
            "kind": "utca",
            "post_code": 0
        },
        {
            "name": "Kiserd\u0151",
            "kind": "\u00fat",
            "post_code": 0
        },
        {
            "name": "Kisfaludy S\u00e1ndor",
            "kind": "utca",
            "post_code": 0
        },
        {
            "name": "Kisk\u00f6r",
            "kind": "\u00fat",
            "post_code": 0
        },
        {
            "name": "Kisk\u00f6z",
            "kind": "utca",
            "post_code": 0
        },
        {
            "name": "Kis\u0151rshegyi",
            "kind": "\u00fat",
            "post_code": 0
        },
        {
            "name": "Kis\u00f6rsi",
            "kind": "utca",
            "post_code": 0
        },
        {
            "name": "Klastrom",
            "kind": "utca",
            "post_code": 0
        },
        {
            "name": "Kod\u00e1ly Zolt\u00e1n",
            "kind": "utca",
            "post_code": 0
        },
        {
            "name": "K\u0151fejt\u0151",
            "kind": "\u00fat",
            "post_code": 0
        },
        {
            "name": "Kossuth",
            "kind": "utca",
            "post_code": 0
        },
        {
            "name": "Kuruc-k\u00f6r\u00fat tan\u00f6sv\u00e9ny",
            "kind": "",
            "post_code": 0
        },
        {
            "name": "Magyar",
            "kind": "utca",
            "post_code": 0
        },
        {
            "name": "Major",
            "kind": "\u00fat",
            "post_code": 0
        },
        {
            "name": "Mandul\u00e1s",
            "kind": "\u00fat",
            "post_code": 0
        },
        {
            "name": "M\u00f3ricz Zsigmond",
            "kind": "utca",
            "post_code": 0
        },
        {
            "name": "Muskot\u00e1ly",
            "kind": "utca",
            "post_code": 0
        },
        {
            "name": "Nagyk\u00f6r",
            "kind": "\u00fat",
            "post_code": 0
        },
        {
            "name": "Nagy",
            "kind": "k\u00f6z",
            "post_code": 0
        },
        {
            "name": "Napsug\u00e1r",
            "kind": "utca",
            "post_code": 0
        },
        {
            "name": "Ny\u00e1rfa",
            "kind": "utca",
            "post_code": 0
        },
        {
            "name": "Ny\u00e1r",
            "kind": "utca",
            "post_code": 0
        },
        {
            "name": "\u00d6reghegy",
            "kind": "\u00fat",
            "post_code": 0
        },
        {
            "name": "Orgona",
            "kind": "utca",
            "post_code": 0
        },
        {
            "name": "\u0150sz",
            "kind": "utca",
            "post_code": 0
        },
        {
            "name": "Palackoz\u00f3",
            "kind": "utca",
            "post_code": 0
        },
        {
            "name": "Panor\u00e1ma",
            "kind": "utca",
            "post_code": 0
        },
        {
            "name": "Park",
            "kind": "utca",
            "post_code": 0
        },
        {
            "name": "Pauler \u00c1kos",
            "kind": "utca",
            "post_code": 0
        },
        {
            "name": "Pet\u0151fi S\u00e1ndor",
            "kind": "utca",
            "post_code": 0
        },
        {
            "name": "P\u00f6ltenberg Ern\u0151",
            "kind": "utca",
            "post_code": 0
        },
        {
            "name": "Radn\u00f3ti Mikl\u00f3s",
            "kind": "utca",
            "post_code": 0
        },
        {
            "name": "Rizling",
            "kind": "utca",
            "post_code": 0
        },
        {
            "name": "Rodost\u00f3i",
            "kind": "\u00fatja",
            "post_code": 0
        },
        {
            "name": "R\u00f3mai",
            "kind": "\u00fat",
            "post_code": 0
        },
        {
            "name": "R\u00f3zsa",
            "kind": "k\u00f6z",
            "post_code": 0
        },
        {
            "name": "Sport",
            "kind": "utca",
            "post_code": 0
        },
        {
            "name": "Strand",
            "kind": "utca",
            "post_code": 0
        },
        {
            "name": "Szab\u00f3 Ern\u0151n\u00e9",
            "kind": "\u00fat",
            "post_code": 0
        },
        {
            "name": "Sz\u00e9chenyi",
            "kind": "utca",
            "post_code": 0
        },
        {
            "name": "Sz\u00e9kely",
            "kind": "d\u0171l\u0151",
            "post_code": 0
        },
        {
            "name": "Szent Don\u00e1t",
            "kind": "\u00fat",
            "post_code": 0
        },
        {
            "name": "Szent Istv\u00e1n",
            "kind": "utca",
            "post_code": 0
        },
        {
            "name": "Sz\u00e9pkil\u00e1t\u00f3",
            "kind": "\u00fat",
            "post_code": 0
        },
        {
            "name": "Sz\u00e9pv\u00f6lgyi",
            "kind": "\u00fat",
            "post_code": 0
        },
        {
            "name": "Szid\u00f3nia",
            "kind": "\u00fat",
            "post_code": 0
        },
        {
            "name": "Sz\u0151l\u0151hegyi",
            "kind": "\u00fat",
            "post_code": 0
        },
        {
            "name": "Sz\u0151l\u0151",
            "kind": "utca",
            "post_code": 0
        },
        {
            "name": "Sz\u00fcrkebar\u00e1t",
            "kind": "utca",
            "post_code": 0
        },
        {
            "name": "T\u00e1ncsics Mih\u00e1ly",
            "kind": "utca",
            "post_code": 0
        },
        {
            "name": "Tatay S\u00e1ndor",
            "kind": "\u00fatja",
            "post_code": 0
        },
        {
            "name": "Tavasz",
            "kind": "utca",
            "post_code": 0
        },
        {
            "name": "T\u00f6lgyfa",
            "kind": "utca",
            "post_code": 0
        },
        {
            "name": "\u00datt\u00f6r\u0151",
            "kind": "utca",
            "post_code": 0
        },
        {
            "name": "Vadr\u00f3zsa",
            "kind": "\u00fat",
            "post_code": 0
        },
        {
            "name": "Vas\u00fat",
            "kind": "utca",
            "post_code": 0
        },
        {
            "name": "Vincell\u00e9r",
            "kind": "utca",
            "post_code": 0
        },
        {
            "name": "Vir\u00e1g",
            "kind": "k\u00f6z",
            "post_code": 0
        },
        {
            "name": "Zalai",
            "kind": "k\u00f6z",
            "post_code": 0
        }
    ]
}