{
    "codes": {
        "6500": [
            "Baja",
            null
        ],
        "6503": [
            "Baja",
            "Bajaszentistv\u00e1n"
        ]
    },
    "streets": [
        {
            "name": "Ady Endre",
            "kind": "utca",
            "post_code": 0
        },
        {
            "name": "Ak\u00e1cos",
            "kind": "utca",
            "post_code": 0
        },
        {
            "name": "Alaga G\u00e9za",
            "kind": "utca",
            "post_code": 0
        },
        {
            "name": "Alf\u00f6ldi J\u00f3zsef",
            "kind": "t\u00e9r",
            "post_code": 0
        },
        {
            "name": "Aligv\u00e1rdi",
            "kind": "utca",
            "post_code": 0
        },
        {
            "name": "Alkotm\u00e1ny",
            "kind": "utca",
            "post_code": 0
        },
        {
            "name": "\u00c1llom\u00e1s",
            "kind": "t\u00e9r",
            "post_code": 0
        },
        {
            "name": "\u00c1lmos",
            "kind": "utca",
            "post_code": 0
        },
        {
            "name": "Ap\u00e1czai Csere J\u00e1nos",
            "kind": "utca",
            "post_code": 0
        },
        {
            "name": "Apponyi",
            "kind": "utca",
            "post_code": 0
        },
        {
            "name": "Apr\u00f3d",
            "kind": "utca",
            "post_code": 0
        },
        {
            "name": "Arad",
            "kind": "utca",
            "post_code": 0
        },
        {
            "name": "Arany J\u00e1nos",
            "kind": "utca",
            "post_code": 0
        },
        {
            "name": "Arat\u00f3",
            "kind": "utca",
            "post_code": 0
        },
        {
            "name": "\u00c1rok",
            "kind": "utca",
            "post_code": 0
        },
        {
            "name": "\u00c1rp\u00e1d",
            "kind": "t\u00e9r",
            "post_code": 0
        },
        {
            "name": "\u00c1rp\u00e1d",
            "kind": "utca",
            "post_code": 0
        },
        {
            "name": "\u00c1rv\u00e1cska",
            "kind": "utca",
            "post_code": 0
        },
        {
            "name": "Attila",
            "kind": "utca",
            "post_code": 0
        },
        {
            "name": "Babits Mih\u00e1ly",
            "kind": "utca",
            "post_code": 0
        },
        {
            "name": "B\u00e1cska",
            "kind": "t\u00e9r",
            "post_code": 0
        },
        {
            "name": "Bajcsy-Zsilinszky Endre",
            "kind": "utca",
            "post_code": 0
        },
        {
            "name": "Bajnok",
            "kind": "utca",
            "post_code": 0
        },
        {
            "name": "Bajza J\u00f3zsef",
            "kind": "utca",
            "post_code": 0
        },
        {
            "name": "Baka",
            "kind": "utca",
            "post_code": 0
        },
        {
            "name": "Balassa",
            "kind": "utca",
            "post_code": 0
        },
        {
            "name": "B\u00e1nk b\u00e1n",
            "kind": "utca",
            "post_code": 0
        },
        {
            "name": "Bar\u00e1ts\u00e1g",
            "kind": "t\u00e9r",
            "post_code": 0
        },
        {
            "name": "Bara",
            "kind": "utca",
            "post_code": 0
        },
        {
            "name": "B\u00e1rka",
            "kind": "utca",
            "post_code": 0
        },
        {
            "name": "Bart\u00f3k B\u00e9la",
            "kind": "utca",
            "post_code": 0
        },
        {
            "name": "Bartsch Samu",
            "kind": "utca",
            "post_code": 0
        },
        {
            "name": "B\u00e1thori Istv\u00e1n",
            "kind": "utca",
            "post_code": 0
        },
        {
            "name": "B\u00e1thory Istv\u00e1n",
            "kind": "utca",
            "post_code": 0
        },
        {
            "name": "Batthy\u00e1ny Lajos",
            "kind": "utca",
            "post_code": 0
        },
        {
            "name": "Bayer J\u00e1nos",
            "kind": "utca",
            "post_code": 0
        },
        {
            "name": "B\u00e9la kir\u00e1ly",
            "kind": "utca",
            "post_code": 0
        },
        {
            "name": "Bellosits B\u00e1lint",
            "kind": "utca",
            "post_code": 0
        },
        {
            "name": "Bem J\u00f3zsef",
            "kind": "utca",
            "post_code": 0
        },
        {
            "name": "Bercs\u00e9nyi",
            "kind": "utca",
            "post_code": 0
        },
        {
            "name": "Bereczky M\u00e1t\u00e9",
            "kind": "utca",
            "post_code": 0
        },
        {
            "name": "Bernhart S\u00e1ndor",
            "kind": "utca",
            "post_code": 0
        },
        {
            "name": "Berzsenyi",
            "kind": "utca",
            "post_code": 0
        },
        {
            "name": "Bethlen G\u00e1bor",
            "kind": "utca",
            "post_code": 0
        },
        {
            "name": "Bezer\u00e9dj P\u00e1l",
            "kind": "utca",
            "post_code": 0
        },
        {
            "name": "Bodrog",
            "kind": "utca",
            "post_code": 0
        },
        {
            "name": "Bodza",
            "kind": "k\u00f6z",
            "post_code": 0
        },
        {
            "name": "Boglya",
            "kind": "utca",
            "post_code": 0
        },
        {
            "name": "Bokodi",
            "kind": "\u00fat",
            "post_code": 0
        },
        {
            "name": "Bolg\u00e1r",
            "kind": "utca",
            "post_code": 0
        },
        {
            "name": "Borz",
            "kind": "utca",
            "post_code": 0
        },
        {
            "name": "Botond",
            "kind": "utca",
            "post_code": 0
        },
        {
            "name": "Budai Nagy Antal",
            "kind": "utca",
            "post_code": 0
        },
        {
            "name": "Burg Ete",
            "kind": "utca",
            "post_code": 0
        },
        {
            "name": "Cinke",
            "kind": "utca",
            "post_code": 0
        },
        {
            "name": "Csaba",
            "kind": "utca",
            "post_code": 0
        },
        {
            "name": "Csal\u00e1d",
            "kind": "utca",
            "post_code": 0
        },
        {
            "name": "Csalog\u00e1ny",
            "kind": "utca",
            "post_code": 0
        },
        {
            "name": "Cs\u00e1voly",
            "kind": "utca",
            "post_code": 0
        },
        {
            "name": "Csendes",
            "kind": "utca",
            "post_code": 0
        },
        {
            "name": "Cs\u00e9pl\u0151",
            "kind": "utca",
            "post_code": 0
        },
        {
            "name": "Cserk\u00e9sz",
            "kind": "utca",
            "post_code": 0
        },
        {
            "name": "Cserm\u00e1k Mih\u00e1ly",
            "kind": "t\u00e9r",
            "post_code": 0
        },
        {
            "name": "Csiga",
            "kind": "utca",
            "post_code": 0
        },
        {
            "name": "Cs\u00edk",
            "kind": "utca",
            "post_code": 0
        },
        {
            "name": "Csillag",
            "kind": "utca",
            "post_code": 0
        },
        {
            "name": "Cs\u00f3k Istv\u00e1n",
            "kind": "utca",
            "post_code": 0
        },
        {
            "name": "Cs\u00f3nak",
            "kind": "utca",
            "post_code": 0
        },
        {
            "name": "Csuka",
            "kind": "utca",
            "post_code": 0
        },
        {
            "name": "Csupor Gyula",
            "kind": "utca",
            "post_code": 0
        },
        {
            "name": "Czirfusz Ferenc",
            "kind": "utca",
            "post_code": 0
        },
        {
            "name": "D\u00e1lia",
            "kind": "utca",
            "post_code": 0
        },
        {
            "name": "Damjanich J\u00e1nos",
            "kind": "utca",
            "post_code": 0
        },
        {
            "name": "Dank\u00f3",
            "kind": "utca",
            "post_code": 0
        },
        {
            "name": "Dar\u00e1zs",
            "kind": "utca",
            "post_code": 0
        },
        {
            "name": "Daru",
            "kind": "utca",
            "post_code": 0
        },
        {
            "name": "De\u00e1k Ferenc",
            "kind": "utca",
            "post_code": 0
        },
        {
            "name": "D\u00e9ri Frigyes",
            "kind": "s\u00e9t\u00e1ny",
            "post_code": 0
        },
        {
            "name": "Deszk\u00e1s",
            "kind": "utca",
            "post_code": 0
        },
        {
            "name": "Di\u00f3fa",
            "kind": "utca",
            "post_code": 0
        },
        {
            "name": "Dob\u00f3 Istv\u00e1n",
            "kind": "utca",
            "post_code": 0
        },
        {
            "name": "Dombos",
            "kind": "utca",
            "post_code": 0
        },
        {
            "name": "D\u00f6m\u00f6t\u00f6r",
            "kind": "utca",
            "post_code": 0
        },
        {
            "name": "D\u00f3zsa Gy\u00f6rgy",
            "kind": "\u00fat",
            "post_code": 0
        },
        {
            "name": "Dr. Aszal\u00f3s Imre",
            "kind": "utca",
            "post_code": 0
        },
        {
            "name": "Dr. Belon Gell\u00e9rt",
            "kind": "utca",
            "post_code": 0
        },
        {
            "name": "Drescher Ede",
            "kind": "utca",
            "post_code": 0
        },
        {
            "name": "Duna",
            "kind": "utca",
            "post_code": 0
        },
        {
            "name": "Duna-v\u00f6lgyi-f\u0151csatorna",
            "kind": "",
            "post_code": 0
        },
        {
            "name": "\u00c9ber S\u00e1ndor",
            "kind": "utca",
            "post_code": 0
        },
        {
            "name": "Egyet\u00e9rt\u00e9s",
            "kind": "utca",
            "post_code": 0
        },
        {
            "name": "El\u0151d",
            "kind": "utca",
            "post_code": 0
        },
        {
            "name": "E\u00f6tv\u00f6s J\u00f3zsef",
            "kind": "utca",
            "post_code": 0
        },
        {
            "name": "Epreskert",
            "kind": "utca",
            "post_code": 0
        },
        {
            "name": "Erd\u00e9sz",
            "kind": "utca",
            "post_code": 0
        },
        {
            "name": "Erkel Ferenc",
            "kind": "utca",
            "post_code": 0
        },
        {
            "name": "\u00c9rsekcsan\u00e1di",
            "kind": "utca",
            "post_code": 0
        },
        {
            "name": "Eszperant\u00f3",
            "kind": "utca",
            "post_code": 0
        },
        {
            "name": "Farkas",
            "kind": "utca",
            "post_code": 0
        },
        {
            "name": "F\u00e1y Andr\u00e1s",
            "kind": "utca",
            "post_code": 0
        },
        {
            "name": "Fecske",
            "kind": "utca",
            "post_code": 0
        },
        {
            "name": "Feh\u00e9r l\u00f3",
            "kind": "utca",
            "post_code": 0
        },
        {
            "name": "Feh\u00e9r",
            "kind": "utca",
            "post_code": 0
        },
        {
            "name": "Felekin\u00e9",
            "kind": "utca",
            "post_code": 0
        },
        {
            "name": "fel\u00fclj\u00e1r\u00f3",
            "kind": "",
            "post_code": 0
        },
        {
            "name": "Fl\u00f3ri\u00e1n",
            "kind": "utca",
            "post_code": 0
        },
        {
            "name": "Forr\u00e1s",
            "kind": "k\u00f6z",
            "post_code": 0
        },
        {
            "name": "F\u00fclep Lajos",
            "kind": "utca",
            "post_code": 0
        },
        {
            "name": "F\u00fcrj",
            "kind": "utca",
            "post_code": 0
        },
        {
            "name": "Futrinka",
            "kind": "utca",
            "post_code": 0
        },
        {
            "name": "Ga\u00e1l P\u00e9ter",
            "kind": "utca",
            "post_code": 0
        },
        {
            "name": "Galamb",
            "kind": "utca",
            "post_code": 0
        },
        {
            "name": "G\u00e1rdonyi G\u00e9za",
            "kind": "utca",
            "post_code": 0
        },
        {
            "name": "Garibaldi",
            "kind": "utca",
            "post_code": 0
        },
        {
            "name": "G\u00e1t",
            "kind": "utca",
            "post_code": 0
        },
        {
            "name": "Gerle",
            "kind": "utca",
            "post_code": 0
        },
        {
            "name": "G\u00f3lyasor",
            "kind": "",
            "post_code": 0
        },
        {
            "name": "G\u00f6rgey Art\u00far",
            "kind": "utca",
            "post_code": 0
        },
        {
            "name": "Gr\u00e1n\u00e1tos",
            "kind": "utca",
            "post_code": 0
        },
        {
            "name": "Grassalkovich",
            "kind": "utca",
            "post_code": 0
        },
        {
            "name": "Grauaug \u00c1rmin",
            "kind": "utca",
            "post_code": 0
        },
        {
            "name": "Gyalog",
            "kind": "utca",
            "post_code": 0
        },
        {
            "name": "Hadik",
            "kind": "utca",
            "post_code": 0
        },
        {
            "name": "Hal\u00e1szpart",
            "kind": "",
            "post_code": 0
        },
        {
            "name": "Harangl\u00e1b",
            "kind": "utca",
            "post_code": 0
        },
        {
            "name": "Harmat",
            "kind": "utca",
            "post_code": 0
        },
        {
            "name": "H\u00e1romny\u00fal",
            "kind": "utca",
            "post_code": 0
        },
        {
            "name": "H\u00e1rsfa",
            "kind": "utca",
            "post_code": 0
        },
        {
            "name": "Hat\u00e1r",
            "kind": "utca",
            "post_code": 0
        },
        {
            "name": "Hatty\u00fa",
            "kind": "utca",
            "post_code": 0
        },
        {
            "name": "Hentes",
            "kind": "utca",
            "post_code": 0
        },
        {
            "name": "Herceg Ferenc",
            "kind": "utca",
            "post_code": 0
        },
        {
            "name": "Herman Ott\u00f3",
            "kind": "utca",
            "post_code": 0
        },
        {
            "name": "H\u00e9th\u00e1z",
            "kind": "utca",
            "post_code": 0
        },
        {
            "name": "Hild J\u00f3zsef",
            "kind": "utca",
            "post_code": 0
        },
        {
            "name": "Holl\u00f3",
            "kind": "utca",
            "post_code": 0
        },
        {
            "name": "Homok",
            "kind": "utca",
            "post_code": 0
        },
        {
            "name": "Honv\u00e9d",
            "kind": "utca",
            "post_code": 0
        },
        {
            "name": "Horg\u00e1sz",
            "kind": "utca",
            "post_code": 0
        },
        {
            "name": "Hun",
            "kind": "utca",
            "post_code": 0
        },
        {
            "name": "Hunyadi J\u00e1nos",
            "kind": "utca",
            "post_code": 0
        },
        {
            "name": "Ibolya",
            "kind": "utca",
            "post_code": 0
        },
        {
            "name": "Ifj\u00fas\u00e1g",
            "kind": "utca",
            "post_code": 0
        },
        {
            "name": "Illy\u00e9s",
            "kind": "utca",
            "post_code": 0
        },
        {
            "name": "IV. K\u00e1roly",
            "kind": "rakpart",
            "post_code": 0
        },
        {
            "name": "J\u00e1cint",
            "kind": "utca",
            "post_code": 0
        },
        {
            "name": "J\u00e1vorka S\u00e1ndor",
            "kind": "utca",
            "post_code": 0
        },
        {
            "name": "Jedlik \u00c1nyos",
            "kind": "utca",
            "post_code": 0
        },
        {
            "name": "Jelky Andr\u00e1s",
            "kind": "t\u00e9r",
            "post_code": 0
        },
        {
            "name": "Jelky Andr\u00e1s",
            "kind": "utca",
            "post_code": 0
        },
        {
            "name": "Jobb\u00e1gy",
            "kind": "utca",
            "post_code": 0
        },
        {
            "name": "J\u00f3kai M\u00f3r",
            "kind": "utca",
            "post_code": 0
        },
        {
            "name": "J\u00f3zsef Attila",
            "kind": "utca",
            "post_code": 0
        },
        {
            "name": "Juh\u00e1sz Gyula",
            "kind": "utca",
            "post_code": 0
        },
        {
            "name": "Jurisich Mikl\u00f3s",
            "kind": "utca",
            "post_code": 0
        },
        {
            "name": "K\u00e1d\u00e1r",
            "kind": "utca",
            "post_code": 0
        },
        {
            "name": "Kagyl\u00f3",
            "kind": "utca",
            "post_code": 0
        },
        {
            "name": "Kakas",
            "kind": "utca",
            "post_code": 0
        },
        {
            "name": "K\u00e1kony",
            "kind": "utca",
            "post_code": 0
        },
        {
            "name": "Kal\u00e1sz",
            "kind": "utca",
            "post_code": 0
        },
        {
            "name": "K\u00e1lm\u00e1n kir\u00e1ly",
            "kind": "utca",
            "post_code": 0
        },
        {
            "name": "K\u00e1lv\u00e1ria",
            "kind": "utca",
            "post_code": 0
        },
        {
            "name": "Kand\u00f3 K\u00e1lm\u00e1n",
            "kind": "utca",
            "post_code": 0
        },
        {
            "name": "Kapisztr\u00e1n",
            "kind": "utca",
            "post_code": 0
        },
        {
            "name": "K\u00e1polna",
            "kind": "utca",
            "post_code": 0
        },
        {
            "name": "K\u00e1poszt\u00e1skert",
            "kind": "utca",
            "post_code": 0
        },
        {
            "name": "Karinthy",
            "kind": "utca",
            "post_code": 0
        },
        {
            "name": "K\u00e1rp\u00e1t",
            "kind": "utca",
            "post_code": 0
        },
        {
            "name": "Kassa",
            "kind": "utca",
            "post_code": 0
        },
        {
            "name": "Kasz\u00e1s",
            "kind": "utca",
            "post_code": 0
        },
        {
            "name": "Katona J\u00f3zsef",
            "kind": "utca",
            "post_code": 0
        },
        {
            "name": "Kazinczy Ferenc",
            "kind": "utca",
            "post_code": 0
        },
        {
            "name": "K\u00e9khegyi",
            "kind": "utca",
            "post_code": 0
        },
        {
            "name": "Kereszt",
            "kind": "utca",
            "post_code": 0
        },
        {
            "name": "Kert\u00e9sz",
            "kind": "utca",
            "post_code": 0
        },
        {
            "name": "Keskeny",
            "kind": "utca",
            "post_code": 0
        },
        {
            "name": "Keszeg",
            "kind": "utca",
            "post_code": 0
        },
        {
            "name": "K\u00edgy\u00f3",
            "kind": "utca",
            "post_code": 0
        },
        {
            "name": "Kinizsi P\u00e1l",
            "kind": "utca",
            "post_code": 0
        },
        {
            "name": "Kis\u00e1llom\u00e1s",
            "kind": "utca",
            "post_code": 0
        },
        {
            "name": "Kisdobos",
            "kind": "utca",
            "post_code": 0
        },
        {
            "name": "Kis",
            "kind": "utca",
            "post_code": 0
        },
        {
            "name": "Klapka Gy\u00f6rgy",
            "kind": "utca",
            "post_code": 0
        },
        {
            "name": "Kliegl J\u00f3zsef",
            "kind": "utca",
            "post_code": 0
        },
        {
            "name": "Kocsis P\u00e1l",
            "kind": "utca",
            "post_code": 0
        },
        {
            "name": "Kod\u00e1ly Zolt\u00e1n",
            "kind": "utca",
            "post_code": 0
        },
        {
            "name": "K\u00f6k\u00e9ny",
            "kind": "utca",
            "post_code": 0
        },
        {
            "name": "K\u00f6lcsey Ferenc",
            "kind": "utca",
            "post_code": 0
        },
        {
            "name": "Kolozsv\u00e1r",
            "kind": "utca",
            "post_code": 0
        },
        {
            "name": "Komp",
            "kind": "utca",
            "post_code": 0
        },
        {
            "name": "Kopp\u00e1ny",
            "kind": "utca",
            "post_code": 0
        },
        {
            "name": "Kors\u00f3s",
            "kind": "k\u00f6z",
            "post_code": 0
        },
        {
            "name": "Kors\u00f3s",
            "kind": "utca",
            "post_code": 0
        },
        {
            "name": "Kossuth Lajos",
            "kind": "utca",
            "post_code": 0
        },
        {
            "name": "K\u00f6zt\u00e1rsas\u00e1g",
            "kind": "t\u00e9r",
            "post_code": 0
        },
        {
            "name": "Kr\u00fady Gyula",
            "kind": "utca",
            "post_code": 0
        },
        {
            "name": "Lehel",
            "kind": "utca",
            "post_code": 0
        },
        {
            "name": "Liget",
            "kind": "utca",
            "post_code": 0
        },
        {
            "name": "L\u0151kert",
            "kind": "sor",
            "post_code": 0
        },
        {
            "name": "L\u0151rinc bar\u00e1t",
            "kind": "utca",
            "post_code": 0
        },
        {
            "name": "Mad\u00e1ch Imre",
            "kind": "utca",
            "post_code": 0
        },
        {
            "name": "Magyar",
            "kind": "utca",
            "post_code": 0
        },
        {
            "name": "M\u00e1jus 1",
            "kind": "s\u00e9t\u00e1ny",
            "post_code": 0
        },
        {
            "name": "M\u00e1lna",
            "kind": "k\u00f6z",
            "post_code": 0
        },
        {
            "name": "Malomr\u00e9v",
            "kind": "utca",
            "post_code": 0
        },
        {
            "name": "Malom",
            "kind": "utca",
            "post_code": 0
        },
        {
            "name": "M\u00e1rcius 15.",
            "kind": "s\u00e9t\u00e1ny",
            "post_code": 0
        },
        {
            "name": "M\u00e1ria",
            "kind": "utca",
            "post_code": 0
        },
        {
            "name": "Martinovics Ign\u00e1c",
            "kind": "utca",
            "post_code": 0
        },
        {
            "name": "M\u00e1rtonsz\u00e1ll\u00e1si",
            "kind": "\u00fat",
            "post_code": 0
        },
        {
            "name": "M\u00e1tra",
            "kind": "utca",
            "post_code": 0
        },
        {
            "name": "Matthi\u00e1sz J\u00e1nos",
            "kind": "utca",
            "post_code": 0
        },
        {
            "name": "Meggyfa",
            "kind": "utca",
            "post_code": 0
        },
        {
            "name": "M\u00e9hes",
            "kind": "k\u00f6z",
            "post_code": 0
        },
        {
            "name": "M\u00e9rleg",
            "kind": "utca",
            "post_code": 0
        },
        {
            "name": "M\u00e9sz\u00e1ros L\u00e1z\u00e1r",
            "kind": "utca",
            "post_code": 0
        },
        {
            "name": "Mez\u0151",
            "kind": "utca",
            "post_code": 0
        },
        {
            "name": "Mikl\u00f3s",
            "kind": "utca",
            "post_code": 0
        },
        {
            "name": "M\u00f3cz\u00e1s Aut\u00f3h\u00e1z",
            "kind": "",
            "post_code": 0
        },
        {
            "name": "M\u00f3kus",
            "kind": "utca",
            "post_code": 0
        },
        {
            "name": "Monostori",
            "kind": "\u00fat",
            "post_code": 0
        },
        {
            "name": "M\u00f3ra Ferenc",
            "kind": "utca",
            "post_code": 0
        },
        {
            "name": "M\u00f3ricz Zsigmond",
            "kind": "utca",
            "post_code": 0
        },
        {
            "name": "Munk\u00e1csy Mih\u00e1ly",
            "kind": "utca",
            "post_code": 0
        },
        {
            "name": "Munk\u00e1s",
            "kind": "utca",
            "post_code": 0
        },
        {
            "name": "Musk\u00e1tli",
            "kind": "utca",
            "post_code": 0
        },
        {
            "name": "N\u00e1dasdy",
            "kind": "utca",
            "post_code": 0
        },
        {
            "name": "Nagy Andr\u00e1s",
            "kind": "utca",
            "post_code": 0
        },
        {
            "name": "Nagy Istv\u00e1n",
            "kind": "utca",
            "post_code": 0
        },
        {
            "name": "Nagy Lajos kir\u00e1ly",
            "kind": "utca",
            "post_code": 0
        },
        {
            "name": "Napsug\u00e1r",
            "kind": "utca",
            "post_code": 0
        },
        {
            "name": "N\u00e9met",
            "kind": "utca",
            "post_code": 0
        },
        {
            "name": "Nimr\u00f3d",
            "kind": "utca",
            "post_code": 0
        },
        {
            "name": "Ny\u00e1rfa",
            "kind": "utca",
            "post_code": 0
        },
        {
            "name": "Ny\u00edrfa",
            "kind": "utca",
            "post_code": 0
        },
        {
            "name": "Oltv\u00e1nyi Imre",
            "kind": "utca",
            "post_code": 0
        },
        {
            "name": "Oroszl\u00e1n",
            "kind": "utca",
            "post_code": 0
        },
        {
            "name": "\u0150sz",
            "kind": "utca",
            "post_code": 0
        },
        {
            "name": "Otthon",
            "kind": "utca",
            "post_code": 0
        },
        {
            "name": "Pacsirta",
            "kind": "utca",
            "post_code": 0
        },
        {
            "name": "Pand\u00far",
            "kind": "utca",
            "post_code": 0
        },
        {
            "name": "Paprika",
            "kind": "utca",
            "post_code": 0
        },
        {
            "name": "Parkiol\u00f3",
            "kind": "",
            "post_code": 0
        },
        {
            "name": "Parti",
            "kind": "utca",
            "post_code": 0
        },
        {
            "name": "P\u00e1sztor",
            "kind": "utca",
            "post_code": 0
        },
        {
            "name": "P\u00e1zm\u00e1ny P\u00e9ter",
            "kind": "utca",
            "post_code": 0
        },
        {
            "name": "P\u00e1zsit",
            "kind": "t\u00e9r",
            "post_code": 0
        },
        {
            "name": "Perc",
            "kind": "utca",
            "post_code": 0
        },
        {
            "name": "Perczel",
            "kind": "utca",
            "post_code": 0
        },
        {
            "name": "P\u00e9ter-P\u00e1l",
            "kind": "utca",
            "post_code": 0
        },
        {
            "name": "Pet\u0151fi S\u00e1ndor h\u00edd",
            "kind": "",
            "post_code": 0
        },
        {
            "name": "Pet\u0151fi S\u00e1ndor",
            "kind": "utca",
            "post_code": 0
        },
        {
            "name": "Pet\u0151",
            "kind": "utca",
            "post_code": 0
        },
        {
            "name": "Pillang\u00f3",
            "kind": "utca",
            "post_code": 0
        },
        {
            "name": "Pipacs",
            "kind": "utca",
            "post_code": 0
        },
        {
            "name": "Plat\u00e1nfa",
            "kind": "utca",
            "post_code": 0
        },
        {
            "name": "Pokorny J\u00e1nos",
            "kind": "utca",
            "post_code": 0
        },
        {
            "name": "Ponty",
            "kind": "utca",
            "post_code": 0
        },
        {
            "name": "P\u00f3sta S\u00e1ndor",
            "kind": "utca",
            "post_code": 0
        },
        {
            "name": "Pozsony",
            "kind": "utca",
            "post_code": 0
        },
        {
            "name": "Puskin",
            "kind": "utca",
            "post_code": 0
        },
        {
            "name": "Puttonyos",
            "kind": "utca",
            "post_code": 0
        },
        {
            "name": "Radn\u00f3ti Mikl\u00f3s",
            "kind": "utca",
            "post_code": 0
        },
        {
            "name": "R\u00e1k\u00f3czi Ferenc",
            "kind": "utca",
            "post_code": 0
        },
        {
            "name": "Rakt\u00e1r",
            "kind": "utca",
            "post_code": 0
        },
        {
            "name": "Remete",
            "kind": "utca",
            "post_code": 0
        },
        {
            "name": "R\u00e9v\u00e9sz",
            "kind": "utca",
            "post_code": 0
        },
        {
            "name": "Rez\u00e9t",
            "kind": "utca",
            "post_code": 0
        },
        {
            "name": "Rig\u00f3",
            "kind": "utca",
            "post_code": 0
        },
        {
            "name": "R\u00f3ka",
            "kind": "k\u00f6z",
            "post_code": 0
        },
        {
            "name": "R\u00f3ka",
            "kind": "utca",
            "post_code": 0
        },
        {
            "name": "R\u00f3kus",
            "kind": "utca",
            "post_code": 0
        },
        {
            "name": "R\u00f6vid",
            "kind": "utca",
            "post_code": 0
        },
        {
            "name": "R\u00f3zsa",
            "kind": "utca",
            "post_code": 0
        },
        {
            "name": "Rudnay",
            "kind": "utca",
            "post_code": 0
        },
        {
            "name": "Sarkanty\u00fa",
            "kind": "utca",
            "post_code": 0
        },
        {
            "name": "S\u00e1rk\u00f6z",
            "kind": "utca",
            "post_code": 0
        },
        {
            "name": "Sarl\u00f3",
            "kind": "utca",
            "post_code": 0
        },
        {
            "name": "Sas",
            "kind": "utca",
            "post_code": 0
        },
        {
            "name": "Sereg\u00e9ly",
            "kind": "utca",
            "post_code": 0
        },
        {
            "name": "S\u00edp",
            "kind": "utca",
            "post_code": 0
        },
        {
            "name": "Sir\u00e1ly",
            "kind": "utca",
            "post_code": 0
        },
        {
            "name": "S\u00f3h\u00e1z",
            "kind": "utca",
            "post_code": 0
        },
        {
            "name": "S\u00f3lyom",
            "kind": "utca",
            "post_code": 0
        },
        {
            "name": "Sugovica",
            "kind": "utca",
            "post_code": 0
        },
        {
            "name": "Sum\u00e1r",
            "kind": "utca",
            "post_code": 0
        },
        {
            "name": "Szabadka",
            "kind": "utca",
            "post_code": 0
        },
        {
            "name": "Szabads\u00e1g",
            "kind": "utca",
            "post_code": 0
        },
        {
            "name": "Sz\u00e1nt\u00f3",
            "kind": "utca",
            "post_code": 0
        },
        {
            "name": "Szarka",
            "kind": "utca",
            "post_code": 0
        },
        {
            "name": "Szarvas G\u00e1bor",
            "kind": "utca",
            "post_code": 0
        },
        {
            "name": "Sz\u00e9chenyi Istv\u00e1n",
            "kind": "utca",
            "post_code": 0
        },
        {
            "name": "Szeder",
            "kind": "utca",
            "post_code": 0
        },
        {
            "name": "Szegedi",
            "kind": "\u00fat",
            "post_code": 0
        },
        {
            "name": "Sz\u00e9kely",
            "kind": "utca",
            "post_code": 0
        },
        {
            "name": "Szek\u00e9r",
            "kind": "utca",
            "post_code": 0
        },
        {
            "name": "Sz\u00e9na",
            "kind": "utca",
            "post_code": 0
        },
        {
            "name": "Szenes",
            "kind": "utca",
            "post_code": 0
        },
        {
            "name": "Szent Antal",
            "kind": "utca",
            "post_code": 0
        },
        {
            "name": "Szent Gell\u00e9rt",
            "kind": "utca",
            "post_code": 0
        },
        {
            "name": "Szent-Gy\u00f6rgyi Albert",
            "kind": "utca",
            "post_code": 0
        },
        {
            "name": "Szenth\u00e1roms\u00e1g",
            "kind": "t\u00e9r",
            "post_code": 0
        },
        {
            "name": "Szent Imre",
            "kind": "t\u00e9r",
            "post_code": 0
        },
        {
            "name": "Szentj\u00e1nosi",
            "kind": "utca",
            "post_code": 0
        },
        {
            "name": "Szent L\u00e1szl\u00f3",
            "kind": "utca",
            "post_code": 0
        },
        {
            "name": "Szent Margit",
            "kind": "utca",
            "post_code": 0
        },
        {
            "name": "Szeremlei",
            "kind": "utca",
            "post_code": 0
        },
        {
            "name": "Szilvafa",
            "kind": "utca",
            "post_code": 0
        },
        {
            "name": "Sziv\u00e1rv\u00e1ny",
            "kind": "utca",
            "post_code": 0
        },
        {
            "name": "Sz\u0151l\u0151",
            "kind": "utca",
            "post_code": 0
        },
        {
            "name": "Szondi",
            "kind": "utca",
            "post_code": 0
        },
        {
            "name": "Sz\u0151nyi Istv\u00e1n",
            "kind": "utca",
            "post_code": 0
        },
        {
            "name": "Sz\u00fcretel\u0151",
            "kind": "utca",
            "post_code": 0
        },
        {
            "name": "T\u00e1ltos",
            "kind": "utca",
            "post_code": 0
        },
        {
            "name": "T\u00e1ncsics Mih\u00e1ly",
            "kind": "utca",
            "post_code": 0
        },
        {
            "name": "Tas vez\u00e9r",
            "kind": "utca",
            "post_code": 0
        },
        {
            "name": "Tavasz",
            "kind": "utca",
            "post_code": 0
        },
        {
            "name": "T\u00e9gl\u00e1s",
            "kind": "utca",
            "post_code": 0
        },
        {
            "name": "Telcs Ede",
            "kind": "utca",
            "post_code": 0
        },
        {
            "name": "T\u00e9l",
            "kind": "utca",
            "post_code": 0
        },
        {
            "name": "Temesv\u00e1r",
            "kind": "utca",
            "post_code": 0
        },
        {
            "name": "Templom",
            "kind": "utca",
            "post_code": 0
        },
        {
            "name": "Tessedik S\u00e1muel",
            "kind": "utca",
            "post_code": 0
        },
        {
            "name": "Tigris",
            "kind": "utca",
            "post_code": 0
        },
        {
            "name": "Tin\u00f3di",
            "kind": "utca",
            "post_code": 0
        },
        {
            "name": "Toldi Mikl\u00f3s",
            "kind": "utca",
            "post_code": 0
        },
        {
            "name": "T\u00f6lgy",
            "kind": "utca",
            "post_code": 0
        },
        {
            "name": "Tomori P\u00e1l",
            "kind": "utca",
            "post_code": 0
        },
        {
            "name": "Tornyai",
            "kind": "utca",
            "post_code": 0
        },
        {
            "name": "T\u00f6r\u00f6k",
            "kind": "utca",
            "post_code": 0
        },
        {
            "name": "T\u00f3th K\u00e1lm\u00e1n",
            "kind": "t\u00e9r",
            "post_code": 0
        },
        {
            "name": "T\u00f3th K\u00e1lm\u00e1n",
            "kind": "utca",
            "post_code": 0
        },
        {
            "name": "T\u00fccs\u00f6k",
            "kind": "utca",
            "post_code": 0
        },
        {
            "name": "Tulip\u00e1n",
            "kind": "utca",
            "post_code": 0
        },
        {
            "name": "T\u00fcrr eml\u00e9km\u0171",
            "kind": "part",
            "post_code": 0
        },
        {
            "name": "T\u00fcrr Istv\u00e1n h\u00edd",
            "kind": "",
            "post_code": 0
        },
        {
            "name": "T\u00fcrr Istv\u00e1n",
            "kind": "utca",
            "post_code": 0
        },
        {
            "name": "\u00dajvid\u00e9k",
            "kind": "utca",
            "post_code": 0
        },
        {
            "name": "Usz\u00e1ly",
            "kind": "utca",
            "post_code": 0
        },
        {
            "name": "Vad\u00e1sz",
            "kind": "utca",
            "post_code": 0
        },
        {
            "name": "Vadr\u00f3zsa",
            "kind": "utca",
            "post_code": 0
        },
        {
            "name": "Vadvir\u00e1g",
            "kind": "utca",
            "post_code": 0
        },
        {
            "name": "Vajda J\u00e1nos",
            "kind": "utca",
            "post_code": 0
        },
        {
            "name": "Vajk",
            "kind": "utca",
            "post_code": 0
        },
        {
            "name": "V\u00e1m",
            "kind": "utca",
            "post_code": 0
        },
        {
            "name": "Varsa",
            "kind": "utca",
            "post_code": 0
        },
        {
            "name": "Vasv\u00e1ri P\u00e1l",
            "kind": "utca",
            "post_code": 0
        },
        {
            "name": "Vazul",
            "kind": "utca",
            "post_code": 0
        },
        {
            "name": "Venyige",
            "kind": "utca",
            "post_code": 0
        },
        {
            "name": "Vet\u0151",
            "kind": "utca",
            "post_code": 0
        },
        {
            "name": "Vidra",
            "kind": "utca",
            "post_code": 0
        },
        {
            "name": "Vil\u00e1gos",
            "kind": "utca",
            "post_code": 0
        },
        {
            "name": "Viola",
            "kind": "utca",
            "post_code": 0
        },
        {
            "name": "Vit\u00e9z",
            "kind": "utca",
            "post_code": 0
        },
        {
            "name": "V\u00f6cs\u00f6k",
            "kind": "utca",
            "post_code": 0
        },
        {
            "name": "V\u00f6lgy",
            "kind": "utca",
            "post_code": 0
        },
        {
            "name": "V\u00f6r\u00f6sh\u00edd",
            "kind": "s\u00e9t\u00e1ny",
            "post_code": 0
        },
        {
            "name": "V\u00f6r\u00f6skereszt",
            "kind": "t\u00e9r",
            "post_code": 0
        },
        {
            "name": "V\u00f6r\u00f6smarty Mih\u00e1ly",
            "kind": "utca",
            "post_code": 0
        },
        {
            "name": "Wessel\u00e9nyi",
            "kind": "utca",
            "post_code": 0
        },
        {
            "name": "Ybl",
            "kind": "s\u00e9t\u00e1ny",
            "post_code": 0
        },
        {
            "name": "Zeng\u0151",
            "kind": "utca",
            "post_code": 0
        },
        {
            "name": "Zenta",
            "kind": "utca",
            "post_code": 0
        },
        {
            "name": "Zipernowsky K\u00e1roly",
            "kind": "utca",
            "post_code": 0
        },
        {
            "name": "Z\u00f6ld",
            "kind": "utca",
            "post_code": 0
        },
        {
            "name": "Zombor",
            "kind": "utca",
            "post_code": 0
        },
        {
            "name": "Zr\u00ednyi Mikl\u00f3s",
            "kind": "utca",
            "post_code": 0
        },
        {
            "name": "Szent Imre",
            "kind": "t\u00e9r",
            "post_code": 0
        },
        {
            "name": "T\u00f3th K\u00e1lm\u00e1n",
            "kind": "t\u00e9r",
            "post_code": 0
        }
    ]
}