{
    "codes": {
        "8056": [
            "Bakonycsernye",
            null
        ]
    },
    "streets": [
        {
            "name": "B\u00e1ny\u00e1sz",
            "kind": "utca",
            "post_code": 0
        },
        {
            "name": "Bod\u00f3 M\u00e1rton",
            "kind": "utca",
            "post_code": 0
        },
        {
            "name": "Dorschner",
            "kind": "utca",
            "post_code": 0
        },
        {
            "name": "Iskola",
            "kind": "utca",
            "post_code": 0
        },
        {
            "name": "K\u00e1llai \u00c9va",
            "kind": "utca",
            "post_code": 0
        },
        {
            "name": "Kuruc",
            "kind": "utca",
            "post_code": 0
        },
        {
            "name": "Pet\u0151fi S\u00e1ndor",
            "kind": "utca",
            "post_code": 0
        },
        {
            "name": "R\u00f3zsa",
            "kind": "utca",
            "post_code": 0
        }
    ]
}