{
    "codes": {
        "6768": [
            "Baks",
            null
        ]
    },
    "streets": [
        {
            "name": "Ady Endre",
            "kind": "utca",
            "post_code": 0
        },
        {
            "name": "Ak\u00e1cfa",
            "kind": "utca",
            "post_code": 0
        },
        {
            "name": "Alkotm\u00e1ny",
            "kind": "utca",
            "post_code": 0
        },
        {
            "name": "Aradi",
            "kind": "utca",
            "post_code": 0
        },
        {
            "name": "\u00c1rp\u00e1d",
            "kind": "utca",
            "post_code": 0
        },
        {
            "name": "Bar\u00e1ts\u00e1g",
            "kind": "utca",
            "post_code": 0
        },
        {
            "name": "B\u00e9ke",
            "kind": "utca",
            "post_code": 0
        },
        {
            "name": "Csanyteleki",
            "kind": "\u00fat",
            "post_code": 0
        },
        {
            "name": "D\u00f3zsa Gy\u00f6rgy",
            "kind": "utca",
            "post_code": 0
        },
        {
            "name": "F\u0151",
            "kind": "utca",
            "post_code": 0
        },
        {
            "name": "Hanth\u00e1zi",
            "kind": "\u00fat",
            "post_code": 0
        },
        {
            "name": "H\u00f3vir\u00e1g",
            "kind": "utca",
            "post_code": 0
        },
        {
            "name": "J\u00f3kai",
            "kind": "\u00fat",
            "post_code": 0
        },
        {
            "name": "J\u00f3zsef Attila",
            "kind": "utca",
            "post_code": 0
        },
        {
            "name": "Kassai",
            "kind": "utca",
            "post_code": 0
        },
        {
            "name": "Kolozsv\u00e1ri",
            "kind": "utca",
            "post_code": 0
        },
        {
            "name": "Kossuth Lajos",
            "kind": "utca",
            "post_code": 0
        },
        {
            "name": "K\u00f6zt\u00e1rsas\u00e1g",
            "kind": "utca",
            "post_code": 0
        },
        {
            "name": "M\u00e1jus 1.",
            "kind": "utca",
            "post_code": 0
        },
        {
            "name": "Meggyesi",
            "kind": "utca",
            "post_code": 0
        },
        {
            "name": "Monostori",
            "kind": "utca",
            "post_code": 0
        },
        {
            "name": "Nehezen j\u00e1rhat\u00f3!",
            "kind": "",
            "post_code": 0
        },
        {
            "name": "Pet\u0151fi S\u00e1ndor",
            "kind": "utca",
            "post_code": 0
        },
        {
            "name": "R\u00f3zsa",
            "kind": "utca",
            "post_code": 0
        },
        {
            "name": "Szabadkai",
            "kind": "utca",
            "post_code": 0
        },
        {
            "name": "Szatm\u00e1ri",
            "kind": "utca",
            "post_code": 0
        },
        {
            "name": "Szegf\u0171",
            "kind": "utca",
            "post_code": 0
        },
        {
            "name": "Tiszai",
            "kind": "utca",
            "post_code": 0
        },
        {
            "name": "Tulip\u00e1n",
            "kind": "utca",
            "post_code": 0
        },
        {
            "name": "V\u00e1radi",
            "kind": "utca",
            "post_code": 0
        },
        {
            "name": "V\u00e1s\u00e1rt\u00e9r",
            "kind": "\u00fat",
            "post_code": 0
        },
        {
            "name": "Vir\u00e1g",
            "kind": "utca",
            "post_code": 0
        },
        {
            "name": "V\u00f6r\u00f6smarty",
            "kind": "utca",
            "post_code": 0
        }
    ]
}