{
    "codes": {
        "8313": [
            "Balatongy\u00f6r\u00f6k",
            null
        ]
    },
    "streets": [
        {
            "name": "Ak\u00e1cos",
            "kind": "utca",
            "post_code": 0
        },
        {
            "name": "Baco",
            "kind": "utca",
            "post_code": 0
        },
        {
            "name": "Balaton",
            "kind": "utca",
            "post_code": 0
        },
        {
            "name": "Becehegy",
            "kind": "",
            "post_code": 0
        },
        {
            "name": "Bece",
            "kind": "utca",
            "post_code": 0
        },
        {
            "name": "B\u00f6ngy\u00e9r",
            "kind": "\u00fat",
            "post_code": 0
        },
        {
            "name": "Cinege",
            "kind": "k\u00f6z",
            "post_code": 0
        },
        {
            "name": "Csabagy\u00f6ngye",
            "kind": "utca",
            "post_code": 0
        },
        {
            "name": "Csap",
            "kind": "utca",
            "post_code": 0
        },
        {
            "name": "Cset\u00e9ny",
            "kind": "utca",
            "post_code": 0
        },
        {
            "name": "Csont Ferenc",
            "kind": "utca",
            "post_code": 0
        },
        {
            "name": "De\u00e1k Ferenc",
            "kind": "utca",
            "post_code": 0
        },
        {
            "name": "Di\u00f3fa",
            "kind": "utca",
            "post_code": 0
        },
        {
            "name": "D\u00f3zsa Gy\u00f6rgy",
            "kind": "utca",
            "post_code": 0
        },
        {
            "name": "E\u00f6tv\u00f6s K\u00e1roly",
            "kind": "utca",
            "post_code": 0
        },
        {
            "name": "Ereszt\u00e9nyi",
            "kind": "\u00fat",
            "post_code": 0
        },
        {
            "name": "Fels\u0151cset\u00e9ny",
            "kind": "",
            "post_code": 0
        },
        {
            "name": "Fels\u0151cset\u00e9nyi",
            "kind": "\u00fat",
            "post_code": 0
        },
        {
            "name": "Fels\u0151cset\u00e9ny",
            "kind": "k\u00f6z",
            "post_code": 0
        },
        {
            "name": "Fels\u0151hegyi",
            "kind": "\u00fat",
            "post_code": 0
        },
        {
            "name": "Fels\u0151",
            "kind": "\u00fat",
            "post_code": 0
        },
        {
            "name": "F\u0151",
            "kind": "utca",
            "post_code": 0
        },
        {
            "name": "F\u00fcge",
            "kind": "k\u00f6z",
            "post_code": 0
        },
        {
            "name": "Hegyalja",
            "kind": "utca",
            "post_code": 0
        },
        {
            "name": "Horg\u00e1sz",
            "kind": "utca",
            "post_code": 0
        },
        {
            "name": "Irtov\u00e1ny",
            "kind": "utca",
            "post_code": 0
        },
        {
            "name": "J\u00f3zsef Attila",
            "kind": "utca",
            "post_code": 0
        },
        {
            "name": "K\u00e1polna",
            "kind": "utca",
            "post_code": 0
        },
        {
            "name": "Kisfaludi",
            "kind": "utca",
            "post_code": 0
        },
        {
            "name": "Kossuth Lajos",
            "kind": "utca",
            "post_code": 0
        },
        {
            "name": "Levendula",
            "kind": "utca",
            "post_code": 0
        },
        {
            "name": "Magyar\u00e1gyi",
            "kind": "utca",
            "post_code": 0
        },
        {
            "name": "Mandul\u00e1s",
            "kind": "k\u00f6z",
            "post_code": 0
        },
        {
            "name": "M\u00e9ly",
            "kind": "k\u00f6z",
            "post_code": 0
        },
        {
            "name": "M\u00e9ly",
            "kind": "\u00fat",
            "post_code": 0
        },
        {
            "name": "Mogyor\u00f3s",
            "kind": "utca",
            "post_code": 0
        },
        {
            "name": "M\u00f3ricz Zsigmond",
            "kind": "utca",
            "post_code": 0
        },
        {
            "name": "Ny\u00e1r",
            "kind": "utca",
            "post_code": 0
        },
        {
            "name": "Orgona",
            "kind": "utca",
            "post_code": 0
        },
        {
            "name": "\u0150sz",
            "kind": "utca",
            "post_code": 0
        },
        {
            "name": "Pacsirta",
            "kind": "k\u00f6z",
            "post_code": 0
        },
        {
            "name": "Panor\u00e1ma",
            "kind": "utca",
            "post_code": 0
        },
        {
            "name": "Paphegy",
            "kind": "",
            "post_code": 0
        },
        {
            "name": "Paphegyi",
            "kind": "\u00fat",
            "post_code": 0
        },
        {
            "name": "Patk\u00f3",
            "kind": "utca",
            "post_code": 0
        },
        {
            "name": "Pet\u0151fi S\u00e1ndor",
            "kind": "utca",
            "post_code": 0
        },
        {
            "name": "Rig\u00f3",
            "kind": "utca",
            "post_code": 0
        },
        {
            "name": "Sim\u00e1ndy J\u00f3zsef",
            "kind": "s\u00e9t\u00e1ny",
            "post_code": 0
        },
        {
            "name": "Sz\u00e9chenyi Istv\u00e1n",
            "kind": "utca",
            "post_code": 0
        },
        {
            "name": "Szent Istv\u00e1n",
            "kind": "utca",
            "post_code": 0
        },
        {
            "name": "Szilv\u00e1skerti",
            "kind": "utca",
            "post_code": 0
        },
        {
            "name": "Sz\u00fcrkebar\u00e1t",
            "kind": "utca",
            "post_code": 0
        },
        {
            "name": "Tak\u00e1cs J\u00f3zsef",
            "kind": "utca",
            "post_code": 0
        },
        {
            "name": "Tavasz",
            "kind": "utca",
            "post_code": 0
        },
        {
            "name": "T\u00e9l",
            "kind": "utca",
            "post_code": 0
        },
        {
            "name": "Temet\u0151",
            "kind": "utca",
            "post_code": 0
        },
        {
            "name": "\u00dcsth Gyula",
            "kind": "utca",
            "post_code": 0
        },
        {
            "name": "Vadr\u00f3zsa",
            "kind": "utca",
            "post_code": 0
        },
        {
            "name": "V\u00f6lgy",
            "kind": "utca",
            "post_code": 0
        },
        {
            "name": "Z\u00f6ld",
            "kind": "utca",
            "post_code": 0
        },
        {
            "name": "Zs\u00e1k",
            "kind": "utca",
            "post_code": 0
        },
        {
            "name": "Zs\u00f6lleh\u00e1t",
            "kind": "",
            "post_code": 0
        },
        {
            "name": "Zs\u00f6lleh\u00e1ti",
            "kind": "d\u0171l\u0151",
            "post_code": 0
        },
        {
            "name": "Zs\u00f6lleh\u00e1ti",
            "kind": "k\u00f6z",
            "post_code": 0
        },
        {
            "name": "Zs\u00f6lleh\u00e1ti",
            "kind": "utca",
            "post_code": 0
        }
    ]
}