{
    "codes": {
        "2660": [
            "Balassagyarmat",
            null
        ]
    },
    "streets": [
        {
            "name": "16-os honv\u00e9d",
            "kind": "utca",
            "post_code": 0
        },
        {
            "name": "\u00c1chim Andr\u00e1s",
            "kind": "utca",
            "post_code": 0
        },
        {
            "name": "Ady Endre",
            "kind": "\u00fat",
            "post_code": 0
        },
        {
            "name": "Agl\u0151ver Mih\u00e1ly",
            "kind": "utca",
            "post_code": 0
        },
        {
            "name": "Ak\u00e1cfa",
            "kind": "utca",
            "post_code": 0
        },
        {
            "name": "Alg\u0151ver Mih\u00e1ly",
            "kind": "utca",
            "post_code": 0
        },
        {
            "name": "Aradi",
            "kind": "utca",
            "post_code": 0
        },
        {
            "name": "Arany J\u00e1nos",
            "kind": "utca",
            "post_code": 0
        },
        {
            "name": "\u00c1rnyas",
            "kind": "utca",
            "post_code": 0
        },
        {
            "name": "\u00c1rp\u00e1d",
            "kind": "utca",
            "post_code": 0
        },
        {
            "name": "Bajcsy-Zsilinszky",
            "kind": "\u00fat",
            "post_code": 0
        },
        {
            "name": "Balassa",
            "kind": "utca",
            "post_code": 0
        },
        {
            "name": "Baltik Frigyes",
            "kind": "utca",
            "post_code": 0
        },
        {
            "name": "Barg\u00e1r \u00d6d\u00f6n",
            "kind": "utca",
            "post_code": 0
        },
        {
            "name": "Baross G\u00e1bor",
            "kind": "utca",
            "post_code": 0
        },
        {
            "name": "Bartha Elem\u00e9r",
            "kind": "utca",
            "post_code": 0
        },
        {
            "name": "Bart\u00f3k B\u00e9la",
            "kind": "utca",
            "post_code": 0
        },
        {
            "name": "B\u00e1stya",
            "kind": "utca",
            "post_code": 0
        },
        {
            "name": "B\u00e1thory",
            "kind": "utca",
            "post_code": 0
        },
        {
            "name": "Batthy\u00e1ny",
            "kind": "utca",
            "post_code": 0
        },
        {
            "name": "B\u00e9ke",
            "kind": "utca",
            "post_code": 0
        },
        {
            "name": "Bem J\u00f3zsef",
            "kind": "utca",
            "post_code": 0
        },
        {
            "name": "Bencz\u00far Gyula",
            "kind": "utca",
            "post_code": 0
        },
        {
            "name": "Bercs\u00e9nyi",
            "kind": "utca",
            "post_code": 0
        },
        {
            "name": "B\u00e9rczy K\u00e1roly",
            "kind": "utca",
            "post_code": 0
        },
        {
            "name": "B\u00e9ri Balogh \u00c1d\u00e1m",
            "kind": "utca",
            "post_code": 0
        },
        {
            "name": "B\u00edr\u00f3 J\u00e1nos",
            "kind": "utca",
            "post_code": 0
        },
        {
            "name": "Bl\u00e1zsik K\u00e1roly",
            "kind": "utca",
            "post_code": 0
        },
        {
            "name": "Civitas Fortissima",
            "kind": "t\u00e9r",
            "post_code": 0
        },
        {
            "name": "Csokonai",
            "kind": "utca",
            "post_code": 0
        },
        {
            "name": "Damjanich",
            "kind": "utca",
            "post_code": 0
        },
        {
            "name": "Dar\u00f3czi Guszt\u00e1v",
            "kind": "utca",
            "post_code": 0
        },
        {
            "name": "De\u00e1k Ferenc",
            "kind": "utca",
            "post_code": 0
        },
        {
            "name": "D\u00e9li elker\u00fcl\u0151",
            "kind": "",
            "post_code": 0
        },
        {
            "name": "Domb",
            "kind": "utca",
            "post_code": 0
        },
        {
            "name": "D\u00f3zsa Gy\u00f6rgy",
            "kind": "\u00fat",
            "post_code": 0
        },
        {
            "name": "Dr. Magyar P\u00e1l",
            "kind": "utca",
            "post_code": 0
        },
        {
            "name": "\u00c9gerfa",
            "kind": "utca",
            "post_code": 0
        },
        {
            "name": "Erd\u00e9lyi J\u00f3zsef",
            "kind": "utca",
            "post_code": 0
        },
        {
            "name": "Erd\u0151ker\u00fcl\u0151",
            "kind": "utca",
            "post_code": 0
        },
        {
            "name": "Erkel Ferenc",
            "kind": "utca",
            "post_code": 0
        },
        {
            "name": "Esze Tam\u00e1s",
            "kind": "utca",
            "post_code": 0
        },
        {
            "name": "F\u00e1y Andr\u00e1s",
            "kind": "utca",
            "post_code": 0
        },
        {
            "name": "Fels\u0151 malom",
            "kind": "utca",
            "post_code": 0
        },
        {
            "name": "Fenyves",
            "kind": "utca",
            "post_code": 0
        },
        {
            "name": "F\u00fclem\u00fcle",
            "kind": "utca",
            "post_code": 0
        },
        {
            "name": "G\u00e1bor \u00c1ron",
            "kind": "utca",
            "post_code": 0
        },
        {
            "name": "G\u00e1rdonyi G\u00e9za",
            "kind": "utca",
            "post_code": 0
        },
        {
            "name": "Gimn\u00e1zium",
            "kind": "k\u00f6z",
            "post_code": 0
        },
        {
            "name": "Haj\u00f3s Alfr\u00e9d",
            "kind": "utca",
            "post_code": 0
        },
        {
            "name": "H\u00e1rsfa",
            "kind": "utca",
            "post_code": 0
        },
        {
            "name": "Hat\u00e1r\u0151r",
            "kind": "utca",
            "post_code": 0
        },
        {
            "name": "H\u00e9tvez\u00e9r",
            "kind": "utca",
            "post_code": 0
        },
        {
            "name": "Honti",
            "kind": "utca",
            "post_code": 0
        },
        {
            "name": "Horv\u00e1th Endre",
            "kind": "utca",
            "post_code": 0
        },
        {
            "name": "H\u0151s\u00f6k",
            "kind": "tere",
            "post_code": 0
        },
        {
            "name": "Hunyadi",
            "kind": "utca",
            "post_code": 0
        },
        {
            "name": "Husz\u00e1r Alad\u00e1r",
            "kind": "utca",
            "post_code": 0
        },
        {
            "name": "Ifj\u00fas\u00e1g",
            "kind": "\u00fatja",
            "post_code": 0
        },
        {
            "name": "Ipari",
            "kind": "park",
            "post_code": 0
        },
        {
            "name": "Ipolyj\u00e1r\u00f3",
            "kind": "utca",
            "post_code": 0
        },
        {
            "name": "Ipolypart",
            "kind": "utca",
            "post_code": 0
        },
        {
            "name": "Ipoly",
            "kind": "utca",
            "post_code": 0
        },
        {
            "name": "Ir\u00e1nyi D\u00e1niel",
            "kind": "utca",
            "post_code": 0
        },
        {
            "name": "Jeszenszky K\u00e1lm\u00e1n",
            "kind": "utca",
            "post_code": 0
        },
        {
            "name": "J\u00f3kai M\u00f3r",
            "kind": "utca",
            "post_code": 0
        },
        {
            "name": "J\u00f3pal\u00f3cok",
            "kind": "\u00fatja",
            "post_code": 0
        },
        {
            "name": "J\u00f3sz\u00edv",
            "kind": "utca",
            "post_code": 0
        },
        {
            "name": "J\u00f3zsef Attila",
            "kind": "utca",
            "post_code": 0
        },
        {
            "name": "Kacsa",
            "kind": "utca",
            "post_code": 0
        },
        {
            "name": "Kamiontermin\u00e1l",
            "kind": "",
            "post_code": 0
        },
        {
            "name": "Kand\u00f3 K\u00e1lm\u00e1n",
            "kind": "utca",
            "post_code": 0
        },
        {
            "name": "Kecskeliget",
            "kind": "",
            "post_code": 0
        },
        {
            "name": "Kenessey Albert",
            "kind": "utca",
            "post_code": 0
        },
        {
            "name": "Klapka Gy\u00f6rgy",
            "kind": "utca",
            "post_code": 0
        },
        {
            "name": "K\u00f3csag",
            "kind": "\u00fat",
            "post_code": 0
        },
        {
            "name": "K\u00f3csag",
            "kind": "utca",
            "post_code": 0
        },
        {
            "name": "Kod\u00e1ly Zolt\u00e1n",
            "kind": "utca",
            "post_code": 0
        },
        {
            "name": "K\u00f6lcsey Ferenc",
            "kind": "utca",
            "post_code": 0
        },
        {
            "name": "Kolozsv\u00e1ri",
            "kind": "utca",
            "post_code": 0
        },
        {
            "name": "Komj\u00e1thy",
            "kind": "utca",
            "post_code": 0
        },
        {
            "name": "Kondor Ern\u0151",
            "kind": "utca",
            "post_code": 0
        },
        {
            "name": "Kossuth Lajos",
            "kind": "\u00fat",
            "post_code": 0
        },
        {
            "name": "K\u00f3v\u00e1ri",
            "kind": "\u00fat",
            "post_code": 0
        },
        {
            "name": "Leiningen K\u00e1roly",
            "kind": "utca",
            "post_code": 0
        },
        {
            "name": "Ligeti Lajos",
            "kind": "utca",
            "post_code": 0
        },
        {
            "name": "Liszt Ferenc",
            "kind": "utca",
            "post_code": 0
        },
        {
            "name": "Losonci",
            "kind": "utca",
            "post_code": 0
        },
        {
            "name": "Luther",
            "kind": "utca",
            "post_code": 0
        },
        {
            "name": "Mad\u00e1ch Imre",
            "kind": "utca",
            "post_code": 0
        },
        {
            "name": "Mad\u00e1ch Liget",
            "kind": "",
            "post_code": 0
        },
        {
            "name": "M\u00e1jus 1",
            "kind": "\u00fat",
            "post_code": 0
        },
        {
            "name": "Markusovszky Lajos",
            "kind": "utca",
            "post_code": 0
        },
        {
            "name": "M\u00e1rt\u00edrok",
            "kind": "\u00fatja",
            "post_code": 0
        },
        {
            "name": "Mauks Ilona",
            "kind": "utca",
            "post_code": 0
        },
        {
            "name": "M\u00e9sz\u00e1ros L\u00e1z\u00e1r",
            "kind": "utca",
            "post_code": 0
        },
        {
            "name": "Mik\u00f3 Zolt\u00e1n",
            "kind": "utca",
            "post_code": 0
        },
        {
            "name": "Miksz\u00e1th K\u00e1lm\u00e1n",
            "kind": "\u00fat",
            "post_code": 0
        },
        {
            "name": "M\u00f3ra Ferenc",
            "kind": "utca",
            "post_code": 0
        },
        {
            "name": "M\u00f3ricz Zsigmond",
            "kind": "utca",
            "post_code": 0
        },
        {
            "name": "Munk\u00e1s",
            "kind": "utca",
            "post_code": 0
        },
        {
            "name": "N\u00e1dor",
            "kind": "utca",
            "post_code": 0
        },
        {
            "name": "Nagy Imre",
            "kind": "utca",
            "post_code": 0
        },
        {
            "name": "Ny\u00e1rfa",
            "kind": "utca",
            "post_code": 0
        },
        {
            "name": "Ny\u00edrjesi",
            "kind": "\u00fat",
            "post_code": 0
        },
        {
            "name": "Orgona",
            "kind": "utca",
            "post_code": 0
        },
        {
            "name": "\u00d3",
            "kind": "utca",
            "post_code": 0
        },
        {
            "name": "\u00d3v\u00e1ros",
            "kind": "t\u00e9r",
            "post_code": 0
        },
        {
            "name": "Pajor",
            "kind": "utca",
            "post_code": 0
        },
        {
            "name": "Pal\u00f3c",
            "kind": "liget",
            "post_code": 0
        },
        {
            "name": "Pal\u00f3c Triatlon",
            "kind": "utca",
            "post_code": 0
        },
        {
            "name": "Patvarci",
            "kind": "\u00fat",
            "post_code": 0
        },
        {
            "name": "Patvarci",
            "kind": "utca",
            "post_code": 0
        },
        {
            "name": "Perczel M\u00f3r",
            "kind": "utca",
            "post_code": 0
        },
        {
            "name": "Pet\u0151fi S\u00e1ndor",
            "kind": "utca",
            "post_code": 0
        },
        {
            "name": "Pozsonyi",
            "kind": "utca",
            "post_code": 0
        },
        {
            "name": "Radn\u00f3ti Mikl\u00f3s",
            "kind": "utca",
            "post_code": 0
        },
        {
            "name": "R\u00e1k\u00f3czi fejedelem",
            "kind": "\u00fatja",
            "post_code": 0
        },
        {
            "name": "R\u00e9gimalom",
            "kind": "utca",
            "post_code": 0
        },
        {
            "name": "Rem\u00e9nyik K\u00e1roly",
            "kind": "utca",
            "post_code": 0
        },
        {
            "name": "Rozmaring",
            "kind": "utca",
            "post_code": 0
        },
        {
            "name": "R\u00f3zsa",
            "kind": "utca",
            "post_code": 0
        },
        {
            "name": "R\u00f3zsv\u00f6lgyi M\u00e1rk",
            "kind": "utca",
            "post_code": 0
        },
        {
            "name": "S\u00e1ntha K\u00e1lm\u00e1n",
            "kind": "utca",
            "post_code": 0
        },
        {
            "name": "Semmelweis Ign\u00e1c",
            "kind": "utca",
            "post_code": 0
        },
        {
            "name": "Szab\u00f3 L\u0151rinc",
            "kind": "utca",
            "post_code": 0
        },
        {
            "name": "Szab\u00f3 p\u00fcsp\u00f6k",
            "kind": "utca",
            "post_code": 0
        },
        {
            "name": "Sz\u00e9chenyi",
            "kind": "utca",
            "post_code": 0
        },
        {
            "name": "Szent Imre",
            "kind": "utca",
            "post_code": 0
        },
        {
            "name": "Szent Istv\u00e1n",
            "kind": "utca",
            "post_code": 0
        },
        {
            "name": "Szerb",
            "kind": "utca",
            "post_code": 0
        },
        {
            "name": "Szondi",
            "kind": "utca",
            "post_code": 0
        },
        {
            "name": "Szont\u00e1gh P\u00e1l",
            "kind": "utca",
            "post_code": 0
        },
        {
            "name": "Sz\u00fcgyi",
            "kind": "\u00fat",
            "post_code": 0
        },
        {
            "name": "T\u00e1ncsics",
            "kind": "k\u00f6z",
            "post_code": 0
        },
        {
            "name": "T\u00e1tra",
            "kind": "utca",
            "post_code": 0
        },
        {
            "name": "Teleki",
            "kind": "utca",
            "post_code": 0
        },
        {
            "name": "Temet\u0151",
            "kind": "utca",
            "post_code": 0
        },
        {
            "name": "Tesco",
            "kind": "parkol\u00f3",
            "post_code": 0
        },
        {
            "name": "Tesco parkol\u00f3 bej\u00e1rat \u00e9s kij\u00e1rat",
            "kind": "",
            "post_code": 0
        },
        {
            "name": "Th\u00f6k\u00f6ly",
            "kind": "utca",
            "post_code": 0
        },
        {
            "name": "Tihanyi",
            "kind": "utca",
            "post_code": 0
        },
        {
            "name": "Tompa Mih\u00e1ly",
            "kind": "utca",
            "post_code": 0
        },
        {
            "name": "T\u00f3part",
            "kind": "utca",
            "post_code": 0
        },
        {
            "name": "T\u00f6r\u00f6k Ign\u00e1c",
            "kind": "utca",
            "post_code": 0
        },
        {
            "name": "Trik\u00e1l J\u00f3zsef",
            "kind": "utca",
            "post_code": 0
        },
        {
            "name": "\u00daj",
            "kind": "utca",
            "post_code": 0
        },
        {
            "name": "V\u00e1ci Mih\u00e1ly",
            "kind": "utca",
            "post_code": 0
        },
        {
            "name": "Vak Botty\u00e1n",
            "kind": "utca",
            "post_code": 0
        },
        {
            "name": "V\u00e1r",
            "kind": "utca",
            "post_code": 0
        },
        {
            "name": "Veres P\u00e1ln\u00e9",
            "kind": "utca",
            "post_code": 0
        },
        {
            "name": "Vidra",
            "kind": "utca",
            "post_code": 0
        },
        {
            "name": "Viola",
            "kind": "utca",
            "post_code": 0
        },
        {
            "name": "Vizy Zsigmond",
            "kind": "utca",
            "post_code": 0
        },
        {
            "name": "V\u00f6r\u00f6smarty",
            "kind": "utca",
            "post_code": 0
        },
        {
            "name": "Zeke K\u00e1lm\u00e1n",
            "kind": "utca",
            "post_code": 0
        },
        {
            "name": "Zichy",
            "kind": "utca",
            "post_code": 0
        },
        {
            "name": "Zr\u00ednyi",
            "kind": "utca",
            "post_code": 0
        },
        {
            "name": "Zs\u00e1k",
            "kind": "utca",
            "post_code": 0
        },
        {
            "name": "Civitas Fortissima",
            "kind": "t\u00e9r",
            "post_code": 0
        }
    ]
}