{
    "codes": {
        "8220": [
            "Balatonalm\u00e1di",
            " "
        ]
    },
    "streets": [
        {
            "name": "Ady Endre",
            "kind": "utca",
            "post_code": 0
        },
        {
            "name": "Ak\u00e1cfa",
            "kind": "utca",
            "post_code": 0
        },
        {
            "name": "Alkotm\u00e1ny",
            "kind": "utca",
            "post_code": 0
        },
        {
            "name": "\u00c1lmos",
            "kind": "utca",
            "post_code": 0
        },
        {
            "name": "Alp\u00e1r Ign\u00e1c",
            "kind": "utca",
            "post_code": 0
        },
        {
            "name": "Als\u00f3\u00f6rsi",
            "kind": "hat\u00e1r\u00fat",
            "post_code": 0
        },
        {
            "name": "Ap\u00e1czai Csere J\u00e1nos",
            "kind": "utca",
            "post_code": 0
        },
        {
            "name": "Aranyes\u0151",
            "kind": "utca",
            "post_code": 0
        },
        {
            "name": "Aranyh\u00edd",
            "kind": "k\u00f6z",
            "post_code": 0
        },
        {
            "name": "Arany J\u00e1nos",
            "kind": "utca",
            "post_code": 0
        },
        {
            "name": "\u00c1rnyas",
            "kind": "utca",
            "post_code": 0
        },
        {
            "name": "\u00c1rok",
            "kind": "utca",
            "post_code": 0
        },
        {
            "name": "\u00c1rp\u00e1d",
            "kind": "k\u00f6z",
            "post_code": 0
        },
        {
            "name": "\u00c1rp\u00e1d",
            "kind": "utca",
            "post_code": 0
        },
        {
            "name": "Asztalos S\u00e1ndor",
            "kind": "utca",
            "post_code": 0
        },
        {
            "name": "Attila",
            "kind": "k\u00f6z",
            "post_code": 0
        },
        {
            "name": "Attila",
            "kind": "utca",
            "post_code": 0
        },
        {
            "name": "Avar",
            "kind": "utca",
            "post_code": 0
        },
        {
            "name": "Babits Mih\u00e1ly",
            "kind": "utca",
            "post_code": 0
        },
        {
            "name": "Bajcsy-Zsilinszky",
            "kind": "\u00fat",
            "post_code": 0
        },
        {
            "name": "Bajza",
            "kind": "utca",
            "post_code": 0
        },
        {
            "name": "Balatonf\u00fcredi",
            "kind": "\u00fat",
            "post_code": 0
        },
        {
            "name": "Balatonf\u0171zf\u0151i",
            "kind": "\u00fat",
            "post_code": 0
        },
        {
            "name": "Balaton",
            "kind": "k\u00f6r\u00fat",
            "post_code": 0
        },
        {
            "name": "Balaton",
            "kind": "utca",
            "post_code": 0
        },
        {
            "name": "Bal\u00e1zs B\u00e9la",
            "kind": "utca",
            "post_code": 0
        },
        {
            "name": "Ballada",
            "kind": "k\u00f6z",
            "post_code": 0
        },
        {
            "name": "Barab\u00e1s Mikl\u00f3s",
            "kind": "utca",
            "post_code": 0
        },
        {
            "name": "Bar\u00e1ts\u00e1g",
            "kind": "utca",
            "post_code": 0
        },
        {
            "name": "Baross G\u00e1bor",
            "kind": "\u00fat",
            "post_code": 0
        },
        {
            "name": "Bart\u00f3k B\u00e9la",
            "kind": "utca",
            "post_code": 0
        },
        {
            "name": "B\u00e1thory",
            "kind": "utca",
            "post_code": 0
        },
        {
            "name": "Bats\u00e1nyi",
            "kind": "k\u00f6z",
            "post_code": 0
        },
        {
            "name": "Batthy\u00e1ny",
            "kind": "utca",
            "post_code": 0
        },
        {
            "name": "B\u00e9ke",
            "kind": "utca",
            "post_code": 0
        },
        {
            "name": "Bem",
            "kind": "utca",
            "post_code": 0
        },
        {
            "name": "Bencz\u00far Gyula",
            "kind": "utca",
            "post_code": 0
        },
        {
            "name": "Bercs\u00e9nyi",
            "kind": "utca",
            "post_code": 0
        },
        {
            "name": "B\u00e9rc",
            "kind": "utca",
            "post_code": 0
        },
        {
            "name": "Berzsenyi D\u00e1niel",
            "kind": "utca",
            "post_code": 0
        },
        {
            "name": "B\u00edbor",
            "kind": "k\u00f6z",
            "post_code": 0
        },
        {
            "name": "Bihari J\u00e1nos",
            "kind": "utca",
            "post_code": 0
        },
        {
            "name": "Bimb\u00f3",
            "kind": "utca",
            "post_code": 0
        },
        {
            "name": "Blaha Lujza",
            "kind": "k\u00f6z",
            "post_code": 0
        },
        {
            "name": "Blaha Lujza",
            "kind": "s\u00e9t\u00e1ny",
            "post_code": 0
        },
        {
            "name": "Bocskai",
            "kind": "t\u00e9r",
            "post_code": 0
        },
        {
            "name": "Bodza",
            "kind": "utca",
            "post_code": 0
        },
        {
            "name": "Bokr\u00e9ta",
            "kind": "utca",
            "post_code": 0
        },
        {
            "name": "Borgazda",
            "kind": "utca",
            "post_code": 0
        },
        {
            "name": "Bornemissza",
            "kind": "utca",
            "post_code": 0
        },
        {
            "name": "Bor\u00f3ka",
            "kind": "utca",
            "post_code": 0
        },
        {
            "name": "Borosty\u00e1n",
            "kind": "k\u00f6z",
            "post_code": 0
        },
        {
            "name": "Botond",
            "kind": "utca",
            "post_code": 0
        },
        {
            "name": "Brenner L\u0151rincz",
            "kind": "k\u00f6z",
            "post_code": 0
        },
        {
            "name": "Budai Nagy Antal",
            "kind": "utca",
            "post_code": 0
        },
        {
            "name": "Budatava",
            "kind": "utca",
            "post_code": 0
        },
        {
            "name": "B\u00fckkfa",
            "kind": "utca",
            "post_code": 0
        },
        {
            "name": "Bulcs\u00fa",
            "kind": "utca",
            "post_code": 0
        },
        {
            "name": "B\u00fazavir\u00e1g",
            "kind": "utca",
            "post_code": 0
        },
        {
            "name": "Cinke",
            "kind": "utca",
            "post_code": 0
        },
        {
            "name": "Corvin J\u00e1nos",
            "kind": "utca",
            "post_code": 0
        },
        {
            "name": "Csaba",
            "kind": "k\u00f6z",
            "post_code": 0
        },
        {
            "name": "Csalog\u00e1ny",
            "kind": "utca",
            "post_code": 0
        },
        {
            "name": "Cs\u00e1rda",
            "kind": "utca",
            "post_code": 0
        },
        {
            "name": "Csendes",
            "kind": "utca",
            "post_code": 0
        },
        {
            "name": "Cserfa",
            "kind": "utca",
            "post_code": 0
        },
        {
            "name": "Csik\u00e1sz Imre",
            "kind": "l\u00e9pcs\u0151",
            "post_code": 0
        },
        {
            "name": "Cs\u00f3ka",
            "kind": "k\u00f6z",
            "post_code": 0
        },
        {
            "name": "Cs\u00f3k Istv\u00e1n",
            "kind": "utca",
            "post_code": 0
        },
        {
            "name": "Csokonai",
            "kind": "k\u00f6z",
            "post_code": 0
        },
        {
            "name": "Damjanich",
            "kind": "utca",
            "post_code": 0
        },
        {
            "name": "Dand\u00e1r",
            "kind": "utca",
            "post_code": 0
        },
        {
            "name": "Dank\u00f3 Pista",
            "kind": "utca",
            "post_code": 0
        },
        {
            "name": "De\u00e1k Ferenc",
            "kind": "utca",
            "post_code": 0
        },
        {
            "name": "Dembinszky",
            "kind": "utca",
            "post_code": 0
        },
        {
            "name": "Derkovits",
            "kind": "utca",
            "post_code": 0
        },
        {
            "name": "D\u00e9ryn\u00e9",
            "kind": "utca",
            "post_code": 0
        },
        {
            "name": "Di\u00f3fa",
            "kind": "utca",
            "post_code": 0
        },
        {
            "name": "Dob\u00f3 Istv\u00e1n",
            "kind": "utca",
            "post_code": 0
        },
        {
            "name": "Dob",
            "kind": "utca",
            "post_code": 0
        },
        {
            "name": "D\u00f3zsa Gy\u00f6rgy",
            "kind": "utca",
            "post_code": 0
        },
        {
            "name": "Dr\u00e1va",
            "kind": "utca",
            "post_code": 0
        },
        {
            "name": "Dr. Horv\u00e1th B\u00e9la",
            "kind": "k\u00f6z",
            "post_code": 0
        },
        {
            "name": "Dr. Lenkei Vilmos",
            "kind": "utca",
            "post_code": 0
        },
        {
            "name": "Dr. \u00d3v\u00e1ri Ferenc",
            "kind": "utca",
            "post_code": 0
        },
        {
            "name": "Dugonics",
            "kind": "utca",
            "post_code": 0
        },
        {
            "name": "Dugovics Titusz",
            "kind": "utca",
            "post_code": 0
        },
        {
            "name": "Dukai Tak\u00e1ch Jen\u0151",
            "kind": "utca",
            "post_code": 0
        },
        {
            "name": "Duna",
            "kind": "utca",
            "post_code": 0
        },
        {
            "name": "Egres",
            "kind": "k\u00f6z",
            "post_code": 0
        },
        {
            "name": "Egry J\u00f3zsef",
            "kind": "utca",
            "post_code": 0
        },
        {
            "name": "El\u0151d",
            "kind": "utca",
            "post_code": 0
        },
        {
            "name": "Endre",
            "kind": "utca",
            "post_code": 0
        },
        {
            "name": "E\u00f6tv\u00f6s",
            "kind": "utca",
            "post_code": 0
        },
        {
            "name": "\u00c9p\u00edt\u0151",
            "kind": "\u00fat",
            "post_code": 0
        },
        {
            "name": "Erd\u0151alja",
            "kind": "\u00fat",
            "post_code": 0
        },
        {
            "name": "Erd\u0151",
            "kind": "utca",
            "post_code": 0
        },
        {
            "name": "Erkel Ferenc",
            "kind": "utca",
            "post_code": 0
        },
        {
            "name": "Esze Tam\u00e1s",
            "kind": "utca",
            "post_code": 0
        },
        {
            "name": "Ezerj\u00f3",
            "kind": "utca",
            "post_code": 0
        },
        {
            "name": "F\u00e1c\u00e1n",
            "kind": "k\u00f6z",
            "post_code": 0
        },
        {
            "name": "Fadrusz J\u00e1nos",
            "kind": "utca",
            "post_code": 0
        },
        {
            "name": "Fagyal",
            "kind": "k\u00f6z",
            "post_code": 0
        },
        {
            "name": "Fagy\u00f6ngy",
            "kind": "utca",
            "post_code": 0
        },
        {
            "name": "Fecske",
            "kind": "utca",
            "post_code": 0
        },
        {
            "name": "Feh\u00e9rkereszt",
            "kind": "utca",
            "post_code": 0
        },
        {
            "name": "Felh\u0151",
            "kind": "utca",
            "post_code": 0
        },
        {
            "name": "Fels\u0151\u00f6rsi",
            "kind": "\u00fat",
            "post_code": 0
        },
        {
            "name": "F\u00e9ny",
            "kind": "k\u00f6z",
            "post_code": 0
        },
        {
            "name": "Feny\u0151",
            "kind": "utca",
            "post_code": 0
        },
        {
            "name": "F\u00e9ny",
            "kind": "utca",
            "post_code": 0
        },
        {
            "name": "Ferenczy K\u00e1roly",
            "kind": "utca",
            "post_code": 0
        },
        {
            "name": "Feszty \u00c1rp\u00e1d",
            "kind": "utca",
            "post_code": 0
        },
        {
            "name": "Fogoly",
            "kind": "k\u00f6z",
            "post_code": 0
        },
        {
            "name": "Fogoly",
            "kind": "utca",
            "post_code": 0
        },
        {
            "name": "Forr\u00e1s",
            "kind": "utca",
            "post_code": 0
        },
        {
            "name": "F\u00fclem\u00fcle",
            "kind": "utca",
            "post_code": 0
        },
        {
            "name": "F\u00fcredi",
            "kind": "utca",
            "post_code": 0
        },
        {
            "name": "F\u00fcrj",
            "kind": "k\u00f6z",
            "post_code": 0
        },
        {
            "name": "F\u00fcrj",
            "kind": "utca",
            "post_code": 0
        },
        {
            "name": "F\u0171zf\u0151i",
            "kind": "\u00fat",
            "post_code": 0
        },
        {
            "name": "G\u00e1bor \u00c1ron",
            "kind": "utca",
            "post_code": 0
        },
        {
            "name": "Galagonya",
            "kind": "utca",
            "post_code": 0
        },
        {
            "name": "Galamb",
            "kind": "utca",
            "post_code": 0
        },
        {
            "name": "G\u00e1rdonyi G\u00e9za",
            "kind": "utca",
            "post_code": 0
        },
        {
            "name": "G\u00e9bics",
            "kind": "utca",
            "post_code": 0
        },
        {
            "name": "Gerle",
            "kind": "utca",
            "post_code": 0
        },
        {
            "name": "Gesztenye",
            "kind": "utca",
            "post_code": 0
        },
        {
            "name": "G\u00e9za",
            "kind": "k\u00f6z",
            "post_code": 0
        },
        {
            "name": "G\u00e9za",
            "kind": "utca",
            "post_code": 0
        },
        {
            "name": "Gl\u00f3busz",
            "kind": "utca",
            "post_code": 0
        },
        {
            "name": "G\u00f3lya",
            "kind": "utca",
            "post_code": 0
        },
        {
            "name": "G\u00f6nc\u00f6l",
            "kind": "utca",
            "post_code": 0
        },
        {
            "name": "G\u00f6rgey",
            "kind": "utca",
            "post_code": 0
        },
        {
            "name": "Gyerty\u00e1n",
            "kind": "utca",
            "post_code": 0
        },
        {
            "name": "Gy\u00f6rgyi D\u00e9nes",
            "kind": "utca",
            "post_code": 0
        },
        {
            "name": "Gy\u0151ri",
            "kind": "utca",
            "post_code": 0
        },
        {
            "name": "Hadak",
            "kind": "\u00fatja",
            "post_code": 0
        },
        {
            "name": "Hajnal",
            "kind": "utca",
            "post_code": 0
        },
        {
            "name": "Hajn\u00f3czy",
            "kind": "l\u00e9pcs\u0151",
            "post_code": 0
        },
        {
            "name": "Halacs",
            "kind": "utca",
            "post_code": 0
        },
        {
            "name": "Harangvir\u00e1g",
            "kind": "utca",
            "post_code": 0
        },
        {
            "name": "Haraszt",
            "kind": "utca",
            "post_code": 0
        },
        {
            "name": "Haris",
            "kind": "k\u00f6z",
            "post_code": 0
        },
        {
            "name": "Hark\u00e1ly",
            "kind": "utca",
            "post_code": 0
        },
        {
            "name": "Harmat",
            "kind": "utca",
            "post_code": 0
        },
        {
            "name": "H\u00e1rsas",
            "kind": "k\u00f6z",
            "post_code": 0
        },
        {
            "name": "H\u00e1rsas",
            "kind": "utca",
            "post_code": 0
        },
        {
            "name": "H\u00e1rsfa",
            "kind": "utca",
            "post_code": 0
        },
        {
            "name": "Hegyalja",
            "kind": "utca",
            "post_code": 0
        },
        {
            "name": "H\u00e9ja",
            "kind": "utca",
            "post_code": 0
        },
        {
            "name": "H\u00e9tvez\u00e9r",
            "kind": "utca",
            "post_code": 0
        },
        {
            "name": "Hold",
            "kind": "k\u00f6z",
            "post_code": 0
        },
        {
            "name": "Holl\u00f3",
            "kind": "k\u00f6z",
            "post_code": 0
        },
        {
            "name": "Holl\u00f3",
            "kind": "utca",
            "post_code": 0
        },
        {
            "name": "Homok",
            "kind": "utca",
            "post_code": 0
        },
        {
            "name": "Honv\u00e9d",
            "kind": "utca",
            "post_code": 0
        },
        {
            "name": "Hord\u00f3",
            "kind": "utca",
            "post_code": 0
        },
        {
            "name": "H\u00f6rpint\u0151",
            "kind": "utca",
            "post_code": 0
        },
        {
            "name": "H\u00f3vir\u00e1g",
            "kind": "k\u00f6z",
            "post_code": 0
        },
        {
            "name": "H\u00f3vir\u00e1g",
            "kind": "utca",
            "post_code": 0
        },
        {
            "name": "Huba",
            "kind": "utca",
            "post_code": 0
        },
        {
            "name": "Hunyadi",
            "kind": "utca",
            "post_code": 0
        },
        {
            "name": "Husz\u00e1r",
            "kind": "utca",
            "post_code": 0
        },
        {
            "name": "Ibolya",
            "kind": "utca",
            "post_code": 0
        },
        {
            "name": "Iker",
            "kind": "sor",
            "post_code": 0
        },
        {
            "name": "Ipoly",
            "kind": "k\u00f6z",
            "post_code": 0
        },
        {
            "name": "Ipoly",
            "kind": "utca",
            "post_code": 0
        },
        {
            "name": "Iskola",
            "kind": "utca",
            "post_code": 0
        },
        {
            "name": "Ist\u00f3k",
            "kind": "utca",
            "post_code": 0
        },
        {
            "name": "Istv\u00e1n",
            "kind": "utca",
            "post_code": 0
        },
        {
            "name": "Izs\u00f3 Mikl\u00f3s",
            "kind": "utca",
            "post_code": 0
        },
        {
            "name": "Jedlik \u00c1nyos",
            "kind": "utca",
            "post_code": 0
        },
        {
            "name": "Jegenye",
            "kind": "k\u00f6z",
            "post_code": 0
        },
        {
            "name": "J\u00e9gmad\u00e1r",
            "kind": "utca",
            "post_code": 0
        },
        {
            "name": "J\u00f3kai M\u00f3r",
            "kind": "utca",
            "post_code": 0
        },
        {
            "name": "J\u00f3zsef Attila",
            "kind": "\u00fat",
            "post_code": 0
        },
        {
            "name": "Juhar",
            "kind": "utca",
            "post_code": 0
        },
        {
            "name": "Juh\u00e1sz Gyula",
            "kind": "k\u00f6z",
            "post_code": 0
        },
        {
            "name": "Kakukk",
            "kind": "k\u00f6z",
            "post_code": 0
        },
        {
            "name": "K\u00e1lvin",
            "kind": "utca",
            "post_code": 0
        },
        {
            "name": "K\u00e1pl\u00e1r",
            "kind": "utca",
            "post_code": 0
        },
        {
            "name": "K\u00e1ptalan",
            "kind": "utca",
            "post_code": 0
        },
        {
            "name": "Katona J\u00f3zsef",
            "kind": "utca",
            "post_code": 0
        },
        {
            "name": "Kazinczy",
            "kind": "utca",
            "post_code": 0
        },
        {
            "name": "Kerk\u00e1poly",
            "kind": "utca",
            "post_code": 0
        },
        {
            "name": "Kert",
            "kind": "utca",
            "post_code": 0
        },
        {
            "name": "Kil\u00e1t\u00f3hegyi",
            "kind": "utca",
            "post_code": 0
        },
        {
            "name": "Kinizsi",
            "kind": "utca",
            "post_code": 0
        },
        {
            "name": "Kisber\u00e9nyi",
            "kind": "\u00fat",
            "post_code": 0
        },
        {
            "name": "Kisfaludy",
            "kind": "k\u00f6z",
            "post_code": 0
        },
        {
            "name": "Kisfaludy",
            "kind": "utca",
            "post_code": 0
        },
        {
            "name": "Kiss Ern\u0151",
            "kind": "utca",
            "post_code": 0
        },
        {
            "name": "Klapka",
            "kind": "utca",
            "post_code": 0
        },
        {
            "name": "K\u0151b\u00e1nya",
            "kind": "utca",
            "post_code": 0
        },
        {
            "name": "K\u00f3csag",
            "kind": "utca",
            "post_code": 0
        },
        {
            "name": "K\u00f6csi",
            "kind": "l\u00e9pcs\u0151",
            "post_code": 0
        },
        {
            "name": "Kod\u00e1ly Zolt\u00e1n",
            "kind": "utca",
            "post_code": 0
        },
        {
            "name": "K\u00f6k\u00e9ny",
            "kind": "utca",
            "post_code": 0
        },
        {
            "name": "K\u00f6lcsey",
            "kind": "utca",
            "post_code": 0
        },
        {
            "name": "Komj\u00e1th Alad\u00e1r",
            "kind": "k\u00f6z",
            "post_code": 0
        },
        {
            "name": "Kompolthy",
            "kind": "utca",
            "post_code": 0
        },
        {
            "name": "Kond",
            "kind": "utca",
            "post_code": 0
        },
        {
            "name": "K\u00f6ny\u00f6k",
            "kind": "utca",
            "post_code": 0
        },
        {
            "name": "K\u0151risfa",
            "kind": "utca",
            "post_code": 0
        },
        {
            "name": "K\u0151r\u00f6si Csoma S\u00e1ndor",
            "kind": "utca",
            "post_code": 0
        },
        {
            "name": "K\u0151r\u00f6s",
            "kind": "utca",
            "post_code": 0
        },
        {
            "name": "Kors\u00f3",
            "kind": "utca",
            "post_code": 0
        },
        {
            "name": "Kossuth Lajos",
            "kind": "utca",
            "post_code": 0
        },
        {
            "name": "Kosztol\u00e1nyi",
            "kind": "k\u00f6z",
            "post_code": 0
        },
        {
            "name": "K\u00f6vesalja",
            "kind": "utca",
            "post_code": 0
        },
        {
            "name": "K\u0151vir\u00e1g",
            "kind": "utca",
            "post_code": 0
        },
        {
            "name": "K\u00f6zt\u00e1rsas\u00e1g",
            "kind": "utca",
            "post_code": 0
        },
        {
            "name": "Krisztina",
            "kind": "k\u00f6z",
            "post_code": 0
        },
        {
            "name": "K\u00fcrt",
            "kind": "utca",
            "post_code": 0
        },
        {
            "name": "Kurucz Rudolf",
            "kind": "utca",
            "post_code": 0
        },
        {
            "name": "Laposa D\u00e1niel",
            "kind": "utca",
            "post_code": 0
        },
        {
            "name": "Legenda",
            "kind": "k\u00f6z",
            "post_code": 0
        },
        {
            "name": "Lehel",
            "kind": "k\u00f6z",
            "post_code": 0
        },
        {
            "name": "Lehel",
            "kind": "utca",
            "post_code": 0
        },
        {
            "name": "Lejt\u0151",
            "kind": "utca",
            "post_code": 0
        },
        {
            "name": "Levendula",
            "kind": "utca",
            "post_code": 0
        },
        {
            "name": "Liszt Ferenc",
            "kind": "utca",
            "post_code": 0
        },
        {
            "name": "L\u00f3czy Lajos",
            "kind": "t\u00e9r",
            "post_code": 0
        },
        {
            "name": "Lomb",
            "kind": "utca",
            "post_code": 0
        },
        {
            "name": "Lotz K\u00e1roly",
            "kind": "utca",
            "post_code": 0
        },
        {
            "name": "Lozs\u00e1nta",
            "kind": "",
            "post_code": 0
        },
        {
            "name": "Lozs\u00e1ntai",
            "kind": "\u00fat",
            "post_code": 0
        },
        {
            "name": "Luther",
            "kind": "utca",
            "post_code": 0
        },
        {
            "name": "Mad\u00e1ch Imre",
            "kind": "t\u00e9r",
            "post_code": 0
        },
        {
            "name": "Mad\u00e1ch Imre",
            "kind": "utca",
            "post_code": 0
        },
        {
            "name": "Madar\u00e1sz",
            "kind": "utca",
            "post_code": 0
        },
        {
            "name": "Magaspart",
            "kind": "utca",
            "post_code": 0
        },
        {
            "name": "Magt\u00e1r",
            "kind": "utca",
            "post_code": 0
        },
        {
            "name": "Magyar",
            "kind": "utca",
            "post_code": 0
        },
        {
            "name": "Malomv\u00f6lgyi",
            "kind": "utca",
            "post_code": 0
        },
        {
            "name": "Mandula",
            "kind": "utca",
            "post_code": 0
        },
        {
            "name": "M\u00e1nyoki \u00c1d\u00e1m",
            "kind": "utca",
            "post_code": 0
        },
        {
            "name": "Margar\u00e9ta",
            "kind": "utca",
            "post_code": 0
        },
        {
            "name": "Maros",
            "kind": "utca",
            "post_code": 0
        },
        {
            "name": "Martinovics Ign\u00e1c",
            "kind": "utca",
            "post_code": 0
        },
        {
            "name": "M\u00e1ty\u00e1s kir\u00e1ly",
            "kind": "\u00fat",
            "post_code": 0
        },
        {
            "name": "Megyehegyi",
            "kind": "utca",
            "post_code": 0
        },
        {
            "name": "Meredek",
            "kind": "utca",
            "post_code": 0
        },
        {
            "name": "Mesgye",
            "kind": "utca",
            "post_code": 0
        },
        {
            "name": "M\u00e9sz\u00f6ly G\u00e9za",
            "kind": "utca",
            "post_code": 0
        },
        {
            "name": "Mih\u00e1ly Rudolf",
            "kind": "utca",
            "post_code": 0
        },
        {
            "name": "Miksz\u00e1th",
            "kind": "utca",
            "post_code": 0
        },
        {
            "name": "Mogyor\u00f3",
            "kind": "utca",
            "post_code": 0
        },
        {
            "name": "Moha",
            "kind": "utca",
            "post_code": 0
        },
        {
            "name": "M\u00f3kus",
            "kind": "l\u00e9pcs\u0151",
            "post_code": 0
        },
        {
            "name": "M\u00f3ra Ferenc",
            "kind": "utca",
            "post_code": 0
        },
        {
            "name": "M\u00f3ricz Zsigmond",
            "kind": "k\u00f6z",
            "post_code": 0
        },
        {
            "name": "Munk\u00e1csy Mih\u00e1ly",
            "kind": "utca",
            "post_code": 0
        },
        {
            "name": "Must",
            "kind": "utca",
            "post_code": 0
        },
        {
            "name": "N\u00e1das",
            "kind": "utca",
            "post_code": 0
        },
        {
            "name": "Naprafordg\u00f3",
            "kind": "k\u00f6z",
            "post_code": 0
        },
        {
            "name": "Napsug\u00e1r",
            "kind": "utca",
            "post_code": 0
        },
        {
            "name": "N\u00e1rcisz",
            "kind": "utca",
            "post_code": 0
        },
        {
            "name": "Nefelejcs",
            "kind": "utca",
            "post_code": 0
        },
        {
            "name": "Neptun",
            "kind": "utca",
            "post_code": 0
        },
        {
            "name": "Noszlopy G\u00e1sp\u00e1r",
            "kind": "utca",
            "post_code": 0
        },
        {
            "name": "Ny\u00e1rfa",
            "kind": "utca",
            "post_code": 0
        },
        {
            "name": "Ond",
            "kind": "utca",
            "post_code": 0
        },
        {
            "name": "\u00d6reghegyi",
            "kind": "utca",
            "post_code": 0
        },
        {
            "name": "\u0150szap\u00f3",
            "kind": "utca",
            "post_code": 0
        },
        {
            "name": "\u0150z",
            "kind": "utca",
            "post_code": 0
        },
        {
            "name": "Pa\u00e1l L\u00e1szl\u00f3",
            "kind": "utca",
            "post_code": 0
        },
        {
            "name": "Pacsirta",
            "kind": "k\u00f6z",
            "post_code": 0
        },
        {
            "name": "Pacsirta",
            "kind": "\u00fat",
            "post_code": 0
        },
        {
            "name": "P\u00e1fr\u00e1ny",
            "kind": "utca",
            "post_code": 0
        },
        {
            "name": "Panor\u00e1ma",
            "kind": "s\u00e9t\u00e1ny",
            "post_code": 0
        },
        {
            "name": "Park",
            "kind": "utca",
            "post_code": 0
        },
        {
            "name": "Perem",
            "kind": "utca",
            "post_code": 0
        },
        {
            "name": "Pet\u0151fi S\u00e1ndor",
            "kind": "utca",
            "post_code": 0
        },
        {
            "name": "Pet\u0151fi",
            "kind": "t\u00e9r",
            "post_code": 0
        },
        {
            "name": "Pihen\u0151",
            "kind": "utca",
            "post_code": 0
        },
        {
            "name": "Pince",
            "kind": "utca",
            "post_code": 0
        },
        {
            "name": "Pink\u00f3czi",
            "kind": "utca",
            "post_code": 0
        },
        {
            "name": "Pinty",
            "kind": "utca",
            "post_code": 0
        },
        {
            "name": "Pipacs",
            "kind": "utca",
            "post_code": 0
        },
        {
            "name": "Plat\u00e1n",
            "kind": "utca",
            "post_code": 0
        },
        {
            "name": "Posta",
            "kind": "utca",
            "post_code": 0
        },
        {
            "name": "Pr\u00e9s",
            "kind": "utca",
            "post_code": 0
        },
        {
            "name": "R\u00e1ba",
            "kind": "utca",
            "post_code": 0
        },
        {
            "name": "Radn\u00f3ti Mikl\u00f3s",
            "kind": "utca",
            "post_code": 0
        },
        {
            "name": "R\u00e1k\u00f3czi Ferenc",
            "kind": "utca",
            "post_code": 0
        },
        {
            "name": "R\u00e1k\u00f3czi",
            "kind": "utca",
            "post_code": 0
        },
        {
            "name": "Rege",
            "kind": "k\u00f6z",
            "post_code": 0
        },
        {
            "name": "Rege",
            "kind": "utca",
            "post_code": 0
        },
        {
            "name": "Rekettye",
            "kind": "utca",
            "post_code": 0
        },
        {
            "name": "Remete",
            "kind": "k\u00f6z",
            "post_code": 0
        },
        {
            "name": "Remetev\u00f6lgyi",
            "kind": "\u00fat",
            "post_code": 0
        },
        {
            "name": "R\u00e9t",
            "kind": "utca",
            "post_code": 0
        },
        {
            "name": "Rezeda",
            "kind": "utca",
            "post_code": 0
        },
        {
            "name": "Rig\u00f3",
            "kind": "k\u00f6z",
            "post_code": 0
        },
        {
            "name": "Rig\u00f3",
            "kind": "utca",
            "post_code": 0
        },
        {
            "name": "Rizling",
            "kind": "utca",
            "post_code": 0
        },
        {
            "name": "R\u00f6vid",
            "kind": "utca",
            "post_code": 0
        },
        {
            "name": "Rozmaring",
            "kind": "utca",
            "post_code": 0
        },
        {
            "name": "R\u00f3zsa",
            "kind": "utca",
            "post_code": 0
        },
        {
            "name": "Sas",
            "kind": "utca",
            "post_code": 0
        },
        {
            "name": "S\u00e1torhegyi",
            "kind": "\u00fat",
            "post_code": 0
        },
        {
            "name": "Semmelweis",
            "kind": "utca",
            "post_code": 0
        },
        {
            "name": "Sereg\u00e9ly",
            "kind": "utca",
            "post_code": 0
        },
        {
            "name": "S\u00edp",
            "kind": "k\u00f6z",
            "post_code": 0
        },
        {
            "name": "Sir\u00e1ly",
            "kind": "utca",
            "post_code": 0
        },
        {
            "name": "S\u00f3hajok h\u00eddja",
            "kind": "",
            "post_code": 0
        },
        {
            "name": "S\u00f3lyom",
            "kind": "utca",
            "post_code": 0
        },
        {
            "name": "Somfa",
            "kind": "utca",
            "post_code": 0
        },
        {
            "name": "Spir\u00e1l",
            "kind": "",
            "post_code": 0
        },
        {
            "name": "Szabads\u00e1g-kil\u00e1t\u00f3",
            "kind": "utca",
            "post_code": 0
        },
        {
            "name": "Szabads\u00e1g",
            "kind": "utca",
            "post_code": 0
        },
        {
            "name": "Szabolcs",
            "kind": "utca",
            "post_code": 0
        },
        {
            "name": "Szalonka",
            "kind": "k\u00f6z",
            "post_code": 0
        },
        {
            "name": "Szam\u00f3ca",
            "kind": "utca",
            "post_code": 0
        },
        {
            "name": "Sz\u00e9chenyi Istv\u00e1n",
            "kind": "utca",
            "post_code": 0
        },
        {
            "name": "Sz\u00e9chenyi",
            "kind": "s\u00e9t\u00e1ny",
            "post_code": 0
        },
        {
            "name": "Szegf\u0171",
            "kind": "utca",
            "post_code": 0
        },
        {
            "name": "Sz\u00e9kely Bertalan",
            "kind": "utca",
            "post_code": 0
        },
        {
            "name": "Szell\u0151",
            "kind": "utca",
            "post_code": 0
        },
        {
            "name": "Szent Imre herceg",
            "kind": "utca",
            "post_code": 0
        },
        {
            "name": "Szent Istv\u00e1n",
            "kind": "s\u00e9t\u00e1ny",
            "post_code": 0
        },
        {
            "name": "Szent L\u00e1szl\u00f3",
            "kind": "s\u00e9t\u00e1ny",
            "post_code": 0
        },
        {
            "name": "Sz\u00e9p Ilonka",
            "kind": "utca",
            "post_code": 0
        },
        {
            "name": "Szigeti J\u00f3zsef",
            "kind": "utca",
            "post_code": 0
        },
        {
            "name": "Szil\u00e1gyi Erzs\u00e9bet",
            "kind": "utca",
            "post_code": 0
        },
        {
            "name": "Szil",
            "kind": "k\u00f6z",
            "post_code": 0
        },
        {
            "name": "Szilva",
            "kind": "k\u00f6z",
            "post_code": 0
        },
        {
            "name": "Szinyei Merse P\u00e1l",
            "kind": "utca",
            "post_code": 0
        },
        {
            "name": "Szirom",
            "kind": "k\u00f6z",
            "post_code": 0
        },
        {
            "name": "Szitak\u00f6t\u0151",
            "kind": "utca",
            "post_code": 0
        },
        {
            "name": "Sziv\u00e1rv\u00e1ny",
            "kind": "utca",
            "post_code": 0
        },
        {
            "name": "Sz\u0151l\u0151",
            "kind": "utca",
            "post_code": 0
        },
        {
            "name": "Sz\u00f6m\u00f6rce",
            "kind": "utca",
            "post_code": 0
        },
        {
            "name": "Szorosi",
            "kind": "utca",
            "post_code": 0
        },
        {
            "name": "Sz\u00fanyog",
            "kind": "utca",
            "post_code": 0
        },
        {
            "name": "Sz\u00fcret",
            "kind": "utca",
            "post_code": 0
        },
        {
            "name": "Sz\u00fcrkebar\u00e1t",
            "kind": "utca",
            "post_code": 0
        },
        {
            "name": "T\u00e1bor",
            "kind": "utca",
            "post_code": 0
        },
        {
            "name": "Taksony",
            "kind": "utca",
            "post_code": 0
        },
        {
            "name": "T\u00e1ncsics Mih\u00e1ly",
            "kind": "utca",
            "post_code": 0
        },
        {
            "name": "Tarack",
            "kind": "utca",
            "post_code": 0
        },
        {
            "name": "Tas",
            "kind": "utca",
            "post_code": 0
        },
        {
            "name": "Tavasz",
            "kind": "utca",
            "post_code": 0
        },
        {
            "name": "Teleki Blanka",
            "kind": "utca",
            "post_code": 0
        },
        {
            "name": "Temet\u0151",
            "kind": "utca",
            "post_code": 0
        },
        {
            "name": "Templom",
            "kind": "utca",
            "post_code": 0
        },
        {
            "name": "Th\u00f6k\u00f6ly",
            "kind": "utca",
            "post_code": 0
        },
        {
            "name": "Tin\u00f3di",
            "kind": "utca",
            "post_code": 0
        },
        {
            "name": "Tisza",
            "kind": "utca",
            "post_code": 0
        },
        {
            "name": "T\u00f3\u00e1ll\u00e1s",
            "kind": "utca",
            "post_code": 0
        },
        {
            "name": "T\u00f6h\u00f6t\u00f6m",
            "kind": "utca",
            "post_code": 0
        },
        {
            "name": "Tolbuchin",
            "kind": "utca",
            "post_code": 0
        },
        {
            "name": "Toldi Mikl\u00f3s",
            "kind": "utca",
            "post_code": 0
        },
        {
            "name": "T\u00f6lgyfa",
            "kind": "utca",
            "post_code": 0
        },
        {
            "name": "T\u00f6lt\u00e9s",
            "kind": "utca",
            "post_code": 0
        },
        {
            "name": "T\u00f6r\u00f6k B\u00e1lint",
            "kind": "utca",
            "post_code": 0
        },
        {
            "name": "T\u00f6r\u00f6kver\u0151",
            "kind": "k\u00f6z",
            "post_code": 0
        },
        {
            "name": "T\u00f3th \u00c1rp\u00e1d",
            "kind": "utca",
            "post_code": 0
        },
        {
            "name": "T\u00fccs\u00f6k",
            "kind": "utca",
            "post_code": 0
        },
        {
            "name": "Tulip\u00e1n",
            "kind": "utca",
            "post_code": 0
        },
        {
            "name": "T\u00fcz\u00e9r",
            "kind": "utca",
            "post_code": 0
        },
        {
            "name": "T\u0171zmad\u00e1r",
            "kind": "utca",
            "post_code": 0
        },
        {
            "name": "T\u00fazok",
            "kind": "utca",
            "post_code": 0
        },
        {
            "name": "\u00dajhegy",
            "kind": "k\u00f6z",
            "post_code": 0
        },
        {
            "name": "\u00dajhegy",
            "kind": "utca",
            "post_code": 0
        },
        {
            "name": "Ung\u00e1r J\u00f3zsef",
            "kind": "utca",
            "post_code": 0
        },
        {
            "name": "Uszodai",
            "kind": "\u00fat",
            "post_code": 0
        },
        {
            "name": "Vad\u00e1sz",
            "kind": "k\u00f6z",
            "post_code": 0
        },
        {
            "name": "Vad\u00e1sz",
            "kind": "utca",
            "post_code": 0
        },
        {
            "name": "Vadr\u00f3zsa",
            "kind": "utca",
            "post_code": 0
        },
        {
            "name": "Vadszeder",
            "kind": "utca",
            "post_code": 0
        },
        {
            "name": "Vadvir\u00e1g",
            "kind": "utca",
            "post_code": 0
        },
        {
            "name": "Vajda J\u00e1nos",
            "kind": "utca",
            "post_code": 0
        },
        {
            "name": "Vak Botty\u00e1n",
            "kind": "utca",
            "post_code": 0
        },
        {
            "name": "V\u00e1rosh\u00e1z",
            "kind": "t\u00e9r",
            "post_code": 0
        },
        {
            "name": "Vas Gereben",
            "kind": "utca",
            "post_code": 0
        },
        {
            "name": "Vas\u00fatARTj\u00e1r\u00f3",
            "kind": "",
            "post_code": 0
        },
        {
            "name": "Vas\u00fat",
            "kind": "utca",
            "post_code": 0
        },
        {
            "name": "V\u00e1th J\u00e1nos",
            "kind": "k\u00f6z",
            "post_code": 0
        },
        {
            "name": "V\u00e9csey K\u00e1roly",
            "kind": "k\u00f6z",
            "post_code": 0
        },
        {
            "name": "V\u00e9csey K\u00e1roly",
            "kind": "utca",
            "post_code": 0
        },
        {
            "name": "V\u00e9ghely Dezs\u0151",
            "kind": "utca",
            "post_code": 0
        },
        {
            "name": "Venyige",
            "kind": "utca",
            "post_code": 0
        },
        {
            "name": "Verseny",
            "kind": "utca",
            "post_code": 0
        },
        {
            "name": "Vessz\u0151",
            "kind": "utca",
            "post_code": 0
        },
        {
            "name": "Veszpr\u00e9mi",
            "kind": "\u00fat",
            "post_code": 0
        },
        {
            "name": "Vidovszky B\u00e9la",
            "kind": "utca",
            "post_code": 0
        },
        {
            "name": "Viola",
            "kind": "utca",
            "post_code": 0
        },
        {
            "name": "V\u00edzmeder",
            "kind": "utca",
            "post_code": 0
        },
        {
            "name": "V\u00f6d\u00f6rv\u00f6lgyi",
            "kind": "\u00fat",
            "post_code": 0
        },
        {
            "name": "V\u00f6r\u00f6shegyi",
            "kind": "utca",
            "post_code": 0
        },
        {
            "name": "V\u00f6r\u00f6sk\u0151",
            "kind": "utca",
            "post_code": 0
        },
        {
            "name": "V\u00f6r\u00f6smarty Mih\u00e1ly",
            "kind": "utca",
            "post_code": 0
        },
        {
            "name": "V\u00f6r\u00f6smarty",
            "kind": "t\u00e9r",
            "post_code": 0
        },
        {
            "name": "Wartha Vince",
            "kind": "utca",
            "post_code": 0
        },
        {
            "name": "Ybl Mikl\u00f3s",
            "kind": "utca",
            "post_code": 0
        },
        {
            "name": "Zerge",
            "kind": "l\u00e9pcs\u0151",
            "post_code": 0
        },
        {
            "name": "Zichy Mih\u00e1ly",
            "kind": "utca",
            "post_code": 0
        },
        {
            "name": "Zr\u00ednyi Ilona",
            "kind": "utca",
            "post_code": 0
        },
        {
            "name": "Zr\u00ednyi Mikl\u00f3s",
            "kind": "utca",
            "post_code": 0
        },
        {
            "name": "Zuzm\u00f3",
            "kind": "utca",
            "post_code": 0
        }
    ]
}