{
    "codes": {
        "8630": [
            "Balatonbogl\u00e1r",
            null
        ],
        "8691": [
            "Balatonbogl\u00e1r",
            "Sz\u0151l\u0151skislak"
        ]
    },
    "streets": [
        {
            "name": "Ak\u00e1cfa",
            "kind": "utca",
            "post_code": 0
        },
        {
            "name": "Alkot\u00e1s",
            "kind": "utca",
            "post_code": 0
        },
        {
            "name": "Alkotm\u00e1ny",
            "kind": "utca",
            "post_code": 0
        },
        {
            "name": "Aranyh\u00edd",
            "kind": "utca",
            "post_code": 0
        },
        {
            "name": "\u00c1rp\u00e1d",
            "kind": "utca",
            "post_code": 0
        },
        {
            "name": "Attila",
            "kind": "utca",
            "post_code": 0
        },
        {
            "name": "Babits Mih\u00e1ly",
            "kind": "utca",
            "post_code": 0
        },
        {
            "name": "B\u00e1cska",
            "kind": "k\u00f6z",
            "post_code": 0
        },
        {
            "name": "Balaton",
            "kind": "utca",
            "post_code": 0
        },
        {
            "name": "Bart\u00f3k B\u00e9la",
            "kind": "utca",
            "post_code": 0
        },
        {
            "name": "B\u00e1thory",
            "kind": "utca",
            "post_code": 0
        },
        {
            "name": "Bem",
            "kind": "utca",
            "post_code": 0
        },
        {
            "name": "Bercs\u00e9nyi",
            "kind": "utca",
            "post_code": 0
        },
        {
            "name": "Berzsenyi D\u00e1niel",
            "kind": "utca",
            "post_code": 0
        },
        {
            "name": "Bocskai",
            "kind": "utca",
            "post_code": 0
        },
        {
            "name": "Bogl\u00e1ri",
            "kind": "\u00fat",
            "post_code": 0
        },
        {
            "name": "B\u00f3lya",
            "kind": "k\u00f6z",
            "post_code": 0
        },
        {
            "name": "Botond",
            "kind": "k\u00f6z",
            "post_code": 0
        },
        {
            "name": "C\u00e9drus",
            "kind": "s\u00e9t\u00e1ny",
            "post_code": 0
        },
        {
            "name": "Csalog\u00e1ny",
            "kind": "utca",
            "post_code": 0
        },
        {
            "name": "Csejtei",
            "kind": "utca",
            "post_code": 0
        },
        {
            "name": "Csokonai",
            "kind": "utca",
            "post_code": 0
        },
        {
            "name": "D\u00e1lia",
            "kind": "utca",
            "post_code": 0
        },
        {
            "name": "Damjanich",
            "kind": "utca",
            "post_code": 0
        },
        {
            "name": "Di\u00f3fa",
            "kind": "utca",
            "post_code": 0
        },
        {
            "name": "Dob\u00f3 Istv\u00e1n",
            "kind": "utca",
            "post_code": 0
        },
        {
            "name": "D\u00f3zsa Gy\u00f6rgy",
            "kind": "utca",
            "post_code": 0
        },
        {
            "name": "Epres",
            "kind": "utca",
            "post_code": 0
        },
        {
            "name": "Erkel Ferenc",
            "kind": "utca",
            "post_code": 0
        },
        {
            "name": "Erzs\u00e9bet",
            "kind": "utca",
            "post_code": 0
        },
        {
            "name": "Esze Tam\u00e1s",
            "kind": "utca",
            "post_code": 0
        },
        {
            "name": "Fecske",
            "kind": "utca",
            "post_code": 0
        },
        {
            "name": "Feny\u0151fa",
            "kind": "utca",
            "post_code": 0
        },
        {
            "name": "Fiumei",
            "kind": "utca",
            "post_code": 0
        },
        {
            "name": "Fony\u00f3di",
            "kind": "\u00fat",
            "post_code": 0
        },
        {
            "name": "F\u0151",
            "kind": "utca",
            "post_code": 0
        },
        {
            "name": "F\u00fclem\u00fcle",
            "kind": "utca",
            "post_code": 0
        },
        {
            "name": "F\u00fcrd\u0151",
            "kind": "k\u00f6z",
            "post_code": 0
        },
        {
            "name": "F\u00fcrj",
            "kind": "utca",
            "post_code": 0
        },
        {
            "name": "Ga\u00e1l Gaszton",
            "kind": "utca",
            "post_code": 0
        },
        {
            "name": "G\u00e1bor \u00c1ron",
            "kind": "utca",
            "post_code": 0
        },
        {
            "name": "Galamb",
            "kind": "utca",
            "post_code": 0
        },
        {
            "name": "G\u00e9m",
            "kind": "utca",
            "post_code": 0
        },
        {
            "name": "Gesztenye",
            "kind": "k\u00f6z",
            "post_code": 0
        },
        {
            "name": "Gyep",
            "kind": "utca",
            "post_code": 0
        },
        {
            "name": "Gy\u00f6ngyvir\u00e1g",
            "kind": "utca",
            "post_code": 0
        },
        {
            "name": "Hal\u00e1sz",
            "kind": "utca",
            "post_code": 0
        },
        {
            "name": "Hark\u00e1ly",
            "kind": "utca",
            "post_code": 0
        },
        {
            "name": "Hat\u00e1r",
            "kind": "k\u00f6z",
            "post_code": 0
        },
        {
            "name": "Hath\u00e1z",
            "kind": "utca",
            "post_code": 0
        },
        {
            "name": "Hatty\u00fa",
            "kind": "utca",
            "post_code": 0
        },
        {
            "name": "H\u00e9th\u00e1z",
            "kind": "utca",
            "post_code": 0
        },
        {
            "name": "Honv\u00e9d",
            "kind": "utca",
            "post_code": 0
        },
        {
            "name": "Horg\u00e1sz",
            "kind": "k\u00f6z",
            "post_code": 0
        },
        {
            "name": "Hunyadi J\u00e1nos",
            "kind": "utca",
            "post_code": 0
        },
        {
            "name": "H\u0171v\u00f6s",
            "kind": "k\u00f6z",
            "post_code": 0
        },
        {
            "name": "Ibolya",
            "kind": "utca",
            "post_code": 0
        },
        {
            "name": "Ifj\u00fas\u00e1g",
            "kind": "utca",
            "post_code": 0
        },
        {
            "name": "Ipari",
            "kind": "utca",
            "post_code": 0
        },
        {
            "name": "Iskola",
            "kind": "k\u00f6z",
            "post_code": 0
        },
        {
            "name": "J\u00e1cint",
            "kind": "utca",
            "post_code": 0
        },
        {
            "name": "J\u00f3kai",
            "kind": "s\u00e9t\u00e1ny",
            "post_code": 0
        },
        {
            "name": "J\u00f3zsef Attila",
            "kind": "utca",
            "post_code": 0
        },
        {
            "name": "Jurisics Mikl\u00f3s",
            "kind": "utca",
            "post_code": 0
        },
        {
            "name": "Kakashegy",
            "kind": "",
            "post_code": 0
        },
        {
            "name": "Kanizsa",
            "kind": "utca",
            "post_code": 0
        },
        {
            "name": "K\u00e1polna",
            "kind": "utca",
            "post_code": 0
        },
        {
            "name": "K\u00e1rolyi",
            "kind": "k\u00f6z",
            "post_code": 0
        },
        {
            "name": "Katica",
            "kind": "utca",
            "post_code": 0
        },
        {
            "name": "Kazinczy",
            "kind": "utca",
            "post_code": 0
        },
        {
            "name": "Keszeg",
            "kind": "utca",
            "post_code": 0
        },
        {
            "name": "Kik\u00f6t\u0151",
            "kind": "s\u00e9t\u00e1ny",
            "post_code": 0
        },
        {
            "name": "Kik\u00f6t\u0151",
            "kind": "utca",
            "post_code": 0
        },
        {
            "name": "Kil\u00e1t\u00f3",
            "kind": "utca",
            "post_code": 0
        },
        {
            "name": "Kinizsi",
            "kind": "utca",
            "post_code": 0
        },
        {
            "name": "Kisfaludy",
            "kind": "utca",
            "post_code": 0
        },
        {
            "name": "Kishegyi",
            "kind": "\u00fat",
            "post_code": 0
        },
        {
            "name": "Klapka Gy\u00f6rgy",
            "kind": "utca",
            "post_code": 0
        },
        {
            "name": "K\u00f3csag",
            "kind": "utca",
            "post_code": 0
        },
        {
            "name": "Kod\u00e1ly Zolt\u00e1n",
            "kind": "utca",
            "post_code": 0
        },
        {
            "name": "Kolozsv\u00e1ri",
            "kind": "utca",
            "post_code": 0
        },
        {
            "name": "K\u00f3rh\u00e1z",
            "kind": "utca",
            "post_code": 0
        },
        {
            "name": "Kr\u00fady Gyula",
            "kind": "k\u00f6z",
            "post_code": 0
        },
        {
            "name": "Kupa vez\u00e9r",
            "kind": "utca",
            "post_code": 0
        },
        {
            "name": "Lehel",
            "kind": "utca",
            "post_code": 0
        },
        {
            "name": "Lejt\u0151",
            "kind": "utca",
            "post_code": 0
        },
        {
            "name": "Liget",
            "kind": "sor",
            "post_code": 0
        },
        {
            "name": "Liliom",
            "kind": "utca",
            "post_code": 0
        },
        {
            "name": "Liszt Ferenc",
            "kind": "utca",
            "post_code": 0
        },
        {
            "name": "Mad\u00e1ch Imre",
            "kind": "utca",
            "post_code": 0
        },
        {
            "name": "Major",
            "kind": "utca",
            "post_code": 0
        },
        {
            "name": "Malom",
            "kind": "utca",
            "post_code": 0
        },
        {
            "name": "Mandula",
            "kind": "utca",
            "post_code": 0
        },
        {
            "name": "M\u00e1rcius 15-e",
            "kind": "t\u00e9r",
            "post_code": 0
        },
        {
            "name": "Margar\u00e9ta",
            "kind": "utca",
            "post_code": 0
        },
        {
            "name": "Matr\u00f3z",
            "kind": "k\u00f6z",
            "post_code": 0
        },
        {
            "name": "M\u00e1ty\u00e1s kir\u00e1ly",
            "kind": "utca",
            "post_code": 0
        },
        {
            "name": "Miksz\u00e1th K\u00e1lm\u00e1n",
            "kind": "utca",
            "post_code": 0
        },
        {
            "name": "M\u00f3ricz Zsigmond",
            "kind": "utca",
            "post_code": 0
        },
        {
            "name": "Munk\u00e1csy",
            "kind": "utca",
            "post_code": 0
        },
        {
            "name": "Napsug\u00e1r",
            "kind": "utca",
            "post_code": 0
        },
        {
            "name": "Nefelejcs",
            "kind": "utca",
            "post_code": 0
        },
        {
            "name": "Ny\u00e1rfa",
            "kind": "utca",
            "post_code": 0
        },
        {
            "name": "Ny\u00e1r",
            "kind": "utca",
            "post_code": 0
        },
        {
            "name": "Ny\u00edrfa",
            "kind": "utca",
            "post_code": 0
        },
        {
            "name": "Pacsirta",
            "kind": "utca",
            "post_code": 0
        },
        {
            "name": "P\u00e1lma",
            "kind": "utca",
            "post_code": 0
        },
        {
            "name": "Parti",
            "kind": "s\u00e9t\u00e1ny",
            "post_code": 0
        },
        {
            "name": "P\u00e1va",
            "kind": "utca",
            "post_code": 0
        },
        {
            "name": "Pillang\u00f3",
            "kind": "utca",
            "post_code": 0
        },
        {
            "name": "Pince",
            "kind": "sor",
            "post_code": 0
        },
        {
            "name": "Pipacs",
            "kind": "utca",
            "post_code": 0
        },
        {
            "name": "Plat\u00e1n",
            "kind": "sor",
            "post_code": 0
        },
        {
            "name": "Plat\u00e1n",
            "kind": "t\u00e9r",
            "post_code": 0
        },
        {
            "name": "Posta",
            "kind": "k\u00f6z",
            "post_code": 0
        },
        {
            "name": "Radn\u00f3ti Mikl\u00f3s",
            "kind": "utca",
            "post_code": 0
        },
        {
            "name": "R\u00e1k\u00f3czi Ferenc",
            "kind": "utca",
            "post_code": 0
        },
        {
            "name": "Rezeda",
            "kind": "utca",
            "post_code": 0
        },
        {
            "name": "Rig\u00f3",
            "kind": "utca",
            "post_code": 0
        },
        {
            "name": "R\u00f3mai",
            "kind": "\u00fat",
            "post_code": 0
        },
        {
            "name": "R\u00f3zsa",
            "kind": "utca",
            "post_code": 0
        },
        {
            "name": "S\u00e9t\u00e1l\u00f3",
            "kind": "utca",
            "post_code": 0
        },
        {
            "name": "Sir\u00e1ly",
            "kind": "utca",
            "post_code": 0
        },
        {
            "name": "S\u00f3gor",
            "kind": "utca",
            "post_code": 0
        },
        {
            "name": "Strand",
            "kind": "s\u00e9t\u00e1ny",
            "post_code": 0
        },
        {
            "name": "Szabads\u00e1g",
            "kind": "liget",
            "post_code": 0
        },
        {
            "name": "Szabads\u00e1g",
            "kind": "utca",
            "post_code": 0
        },
        {
            "name": "Sz\u00e1rcsa",
            "kind": "utca",
            "post_code": 0
        },
        {
            "name": "Sz\u00e9chenyi Istv\u00e1n",
            "kind": "utca",
            "post_code": 0
        },
        {
            "name": "Sz\u00e9chenyi",
            "kind": "utca",
            "post_code": 0
        },
        {
            "name": "Szegf\u0171",
            "kind": "utca",
            "post_code": 0
        },
        {
            "name": "Sz\u00e9ls\u0151",
            "kind": "utca",
            "post_code": 0
        },
        {
            "name": "Szent Imre",
            "kind": "utca",
            "post_code": 0
        },
        {
            "name": "Szent Istv\u00e1n",
            "kind": "t\u00e9r",
            "post_code": 0
        },
        {
            "name": "Szentmih\u00e1lyi",
            "kind": "utca",
            "post_code": 0
        },
        {
            "name": "Sz\u0151l\u0151sgy\u00f6r\u00f6k",
            "kind": "utca",
            "post_code": 0
        },
        {
            "name": "Szondi Gy\u00f6rgy",
            "kind": "utca",
            "post_code": 0
        },
        {
            "name": "Tam\u00e1s tan\u00edt\u00f3",
            "kind": "utca",
            "post_code": 0
        },
        {
            "name": "T\u00e1ncsics Mih\u00e1ly",
            "kind": "utca",
            "post_code": 0
        },
        {
            "name": "Tatai",
            "kind": "utca",
            "post_code": 0
        },
        {
            "name": "Tavasz",
            "kind": "utca",
            "post_code": 0
        },
        {
            "name": "Templom",
            "kind": "utca",
            "post_code": 0
        },
        {
            "name": "Th\u00f6k\u00f6ly",
            "kind": "utca",
            "post_code": 0
        },
        {
            "name": "Tin\u00f3di",
            "kind": "utca",
            "post_code": 0
        },
        {
            "name": "T\u00f6r\u00f6k B\u00e1lint",
            "kind": "utca",
            "post_code": 0
        },
        {
            "name": "Tulip\u00e1n",
            "kind": "utca",
            "post_code": 0
        },
        {
            "name": "T\u0171zolt\u00f3",
            "kind": "utca",
            "post_code": 0
        },
        {
            "name": "Vasas",
            "kind": "utca",
            "post_code": 0
        },
        {
            "name": "Vas\u00fati",
            "kind": "s\u00e9t\u00e1ny",
            "post_code": 0
        },
        {
            "name": "Vas\u00fat",
            "kind": "k\u00f6z",
            "post_code": 0
        },
        {
            "name": "Vasv\u00e1ri P\u00e1l",
            "kind": "utca",
            "post_code": 0
        },
        {
            "name": "V\u00e9gv\u00e1ri",
            "kind": "utca",
            "post_code": 0
        },
        {
            "name": "Vik\u00e1r B\u00e9la",
            "kind": "utca",
            "post_code": 0
        },
        {
            "name": "Viola",
            "kind": "utca",
            "post_code": 0
        },
        {
            "name": "V\u00f6r\u00f6smarty",
            "kind": "t\u00e9r",
            "post_code": 0
        },
        {
            "name": "Wessel\u00e9nyi",
            "kind": "utca",
            "post_code": 0
        },
        {
            "name": "Zr\u00ednyi Mikl\u00f3s",
            "kind": "utca",
            "post_code": 0
        },
        {
            "name": "K\u00e1polna sz\u00ednpad",
            "kind": "",
            "post_code": 0
        }
    ]
}