{
    "streets": [
        {
            "name": "Ady Endre",
            "kind": "utca",
            "post_code": 0
        },
        {
            "name": "Ak\u00e1cfa",
            "kind": "utca",
            "post_code": 0
        },
        {
            "name": "Bocskai Istv\u00e1n",
            "kind": "utca",
            "post_code": 0
        },
        {
            "name": "De\u00e1k Ferenc",
            "kind": "utca",
            "post_code": 0
        },
        {
            "name": "Di\u00f3fa",
            "kind": "utca",
            "post_code": 0
        },
        {
            "name": "D\u00f3zsa Gy\u00f6rgy",
            "kind": "utca",
            "post_code": 0
        },
        {
            "name": "Erd\u0151",
            "kind": "sor",
            "post_code": 0
        },
        {
            "name": "Fazekas Mih\u00e1ly",
            "kind": "utca",
            "post_code": 0
        },
        {
            "name": "Fenyves",
            "kind": "utca",
            "post_code": 0
        },
        {
            "name": "F\u00f6ldv\u00e1ri",
            "kind": "utca",
            "post_code": 0
        },
        {
            "name": "F\u0171zfa",
            "kind": "utca",
            "post_code": 0
        },
        {
            "name": "H\u00e1rsfa",
            "kind": "\u00fat",
            "post_code": 0
        },
        {
            "name": "H\u0171v\u00f6sv\u00f6lgy",
            "kind": "utca",
            "post_code": 0
        },
        {
            "name": "Ida",
            "kind": "major",
            "post_code": 0
        },
        {
            "name": "Ifj\u00fas\u00e1g",
            "kind": "utca",
            "post_code": 0
        },
        {
            "name": "Iparos",
            "kind": "utca",
            "post_code": 0
        },
        {
            "name": "Iskola",
            "kind": "utca",
            "post_code": 0
        },
        {
            "name": "J\u00f3kai M\u00f3r",
            "kind": "utca",
            "post_code": 0
        },
        {
            "name": "J\u00f3zsef Attila",
            "kind": "utca",
            "post_code": 0
        },
        {
            "name": "Juh\u00e1sz",
            "kind": "v\u00f6lgy",
            "post_code": 0
        },
        {
            "name": "Kisszentmikl\u00f3si",
            "kind": "utca",
            "post_code": 0
        },
        {
            "name": "Kokasdi",
            "kind": "utca",
            "post_code": 0
        },
        {
            "name": "Kossuth Lajos",
            "kind": "utca",
            "post_code": 0
        },
        {
            "name": "Liget",
            "kind": "sor",
            "post_code": 0
        },
        {
            "name": "Lovarda",
            "kind": "utca",
            "post_code": 0
        },
        {
            "name": "Mad\u00e1ch Imre",
            "kind": "utca",
            "post_code": 0
        },
        {
            "name": "M\u00e1jus 1.",
            "kind": "utca",
            "post_code": 0
        },
        {
            "name": "M\u00e1rcius 15.",
            "kind": "utca",
            "post_code": 0
        },
        {
            "name": "Meggyfa",
            "kind": "utca",
            "post_code": 0
        },
        {
            "name": "M\u00f3ra Ferenc",
            "kind": "utca",
            "post_code": 0
        },
        {
            "name": "M\u00f3ricz Zsigmond",
            "kind": "utca",
            "post_code": 0
        },
        {
            "name": "Nefelejcs",
            "kind": "utca",
            "post_code": 0
        },
        {
            "name": "Panor\u00e1ma",
            "kind": "\u00fat",
            "post_code": 0
        },
        {
            "name": "Patak",
            "kind": "utca",
            "post_code": 0
        },
        {
            "name": "Pet\u0151fi S\u00e1ndor",
            "kind": "utca",
            "post_code": 0
        },
        {
            "name": "R\u00e1k\u00f3czi Ferenc",
            "kind": "utca",
            "post_code": 0
        },
        {
            "name": "Randev\u00fa",
            "kind": "utca",
            "post_code": 0
        },
        {
            "name": "Szabads\u00e1g",
            "kind": "utca",
            "post_code": 0
        },
        {
            "name": "Sz\u00e9chenyi Istv\u00e1n",
            "kind": "utca",
            "post_code": 0
        },
        {
            "name": "Szent Istv\u00e1n",
            "kind": "utca",
            "post_code": 0
        },
        {
            "name": "Szit\u00e1nyi",
            "kind": "s\u00e9t\u00e1ny",
            "post_code": 0
        },
        {
            "name": "Sz\u00edv",
            "kind": "utca",
            "post_code": 0
        },
        {
            "name": "T\u00e1ncsics Mih\u00e1ly",
            "kind": "utca",
            "post_code": 0
        },
        {
            "name": "Templom",
            "kind": "utca",
            "post_code": 0
        },
        {
            "name": "T\u00f3part",
            "kind": "utca",
            "post_code": 0
        },
        {
            "name": "Wessel\u00e9nyi Mikl\u00f3s",
            "kind": "utca",
            "post_code": 0
        }
    ]
}