{
    "codes": {
        "3016": [
            "Boldog",
            null
        ]
    },
    "streets": [
        {
            "name": "Ady Endre",
            "kind": "\u00fat",
            "post_code": 0
        },
        {
            "name": "\u00c1rp\u00e1d",
            "kind": "\u00fat",
            "post_code": 0
        },
        {
            "name": "Bart\u00f3k B\u00e9la",
            "kind": "\u00fat",
            "post_code": 0
        },
        {
            "name": "Ber\u00e9nyi",
            "kind": "\u00fat",
            "post_code": 0
        },
        {
            "name": "Boldogi",
            "kind": "\u00fat",
            "post_code": 0
        },
        {
            "name": "Erkel Ferenc",
            "kind": "\u00fat",
            "post_code": 0
        },
        {
            "name": "Gur\u00edt\u00f3-dombi gyalog\u00fat",
            "kind": "",
            "post_code": 0
        },
        {
            "name": "Honv\u00e9d",
            "kind": "\u00fat",
            "post_code": 0
        },
        {
            "name": "Hunyadi J\u00e1nos",
            "kind": "\u00fat",
            "post_code": 0
        },
        {
            "name": "Iskola",
            "kind": "utca",
            "post_code": 0
        },
        {
            "name": "J\u00f3zsef Attila",
            "kind": "\u00fat",
            "post_code": 0
        },
        {
            "name": "Kert\u00e9sz",
            "kind": "\u00fat",
            "post_code": 0
        },
        {
            "name": "Kossuth Lajos",
            "kind": "\u00fat",
            "post_code": 0
        },
        {
            "name": "Liget",
            "kind": "\u00fat",
            "post_code": 0
        },
        {
            "name": "Liszt Ferenc",
            "kind": "t\u00e9r",
            "post_code": 0
        },
        {
            "name": "Malom",
            "kind": "utca",
            "post_code": 0
        },
        {
            "name": "Munk\u00e1csy Mih\u00e1ly",
            "kind": "\u00fat",
            "post_code": 0
        },
        {
            "name": "Pet\u0151fi S\u00e1ndor",
            "kind": "utca",
            "post_code": 0
        },
        {
            "name": "R\u00e1k\u00f3czi",
            "kind": "\u00fat",
            "post_code": 0
        },
        {
            "name": "Sport",
            "kind": "\u00fat",
            "post_code": 0
        },
        {
            "name": "Szabads\u00e1g",
            "kind": "\u00fat",
            "post_code": 0
        },
        {
            "name": "Sz\u00e9chenyi",
            "kind": "\u00fat",
            "post_code": 0
        },
        {
            "name": "Tab\u00e1n",
            "kind": "\u00fat",
            "post_code": 0
        },
        {
            "name": "T\u00e1ncsics Mih\u00e1ly",
            "kind": "\u00fat",
            "post_code": 0
        },
        {
            "name": "Turai",
            "kind": "\u00fat",
            "post_code": 0
        },
        {
            "name": "Vasv\u00e1ri P\u00e1l",
            "kind": "\u00fat",
            "post_code": 0
        },
        {
            "name": "Vir\u00e1g",
            "kind": "\u00fat",
            "post_code": 0
        },
        {
            "name": "Zr\u00ednyi",
            "kind": "utca",
            "post_code": 0
        }
    ]
}