{
    "codes": {
        "2943": [
            "B\u00e1bolna",
            null
        ]
    },
    "streets": [
        {
            "name": "\u00c1csi",
            "kind": "\u00fat",
            "post_code": 0
        },
        {
            "name": "Ady Endre",
            "kind": "utca",
            "post_code": 0
        },
        {
            "name": "Ak\u00e1cfa",
            "kind": "\u00fat",
            "post_code": 0
        },
        {
            "name": "Arany J\u00e1nos",
            "kind": "utca",
            "post_code": 0
        },
        {
            "name": "\u00c1rp\u00e1d",
            "kind": "k\u00f6z",
            "post_code": 0
        },
        {
            "name": "B\u00e9ke",
            "kind": "utca",
            "post_code": 0
        },
        {
            "name": "Csekonics J\u00f3zsef",
            "kind": "utca",
            "post_code": 0
        },
        {
            "name": "Cserh\u00e1ti S\u00e1ndor",
            "kind": "utca",
            "post_code": 0
        },
        {
            "name": "Csik\u00f3telepi",
            "kind": "utca",
            "post_code": 0
        },
        {
            "name": "De\u00e1k Ferenc",
            "kind": "utca",
            "post_code": 0
        },
        {
            "name": "D\u00f3zsa Gy\u00f6rgy",
            "kind": "utca",
            "post_code": 0
        },
        {
            "name": "Dr. K\u00f6ves J\u00e1nos",
            "kind": "utca",
            "post_code": 0
        },
        {
            "name": "Erzs\u00e9bet",
            "kind": "utca",
            "post_code": 0
        },
        {
            "name": "H\u00e1rsfa",
            "kind": "\u00fat",
            "post_code": 0
        },
        {
            "name": "J\u00e9ger",
            "kind": "\u00fat",
            "post_code": 0
        },
        {
            "name": "J\u00f3kai M\u00f3r",
            "kind": "utca",
            "post_code": 0
        },
        {
            "name": "J\u00f3zsef Attila",
            "kind": "utca",
            "post_code": 0
        },
        {
            "name": "Kazinczy Ferenc",
            "kind": "utca",
            "post_code": 0
        },
        {
            "name": "Kinizsi P\u00e1l",
            "kind": "utca",
            "post_code": 0
        },
        {
            "name": "K\u00f6lcsey Ferenc",
            "kind": "utca",
            "post_code": 0
        },
        {
            "name": "K\u0151risfa",
            "kind": "\u00fat",
            "post_code": 0
        },
        {
            "name": "K\u0151risfa",
            "kind": "utca",
            "post_code": 0
        },
        {
            "name": "Kossuth Lajos",
            "kind": "utca",
            "post_code": 0
        },
        {
            "name": "Kozma Ferenc",
            "kind": "utca",
            "post_code": 0
        },
        {
            "name": "Marek J\u00f3zsef",
            "kind": "utca",
            "post_code": 0
        },
        {
            "name": "M\u00e9rleg",
            "kind": "utca",
            "post_code": 0
        },
        {
            "name": "M\u00e9sz\u00e1ros",
            "kind": "utca",
            "post_code": 0
        },
        {
            "name": "Mez\u0151",
            "kind": "utca",
            "post_code": 0
        },
        {
            "name": "M\u00f3ra Ferenc",
            "kind": "utca",
            "post_code": 0
        },
        {
            "name": "Nagyv\u00e1thy J\u00e1nos",
            "kind": "utca",
            "post_code": 0
        },
        {
            "name": "P\u00e9k",
            "kind": "k\u00f6z",
            "post_code": 0
        },
        {
            "name": "Pet\u0151fi S\u00e1ndor",
            "kind": "utca",
            "post_code": 0
        },
        {
            "name": "Radn\u00f3ti Mikl\u00f3s",
            "kind": "utca",
            "post_code": 0
        },
        {
            "name": "R\u00e1k\u00f3czi Ferenc",
            "kind": "utca",
            "post_code": 0
        },
        {
            "name": "Rakt\u00e1r",
            "kind": "utca",
            "post_code": 0
        },
        {
            "name": "R\u00f3zsaerdei",
            "kind": "\u00fat",
            "post_code": 0
        },
        {
            "name": "Tessedik S\u00e1muel",
            "kind": "utca",
            "post_code": 0
        },
        {
            "name": "Toldi Mikl\u00f3s",
            "kind": "utca",
            "post_code": 0
        },
        {
            "name": "\u00dajhelyi Imre",
            "kind": "utca",
            "post_code": 0
        },
        {
            "name": "Vir\u00e1g",
            "kind": "utca",
            "post_code": 0
        },
        {
            "name": "V\u00edztorony",
            "kind": "\u00fat",
            "post_code": 0
        },
        {
            "name": "Wessel\u00e9nyi Mikl\u00f3s",
            "kind": "utca",
            "post_code": 0
        },
        {
            "name": "Zr\u00ednyi Mikl\u00f3s",
            "kind": "utca",
            "post_code": 0
        }
    ]
}