{
    "codes": {
        "5561": [
            "B\u00e9k\u00e9sszentandr\u00e1s",
            null
        ]
    },
    "streets": [
        {
            "name": "\u00c1chim L. Andr\u00e1s",
            "kind": "utca",
            "post_code": 0
        },
        {
            "name": "Ady Endre",
            "kind": "utca",
            "post_code": 0
        },
        {
            "name": "Ak\u00e1cos",
            "kind": "utca",
            "post_code": 0
        },
        {
            "name": "\u00c1lmos",
            "kind": "utca",
            "post_code": 0
        },
        {
            "name": "Arany J\u00e1nos",
            "kind": "utca",
            "post_code": 0
        },
        {
            "name": "Arbor\u00e9tumi \u00fcd\u00fcl\u0151sor",
            "kind": "",
            "post_code": 0
        },
        {
            "name": "\u00c1rp\u00e1d",
            "kind": "utca",
            "post_code": 0
        },
        {
            "name": "Bagi Alajos",
            "kind": "utca",
            "post_code": 0
        },
        {
            "name": "Bajcsy-Zsilinszky",
            "kind": "utca",
            "post_code": 0
        },
        {
            "name": "Bart\u00f3k B\u00e9la",
            "kind": "utca",
            "post_code": 0
        },
        {
            "name": "Batthy\u00e1ny",
            "kind": "utca",
            "post_code": 0
        },
        {
            "name": "B\u00e9ke",
            "kind": "utca",
            "post_code": 0
        },
        {
            "name": "Bercs\u00e9nyi",
            "kind": "utca",
            "post_code": 0
        },
        {
            "name": "Bethlen G\u00e1bor",
            "kind": "utca",
            "post_code": 0
        },
        {
            "name": "Bocskai",
            "kind": "utca",
            "post_code": 0
        },
        {
            "name": "Csokonai",
            "kind": "utca",
            "post_code": 0
        },
        {
            "name": "Darabos S\u00e1ndor",
            "kind": "utca",
            "post_code": 0
        },
        {
            "name": "De\u00e1k Ferenc",
            "kind": "utca",
            "post_code": 0
        },
        {
            "name": "Dinnyelaposi \u00fcd\u00fcl\u0151sor",
            "kind": "",
            "post_code": 0
        },
        {
            "name": "Dob\u00f3 Katica",
            "kind": "utca",
            "post_code": 0
        },
        {
            "name": "D\u00f3zsa Gy\u00f6rgy",
            "kind": "utca",
            "post_code": 0
        },
        {
            "name": "Dr. Dunay Alajos",
            "kind": "utca",
            "post_code": 0
        },
        {
            "name": "Faluv\u00e9g",
            "kind": "utca",
            "post_code": 0
        },
        {
            "name": "F\u00e1y",
            "kind": "utca",
            "post_code": 0
        },
        {
            "name": "Fert\u0151i",
            "kind": "utca",
            "post_code": 0
        },
        {
            "name": "F\u0151",
            "kind": "utca",
            "post_code": 0
        },
        {
            "name": "F\u00fcrj",
            "kind": "utca",
            "post_code": 0
        },
        {
            "name": "Furugyi",
            "kind": "utca",
            "post_code": 0
        },
        {
            "name": "F\u00fczes",
            "kind": "kert",
            "post_code": 0
        },
        {
            "name": "Gondalaposi \u00fcd\u00fcl\u0151sor",
            "kind": "",
            "post_code": 0
        },
        {
            "name": "Harcs\u00e1sg\u00e1t",
            "kind": "utca",
            "post_code": 0
        },
        {
            "name": "Harcs\u00e1si holt-K\u00f6r\u00f6s t\u00f6lt\u00e9s",
            "kind": "",
            "post_code": 0
        },
        {
            "name": "Harcs\u00e1si \u00fcd\u00fcl\u0151sor",
            "kind": "",
            "post_code": 0
        },
        {
            "name": "H\u00e1rsfa",
            "kind": "utca",
            "post_code": 0
        },
        {
            "name": "H\u0151s\u00f6k",
            "kind": "tere",
            "post_code": 0
        },
        {
            "name": "Hunyadi",
            "kind": "utca",
            "post_code": 0
        },
        {
            "name": "Istv\u00e1n kir\u00e1ly",
            "kind": "utca",
            "post_code": 0
        },
        {
            "name": "J\u00f3kai",
            "kind": "utca",
            "post_code": 0
        },
        {
            "name": "J\u00f3zsef Attila",
            "kind": "utca",
            "post_code": 0
        },
        {
            "name": "Kal\u00e1sz",
            "kind": "utca",
            "post_code": 0
        },
        {
            "name": "K\u00e1lvin",
            "kind": "utca",
            "post_code": 0
        },
        {
            "name": "Kazinczy",
            "kind": "k\u00f6z",
            "post_code": 0
        },
        {
            "name": "Kenderf\u00f6ldi \u00fcd\u00fcl\u0151sor",
            "kind": "",
            "post_code": 0
        },
        {
            "name": "Kereszth\u00e1ti",
            "kind": "\u00fcd\u00fcl\u0151-part",
            "post_code": 0
        },
        {
            "name": "Kinizsi",
            "kind": "utca",
            "post_code": 0
        },
        {
            "name": "Kisfaludy",
            "kind": "utca",
            "post_code": 0
        },
        {
            "name": "Kishegyesi",
            "kind": "utca",
            "post_code": 0
        },
        {
            "name": "Kis",
            "kind": "utca",
            "post_code": 0
        },
        {
            "name": "Kod\u00e1ly Zolt\u00e1n",
            "kind": "utca",
            "post_code": 0
        },
        {
            "name": "K\u00f6lcsey Ferenc",
            "kind": "utca",
            "post_code": 0
        },
        {
            "name": "K\u0151r\u00f6spart",
            "kind": "utca",
            "post_code": 0
        },
        {
            "name": "K\u00f6r\u00f6s v\u00f6lgyi ker\u00e9kp\u00e1r\u00fat",
            "kind": "",
            "post_code": 0
        },
        {
            "name": "Kossuth",
            "kind": "utca",
            "post_code": 0
        },
        {
            "name": "Kulich Gyula",
            "kind": "utca",
            "post_code": 0
        },
        {
            "name": "Lehel",
            "kind": "utca",
            "post_code": 0
        },
        {
            "name": "Ligeti",
            "kind": "\u00fcd\u00fcl\u0151-sor",
            "post_code": 0
        },
        {
            "name": "Mad\u00e1ch",
            "kind": "utca",
            "post_code": 0
        },
        {
            "name": "Mad\u00e1r",
            "kind": "utca",
            "post_code": 0
        },
        {
            "name": "Melis Gy\u00f6rgy",
            "kind": "utca",
            "post_code": 0
        },
        {
            "name": "Munk\u00e1csy",
            "kind": "utca",
            "post_code": 0
        },
        {
            "name": "Nap",
            "kind": "utca",
            "post_code": 0
        },
        {
            "name": "Ny\u00edl",
            "kind": "utca",
            "post_code": 0
        },
        {
            "name": "\u00d3voda",
            "kind": "utca",
            "post_code": 0
        },
        {
            "name": "Pacsirta",
            "kind": "utca",
            "post_code": 0
        },
        {
            "name": "P\u00e1zsit",
            "kind": "utca",
            "post_code": 0
        },
        {
            "name": "P\u00e9r\u00f3",
            "kind": "utca",
            "post_code": 0
        },
        {
            "name": "Pet\u0151fi",
            "kind": "utca",
            "post_code": 0
        },
        {
            "name": "Proh\u00e1szka",
            "kind": "utca",
            "post_code": 0
        },
        {
            "name": "R\u00e1k\u00f3czi",
            "kind": "utca",
            "post_code": 0
        },
        {
            "name": "R\u00f3zsa",
            "kind": "utca",
            "post_code": 0
        },
        {
            "name": "Sebesty\u00e9n",
            "kind": "utca",
            "post_code": 0
        },
        {
            "name": "Sirat\u00f3 \u00fcd\u00fcl\u0151telep",
            "kind": "",
            "post_code": 0
        },
        {
            "name": "Stef\u00e1nia",
            "kind": "utca",
            "post_code": 0
        },
        {
            "name": "Sz\u00e1nt\u00f3 Kov\u00e1cs",
            "kind": "utca",
            "post_code": 0
        },
        {
            "name": "Sz\u00e9chenyi",
            "kind": "utca",
            "post_code": 0
        },
        {
            "name": "Szedres",
            "kind": "utca",
            "post_code": 0
        },
        {
            "name": "Szent Andr\u00e1s",
            "kind": "utca",
            "post_code": 0
        },
        {
            "name": "Szent Erzs\u00e9bet",
            "kind": "utca",
            "post_code": 0
        },
        {
            "name": "Szentesi",
            "kind": "\u00fat",
            "post_code": 0
        },
        {
            "name": "Szent Gell\u00e9rt",
            "kind": "utca",
            "post_code": 0
        },
        {
            "name": "Szent Imre",
            "kind": "utca",
            "post_code": 0
        },
        {
            "name": "Szent L\u00e1szl\u00f3",
            "kind": "utca",
            "post_code": 0
        },
        {
            "name": "Tanya IV",
            "kind": "",
            "post_code": 0
        },
        {
            "name": "Tavaszmez\u0151",
            "kind": "utca",
            "post_code": 0
        },
        {
            "name": "Temet\u0151",
            "kind": "utca",
            "post_code": 0
        },
        {
            "name": "Templom",
            "kind": "utca",
            "post_code": 0
        },
        {
            "name": "Tervezett M44",
            "kind": "",
            "post_code": 0
        },
        {
            "name": "Tessedik",
            "kind": "utca",
            "post_code": 0
        },
        {
            "name": "Toldi",
            "kind": "utca",
            "post_code": 0
        },
        {
            "name": "Tompa Mih\u00e1ly",
            "kind": "utca",
            "post_code": 0
        },
        {
            "name": "V\u00e9rtessy",
            "kind": "t\u00e9r",
            "post_code": 0
        },
        {
            "name": "V\u00e9rtessy",
            "kind": "utca",
            "post_code": 0
        },
        {
            "name": "Vir\u00e1gos",
            "kind": "utca",
            "post_code": 0
        },
        {
            "name": "V\u00f6r\u00f6smarty",
            "kind": "utca",
            "post_code": 0
        },
        {
            "name": "Wessel\u00e9nyi",
            "kind": "utca",
            "post_code": 0
        },
        {
            "name": "Zal\u00e1n",
            "kind": "utca",
            "post_code": 0
        },
        {
            "name": "Zr\u00ednyi",
            "kind": "utca",
            "post_code": 0
        }
    ]
}