{
    "codes": {
        "6647": [
            "Csanytelek",
            null
        ]
    },
    "streets": [
        {
            "name": "Ady Endre",
            "kind": "utca",
            "post_code": 0
        },
        {
            "name": "Arany J\u00e1nos",
            "kind": "utca",
            "post_code": 0
        },
        {
            "name": "\u00c1rp\u00e1d",
            "kind": "utca",
            "post_code": 0
        },
        {
            "name": "Baross G\u00e1bor",
            "kind": "utca",
            "post_code": 0
        },
        {
            "name": "B\u00e9la",
            "kind": "utca",
            "post_code": 0
        },
        {
            "name": "Bem",
            "kind": "utca",
            "post_code": 0
        },
        {
            "name": "Bercs\u00e9nyi",
            "kind": "utca",
            "post_code": 0
        },
        {
            "name": "Botond",
            "kind": "utca",
            "post_code": 0
        },
        {
            "name": "Budai Nagy Antal",
            "kind": "utca",
            "post_code": 0
        },
        {
            "name": "Csongr\u00e1di",
            "kind": "utca",
            "post_code": 0
        },
        {
            "name": "Damjanich",
            "kind": "utca",
            "post_code": 0
        },
        {
            "name": "D\u00f3zsa Gy\u00f6rgy",
            "kind": "utca",
            "post_code": 0
        },
        {
            "name": "F\u0151",
            "kind": "\u00fat",
            "post_code": 0
        },
        {
            "name": "G\u00e1bor \u00c1ron",
            "kind": "utca",
            "post_code": 0
        },
        {
            "name": "G\u00e1rdonyi",
            "kind": "utca",
            "post_code": 0
        },
        {
            "name": "J\u00e1rand\u00f3",
            "kind": "\u00fat",
            "post_code": 0
        },
        {
            "name": "J\u00f3kai M\u00f3r",
            "kind": "utca",
            "post_code": 0
        },
        {
            "name": "J\u00f3zsef Attila",
            "kind": "utca",
            "post_code": 0
        },
        {
            "name": "Kiss Ern\u0151",
            "kind": "utca",
            "post_code": 0
        },
        {
            "name": "Kossuth",
            "kind": "utca",
            "post_code": 0
        },
        {
            "name": "Lehel",
            "kind": "utca",
            "post_code": 0
        },
        {
            "name": "Martinovics",
            "kind": "utca",
            "post_code": 0
        },
        {
            "name": "M\u00f3ricz Zsigmond",
            "kind": "utca",
            "post_code": 0
        },
        {
            "name": "Nagy Imre",
            "kind": "utca",
            "post_code": 0
        },
        {
            "name": "Nefelejcs",
            "kind": "utca",
            "post_code": 0
        },
        {
            "name": "Pet\u0151fi S\u00e1ndor",
            "kind": "utca",
            "post_code": 0
        },
        {
            "name": "P\u00f3kf\u00f6ld",
            "kind": "utca",
            "post_code": 0
        },
        {
            "name": "Pusztaszeri",
            "kind": "utca",
            "post_code": 0
        },
        {
            "name": "Radn\u00f3ti",
            "kind": "utca",
            "post_code": 0
        },
        {
            "name": "R\u00e1k\u00f3czi",
            "kind": "utca",
            "post_code": 0
        },
        {
            "name": "R\u00e1mpa",
            "kind": "",
            "post_code": 0
        },
        {
            "name": "Sz\u00e9chenyi",
            "kind": "utca",
            "post_code": 0
        },
        {
            "name": "Szegedi",
            "kind": "utca",
            "post_code": 0
        },
        {
            "name": "Szent Istv\u00e1n",
            "kind": "utca",
            "post_code": 0
        },
        {
            "name": "Szent L\u00e1szl\u00f3",
            "kind": "utca",
            "post_code": 0
        },
        {
            "name": "T\u00e1ncsics Mih\u00e1ly",
            "kind": "utca",
            "post_code": 0
        },
        {
            "name": "Tiszai",
            "kind": "\u00fat",
            "post_code": 0
        },
        {
            "name": "T\u00f6m\u00f6rk\u00e9ny",
            "kind": "utca",
            "post_code": 0
        },
        {
            "name": "T\u00f6r\u00f6k B\u00e1lint",
            "kind": "utca",
            "post_code": 0
        },
        {
            "name": "Vasv\u00e1ri P\u00e1l",
            "kind": "utca",
            "post_code": 0
        },
        {
            "name": "Volen J\u00e1nos",
            "kind": "t\u00e9r",
            "post_code": 0
        }
    ]
}