{
    "codes": {
        "9735": [
            "Csepreg",
            null
        ]
    },
    "streets": [
        {
            "name": "8638",
            "kind": "",
            "post_code": 0
        },
        {
            "name": "Ady Endre",
            "kind": "utca",
            "post_code": 0
        },
        {
            "name": "Alkotm\u00e1ny",
            "kind": "utca",
            "post_code": 0
        },
        {
            "name": "Arany J\u00e1nos",
            "kind": "utca",
            "post_code": 0
        },
        {
            "name": "\u00c1rp\u00e1d",
            "kind": "utca",
            "post_code": 0
        },
        {
            "name": "Attila",
            "kind": "utca",
            "post_code": 0
        },
        {
            "name": "Bajcsy-Zsilinszky Endre",
            "kind": "utca",
            "post_code": 0
        },
        {
            "name": "Bar\u00e1ts\u00e1g",
            "kind": "utca",
            "post_code": 0
        },
        {
            "name": "Bart\u00f3k B\u00e9la",
            "kind": "utca",
            "post_code": 0
        },
        {
            "name": "Bercs\u00e9nyi",
            "kind": "utca",
            "post_code": 0
        },
        {
            "name": "Bogn\u00e1r Ign\u00e1c",
            "kind": "k\u00f6z",
            "post_code": 0
        },
        {
            "name": "Bogn\u00e1r Ign\u00e1c",
            "kind": "utca",
            "post_code": 0
        },
        {
            "name": "Csokonai",
            "kind": "utca",
            "post_code": 0
        },
        {
            "name": "Damjanich",
            "kind": "utca",
            "post_code": 0
        },
        {
            "name": "De\u00e1k Ferenc",
            "kind": "utca",
            "post_code": 0
        },
        {
            "name": "egykori S\u00e1rv\u00e1r-Fels\u0151l\u00e1szl\u00f3 vas\u00fatvonal",
            "kind": "",
            "post_code": 0
        },
        {
            "name": "Feh\u00e9r",
            "kind": "utca",
            "post_code": 0
        },
        {
            "name": "Fehler",
            "kind": "utca",
            "post_code": 0
        },
        {
            "name": "Fels\u0151 gy\u00e1r",
            "kind": "utca",
            "post_code": 0
        },
        {
            "name": "F\u0151",
            "kind": "utca",
            "post_code": 0
        },
        {
            "name": "Hunyadi J\u00e1nos",
            "kind": "utca",
            "post_code": 0
        },
        {
            "name": "Jankovics Gyula",
            "kind": "utca",
            "post_code": 0
        },
        {
            "name": "J\u00f3kai",
            "kind": "utca",
            "post_code": 0
        },
        {
            "name": "Kiss",
            "kind": "utca",
            "post_code": 0
        },
        {
            "name": "Kossuth Lajos",
            "kind": "utca",
            "post_code": 0
        },
        {
            "name": "K\u0151szegi",
            "kind": "utca",
            "post_code": 0
        },
        {
            "name": "Kov\u00e1cs",
            "kind": "k\u00f6z",
            "post_code": 0
        },
        {
            "name": "Kov\u00e1cs",
            "kind": "utca",
            "post_code": 0
        },
        {
            "name": "M\u00e1ty\u00e1s",
            "kind": "utca",
            "post_code": 0
        },
        {
            "name": "N\u00e1dasdy Ferenc",
            "kind": "utca",
            "post_code": 0
        },
        {
            "name": "N\u00e1dasdy",
            "kind": "utca",
            "post_code": 0
        },
        {
            "name": "P\u21ba",
            "kind": "",
            "post_code": 0
        },
        {
            "name": "Pall\u00f3",
            "kind": "",
            "post_code": 0
        },
        {
            "name": "Pet\u0151fi S\u00e1ndor",
            "kind": "utca",
            "post_code": 0
        },
        {
            "name": "R\u00e1k\u00f3czi Ferenc",
            "kind": "utca",
            "post_code": 0
        },
        {
            "name": "S\u00e1gv\u00e1ri",
            "kind": "utca",
            "post_code": 0
        },
        {
            "name": "Szabads\u00e1g",
            "kind": "utca",
            "post_code": 0
        },
        {
            "name": "Sz\u00e9chenyi",
            "kind": "k\u00f6z",
            "post_code": 0
        },
        {
            "name": "Sz\u00e9chenyi",
            "kind": "t\u00e9r",
            "post_code": 0
        },
        {
            "name": "Szombathelyi",
            "kind": "utca",
            "post_code": 0
        },
        {
            "name": "Taksony",
            "kind": "k\u00f6z",
            "post_code": 0
        },
        {
            "name": "Taksony",
            "kind": "utca",
            "post_code": 0
        },
        {
            "name": "Vihar",
            "kind": "utca",
            "post_code": 0
        },
        {
            "name": "Visi",
            "kind": "utca",
            "post_code": 0
        },
        {
            "name": "V\u00f6r\u00f6smarty",
            "kind": "utca",
            "post_code": 0
        },
        {
            "name": "Zr\u00ednyi Mikl\u00f3s",
            "kind": "utca",
            "post_code": 0
        }
    ]
}