{
    "codes": {
        "3417": [
            "Cser\u00e9pv\u00e1ralja",
            null
        ]
    },
    "streets": [
        {
            "name": "Ak\u00e1cfa",
            "kind": "utca",
            "post_code": 0
        },
        {
            "name": "Alkotm\u00e1ny",
            "kind": "\u00fat",
            "post_code": 0
        },
        {
            "name": "? (ben\u0151tt)",
            "kind": "",
            "post_code": 0
        },
        {
            "name": "Dob\u00f3 Istv\u00e1n",
            "kind": "utca",
            "post_code": 0
        },
        {
            "name": "J\u00f3kai M\u00f3r",
            "kind": "utca",
            "post_code": 0
        },
        {
            "name": "J\u00f3zsef Attila",
            "kind": "utca",
            "post_code": 0
        },
        {
            "name": "Klapka Gy\u00f6rgy",
            "kind": "utca",
            "post_code": 0
        },
        {
            "name": "Kossuth Lajos",
            "kind": "utca",
            "post_code": 0
        },
        {
            "name": "(kullant\u00f3s)",
            "kind": "",
            "post_code": 0
        },
        {
            "name": "Liszt Ferenc",
            "kind": "utca",
            "post_code": 0
        },
        {
            "name": "M\u00e9ly\u00fat",
            "kind": "",
            "post_code": 0
        },
        {
            "name": "(meredek \u00f6sv\u00e9ny)",
            "kind": "",
            "post_code": 0
        },
        {
            "name": "Pet\u0151fi",
            "kind": "utca",
            "post_code": 0
        },
        {
            "name": "R\u00e1k\u00f3czi",
            "kind": "utca",
            "post_code": 0
        },
        {
            "name": "R\u00e9gi",
            "kind": "m\u00e9ly\u00fat",
            "post_code": 0
        },
        {
            "name": "Set\u00e9t-v\u00f6lgy",
            "kind": "",
            "post_code": 0
        },
        {
            "name": "T\u00f3th L\u00e1szl\u00f3",
            "kind": "\u00fat",
            "post_code": 0
        }
    ]
}