{
    "codes": {
        "6424": [
            "Csik\u00e9ria",
            null
        ]
    },
    "streets": [
        {
            "name": "Bukti",
            "kind": "sor",
            "post_code": 0
        },
        {
            "name": "Hunyadi",
            "kind": "sor",
            "post_code": 0
        },
        {
            "name": "Kossuth Lajos",
            "kind": "utca",
            "post_code": 0
        },
        {
            "name": "Pet\u0151fi S\u00e1ndor",
            "kind": "utca",
            "post_code": 0
        },
        {
            "name": "R\u00e1k\u00f3czi Ferenc",
            "kind": "utca",
            "post_code": 0
        },
        {
            "name": "Sz\u00e9chenyi Istv\u00e1n",
            "kind": "utca",
            "post_code": 0
        },
        {
            "name": "T\u00e1ncsics Mih\u00e1ly",
            "kind": "utca",
            "post_code": 0
        },
        {
            "name": "Tavank\u00fati",
            "kind": "sor",
            "post_code": 0
        },
        {
            "name": "\u00daj",
            "kind": "utca",
            "post_code": 0
        }
    ]
}