{
    "codes": {
        "2521": [
            "Csolnok",
            null
        ]
    },
    "streets": [
        {
            "name": "Ady Endre",
            "kind": "utca",
            "post_code": 0
        },
        {
            "name": "Ak\u00e1cfa",
            "kind": "utca",
            "post_code": 0
        },
        {
            "name": "Akn\u00e1sz",
            "kind": "utca",
            "post_code": 0
        },
        {
            "name": "Annav\u00f6lgyi",
            "kind": "utca",
            "post_code": 0
        },
        {
            "name": "Arany J\u00e1nos",
            "kind": "utca",
            "post_code": 0
        },
        {
            "name": "Auguszta",
            "kind": "utca",
            "post_code": 0
        },
        {
            "name": "Banka",
            "kind": "utca",
            "post_code": 0
        },
        {
            "name": "B\u00e9ke",
            "kind": "utca",
            "post_code": 0
        },
        {
            "name": "Bor\u00f3k\u00e1s",
            "kind": "utca",
            "post_code": 0
        },
        {
            "name": "Cser",
            "kind": "k\u00f6z",
            "post_code": 0
        },
        {
            "name": "D\u00e1gi",
            "kind": "utca",
            "post_code": 0
        },
        {
            "name": "De\u00e1k Ferenc",
            "kind": "utca",
            "post_code": 0
        },
        {
            "name": "Di\u00f3fa",
            "kind": "utca",
            "post_code": 0
        },
        {
            "name": "Dorogi",
            "kind": "\u00fat",
            "post_code": 0
        },
        {
            "name": "Dorogi",
            "kind": "utca",
            "post_code": 0
        },
        {
            "name": "D\u00f3zsa Gy\u00f6rgy",
            "kind": "utca",
            "post_code": 0
        },
        {
            "name": "Erd\u0151sor",
            "kind": "utca",
            "post_code": 0
        },
        {
            "name": "Fenyves",
            "kind": "utca",
            "post_code": 0
        },
        {
            "name": "Gesztenye",
            "kind": "fasor",
            "post_code": 0
        },
        {
            "name": "Gete",
            "kind": "utca",
            "post_code": 0
        },
        {
            "name": "H\u00e1rsfa",
            "kind": "utca",
            "post_code": 0
        },
        {
            "name": "Hegyalja",
            "kind": "utca",
            "post_code": 0
        },
        {
            "name": "H\u00edd",
            "kind": "utca",
            "post_code": 0
        },
        {
            "name": "H\u0151s\u00f6k",
            "kind": "tere",
            "post_code": 0
        },
        {
            "name": "Hunyadi J\u00e1nos",
            "kind": "utca",
            "post_code": 0
        },
        {
            "name": "J\u00f3kai M\u00f3r",
            "kind": "utca",
            "post_code": 0
        },
        {
            "name": "J\u00f3zsef Attila",
            "kind": "utca",
            "post_code": 0
        },
        {
            "name": "J\u00f3zsef",
            "kind": "telep",
            "post_code": 0
        },
        {
            "name": "Kert",
            "kind": "utca",
            "post_code": 0
        },
        {
            "name": "K\u0151ris",
            "kind": "utca",
            "post_code": 0
        },
        {
            "name": "Kossuth Lajos",
            "kind": "utca",
            "post_code": 0
        },
        {
            "name": "Le\u00e1nyv\u00e1ri",
            "kind": "utca",
            "post_code": 0
        },
        {
            "name": "L\u00e9pcs\u0151",
            "kind": "",
            "post_code": 0
        },
        {
            "name": "Mad\u00e1ch Imre",
            "kind": "utca",
            "post_code": 0
        },
        {
            "name": "Malom-k\u00f6z",
            "kind": "",
            "post_code": 0
        },
        {
            "name": "M\u00e9ly",
            "kind": "\u00fat",
            "post_code": 0
        },
        {
            "name": "Miksz\u00e1th K\u00e1lm\u00e1n",
            "kind": "utca",
            "post_code": 0
        },
        {
            "name": "M\u00f3ra Ferenc",
            "kind": "utca",
            "post_code": 0
        },
        {
            "name": "M\u00f3ricz Zsigmond",
            "kind": "utca",
            "post_code": 0
        },
        {
            "name": "Orgona",
            "kind": "utca",
            "post_code": 0
        },
        {
            "name": "Orvos",
            "kind": "l\u00e9pcs\u0151",
            "post_code": 0
        },
        {
            "name": "Park",
            "kind": "utca",
            "post_code": 0
        },
        {
            "name": "Patak",
            "kind": "sor",
            "post_code": 0
        },
        {
            "name": "Pet\u0151fi S\u00e1ndor",
            "kind": "utca",
            "post_code": 0
        },
        {
            "name": "Radn\u00f3ti Mikl\u00f3s",
            "kind": "utca",
            "post_code": 0
        },
        {
            "name": "Radn\u00f3ti",
            "kind": "utca",
            "post_code": 0
        },
        {
            "name": "R\u00e1k\u00f3czi",
            "kind": "t\u00e9r",
            "post_code": 0
        },
        {
            "name": "R\u00fcckschuss Antal",
            "kind": "utca",
            "post_code": 0
        },
        {
            "name": "Rudas",
            "kind": "utca",
            "post_code": 0
        },
        {
            "name": "Sz\u00e9chenyi Istv\u00e1n",
            "kind": "utca",
            "post_code": 0
        },
        {
            "name": "Szedres",
            "kind": "utca",
            "post_code": 0
        },
        {
            "name": "Sz\u00e9nb\u00e1ny\u00e1szok",
            "kind": "\u00fatja",
            "post_code": 0
        },
        {
            "name": "Szent Borb\u00e1la",
            "kind": "utca",
            "post_code": 0
        },
        {
            "name": "Szent J\u00e1nos",
            "kind": "park",
            "post_code": 0
        },
        {
            "name": "T\u00e1ncsics Mih\u00e1ly",
            "kind": "utca",
            "post_code": 0
        },
        {
            "name": "T\u00e1r\u00f3-k\u00f6z",
            "kind": "",
            "post_code": 0
        },
        {
            "name": "Tavasz",
            "kind": "utca",
            "post_code": 0
        },
        {
            "name": "Temet\u0151",
            "kind": "utca",
            "post_code": 0
        },
        {
            "name": "Templom",
            "kind": "l\u00e9pcs\u0151",
            "post_code": 0
        },
        {
            "name": "Templom",
            "kind": "t\u00e9r",
            "post_code": 0
        },
        {
            "name": "Termel\u0151sz\u00f6vetkezeti",
            "kind": "major",
            "post_code": 0
        },
        {
            "name": "T\u00f6lgyfa",
            "kind": "utca",
            "post_code": 0
        },
        {
            "name": "Tulip\u00e1n",
            "kind": "utca",
            "post_code": 0
        },
        {
            "name": "\u00dajvil\u00e1g",
            "kind": "utca",
            "post_code": 0
        },
        {
            "name": "Vas\u00fat",
            "kind": "utca",
            "post_code": 0
        },
        {
            "name": "V\u00f6r\u00f6smarty Mih\u00e1ly",
            "kind": "utca",
            "post_code": 0
        },
        {
            "name": "XII. aknai",
            "kind": "utca",
            "post_code": 0
        }
    ]
}