{
    "codes": {
        "6640": [
            "Csongr\u00e1d",
            null
        ],
        "6648": [
            "Csongr\u00e1d",
            "Bokros"
        ]
    },
    "streets": [
        {
            "name": "Ady Endre",
            "kind": "utca",
            "post_code": 0
        },
        {
            "name": "Ak\u00e1cfa",
            "kind": "utca",
            "post_code": 0
        },
        {
            "name": "Alma",
            "kind": "utca",
            "post_code": 0
        },
        {
            "name": "Arany J\u00e1nos",
            "kind": "utca",
            "post_code": 0
        },
        {
            "name": "\u00c1rp\u00e1d",
            "kind": "utca",
            "post_code": 0
        },
        {
            "name": "\u00c1rp\u00e1d vez\u00e9r",
            "kind": "\u00fatja",
            "post_code": 0
        },
        {
            "name": "\u00c1rv\u00edz",
            "kind": "utca",
            "post_code": 0
        },
        {
            "name": "Attila",
            "kind": "utca",
            "post_code": 0
        },
        {
            "name": "Balt\u00e1s",
            "kind": "d\u0171l\u0151",
            "post_code": 0
        },
        {
            "name": "Bar\u00e1ts\u00e1g",
            "kind": "utca",
            "post_code": 0
        },
        {
            "name": "Baross G\u00e1bor",
            "kind": "rakpart",
            "post_code": 0
        },
        {
            "name": "Bart\u00f3k B\u00e9la",
            "kind": "utca",
            "post_code": 0
        },
        {
            "name": "B\u00e1thori Istv\u00e1n",
            "kind": "utca",
            "post_code": 0
        },
        {
            "name": "Bats\u00e1nyi J\u00e1nos",
            "kind": "utca",
            "post_code": 0
        },
        {
            "name": "Batthy\u00e1ny",
            "kind": "utca",
            "post_code": 0
        },
        {
            "name": "Bem J\u00f3zsef",
            "kind": "utca",
            "post_code": 0
        },
        {
            "name": "Bercs\u00e9nyi Mikl\u00f3s",
            "kind": "utca",
            "post_code": 0
        },
        {
            "name": "Bern\u00e1t",
            "kind": "d\u0171l\u0151",
            "post_code": 0
        },
        {
            "name": "Berzsenyi D\u00e1niel",
            "kind": "utca",
            "post_code": 0
        },
        {
            "name": "Bethlen G\u00e1bor",
            "kind": "utca",
            "post_code": 0
        },
        {
            "name": "Bocskai Istv\u00e1n",
            "kind": "utca",
            "post_code": 0
        },
        {
            "name": "B\u00f6k\u00e9ny alj",
            "kind": "\u00fat",
            "post_code": 0
        },
        {
            "name": "Bokros",
            "kind": "utca",
            "post_code": 0
        },
        {
            "name": "Bolyai J\u00e1nos",
            "kind": "utca",
            "post_code": 0
        },
        {
            "name": "Budai Nagy Antal",
            "kind": "utca",
            "post_code": 0
        },
        {
            "name": "B\u00fazavir\u00e1g",
            "kind": "utca",
            "post_code": 0
        },
        {
            "name": "Csaba kir\u00e1lyfi",
            "kind": "utca",
            "post_code": 0
        },
        {
            "name": "Cs\u00e1ky Gy\u00f6rgy",
            "kind": "utca",
            "post_code": 0
        },
        {
            "name": "Csemegi K\u00e1roly",
            "kind": "utca",
            "post_code": 0
        },
        {
            "name": "Csengeri",
            "kind": "utca",
            "post_code": 0
        },
        {
            "name": "Cs\u00f3k\u00e1sy Ferenc",
            "kind": "utca",
            "post_code": 0
        },
        {
            "name": "Csongr\u00e1d-Bokros ker\u00e9kp\u00e1r\u00fat",
            "kind": "",
            "post_code": 0
        },
        {
            "name": "Csongr\u00e1d-Felgy\u0151 ker\u00e9kp\u00e1r\u00fat",
            "kind": "",
            "post_code": 0
        },
        {
            "name": "Csongr\u00e1d ker\u00e9kp\u00e1r\u00fat",
            "kind": "",
            "post_code": 0
        },
        {
            "name": "Csongr\u00e1d-Szentes ker\u00e9kp\u00e1r\u00fat",
            "kind": "",
            "post_code": 0
        },
        {
            "name": "D\u00e1lia",
            "kind": "utca",
            "post_code": 0
        },
        {
            "name": "Damjanich",
            "kind": "utca",
            "post_code": 0
        },
        {
            "name": "Dank\u00f3 Pista",
            "kind": "utca",
            "post_code": 0
        },
        {
            "name": "Dar\u00e1nyi Ign\u00e1c",
            "kind": "utca",
            "post_code": 0
        },
        {
            "name": "De\u00e1k Ferenc",
            "kind": "utca",
            "post_code": 0
        },
        {
            "name": "D\u00e9lib\u00e1b",
            "kind": "utca",
            "post_code": 0
        },
        {
            "name": "Dembinszky",
            "kind": "utca",
            "post_code": 0
        },
        {
            "name": "Dob\u00f3 Istv\u00e1n",
            "kind": "utca",
            "post_code": 0
        },
        {
            "name": "Dob",
            "kind": "utca",
            "post_code": 0
        },
        {
            "name": "Doh\u00e1ny sor",
            "kind": "utca",
            "post_code": 0
        },
        {
            "name": "D\u00f3zsa Gy\u00f6rgy",
            "kind": "t\u00e9r",
            "post_code": 0
        },
        {
            "name": "Egyet\u00e9rt\u00e9s",
            "kind": "utca",
            "post_code": 0
        },
        {
            "name": "\u00c9k",
            "kind": "k\u00f6z",
            "post_code": 0
        },
        {
            "name": "\u00c9k",
            "kind": "utca",
            "post_code": 0
        },
        {
            "name": "E\u00f6tv\u00f6s",
            "kind": "utca",
            "post_code": 0
        },
        {
            "name": "Erkel Ferenc",
            "kind": "utca",
            "post_code": 0
        },
        {
            "name": "Erzs\u00e9bet",
            "kind": "utca",
            "post_code": 0
        },
        {
            "name": "Fa-h\u00edd",
            "kind": "",
            "post_code": 0
        },
        {
            "name": "Fekete J\u00e1nos",
            "kind": "utca",
            "post_code": 0
        },
        {
            "name": "Foh\u00e1sz",
            "kind": "utca",
            "post_code": 0
        },
        {
            "name": "F\u0151",
            "kind": "utca",
            "post_code": 0
        },
        {
            "name": "F\u00f6venyi",
            "kind": "utca",
            "post_code": 0
        },
        {
            "name": "Galamb",
            "kind": "utca",
            "post_code": 0
        },
        {
            "name": "G\u00e1rdonyi G\u00e9za",
            "kind": "utca",
            "post_code": 0
        },
        {
            "name": "G\u00e1t",
            "kind": "utca",
            "post_code": 0
        },
        {
            "name": "G\u00e9za",
            "kind": "utca",
            "post_code": 0
        },
        {
            "name": "G\u00f6rgey Art\u00far",
            "kind": "utca",
            "post_code": 0
        },
        {
            "name": "G\u0151zhaj\u00f3",
            "kind": "utca",
            "post_code": 0
        },
        {
            "name": "Gr\u00f3f Andr\u00e1ssy Gyula",
            "kind": "utca",
            "post_code": 0
        },
        {
            "name": "Gr\u00f3f Apponyi Albert",
            "kind": "utca",
            "post_code": 0
        },
        {
            "name": "Gy\u00edk",
            "kind": "utca",
            "post_code": 0
        },
        {
            "name": "Gy\u00f3jai",
            "kind": "utca",
            "post_code": 0
        },
        {
            "name": "Gy\u00f6k\u00e9r",
            "kind": "utca",
            "post_code": 0
        },
        {
            "name": "Gy\u00f6ngy\u00f6si",
            "kind": "utca",
            "post_code": 0
        },
        {
            "name": "Gy\u00f6ngyvir\u00e1g",
            "kind": "utca",
            "post_code": 0
        },
        {
            "name": "Gy\u00f3ni G\u00e9za",
            "kind": "utca",
            "post_code": 0
        },
        {
            "name": "Hal\u00e1sz",
            "kind": "utca",
            "post_code": 0
        },
        {
            "name": "Halpiac",
            "kind": "utca",
            "post_code": 0
        },
        {
            "name": "H\u00e1m\u00e1n Kat\u00f3",
            "kind": "utca",
            "post_code": 0
        },
        {
            "name": "H\u00e1rsfa",
            "kind": "utca",
            "post_code": 0
        },
        {
            "name": "Hegyi Antal",
            "kind": "utca",
            "post_code": 0
        },
        {
            "name": "Hock J\u00e1nos",
            "kind": "utca",
            "post_code": 0
        },
        {
            "name": "Hold",
            "kind": "utca",
            "post_code": 0
        },
        {
            "name": "Hortenzia",
            "kind": "utca",
            "post_code": 0
        },
        {
            "name": "Hossz\u00fa",
            "kind": "utca",
            "post_code": 0
        },
        {
            "name": "H\u00f3vir\u00e1g",
            "kind": "utca",
            "post_code": 0
        },
        {
            "name": "Hunyadi",
            "kind": "t\u00e9r",
            "post_code": 0
        },
        {
            "name": "Ibolya",
            "kind": "utca",
            "post_code": 0
        },
        {
            "name": "Ifj\u00fas\u00e1g",
            "kind": "t\u00e9r",
            "post_code": 0
        },
        {
            "name": "Iskola",
            "kind": "k\u00f6z",
            "post_code": 0
        },
        {
            "name": "Iskola",
            "kind": "utca",
            "post_code": 0
        },
        {
            "name": "Istv\u00e1n",
            "kind": "utca",
            "post_code": 0
        },
        {
            "name": "J\u00e1cint",
            "kind": "utca",
            "post_code": 0
        },
        {
            "name": "Jegenye",
            "kind": "utca",
            "post_code": 0
        },
        {
            "name": "J\u00f3kai M\u00f3r",
            "kind": "utca",
            "post_code": 0
        },
        {
            "name": "J\u00f3sika",
            "kind": "utca",
            "post_code": 0
        },
        {
            "name": "J\u00f3zsef Attila",
            "kind": "utca",
            "post_code": 0
        },
        {
            "name": "J\u00f3zsef",
            "kind": "utca",
            "post_code": 0
        },
        {
            "name": "Justh Gyula",
            "kind": "utca",
            "post_code": 0
        },
        {
            "name": "Karinthy Frigyes",
            "kind": "utca",
            "post_code": 0
        },
        {
            "name": "Kassai",
            "kind": "utca",
            "post_code": 0
        },
        {
            "name": "Katona J\u00f3zsef",
            "kind": "utca",
            "post_code": 0
        },
        {
            "name": "Kazinczy Ferenc",
            "kind": "utca",
            "post_code": 0
        },
        {
            "name": "Kem\u00e9ny Zsigmond",
            "kind": "utca",
            "post_code": 0
        },
        {
            "name": "Kenderf\u00f6ldek",
            "kind": "utc\u00e1ja",
            "post_code": 0
        },
        {
            "name": "Kerek",
            "kind": "\u00e1rok",
            "post_code": 0
        },
        {
            "name": "Kereszt",
            "kind": "t\u00e9r",
            "post_code": 0
        },
        {
            "name": "Kereszt",
            "kind": "utca",
            "post_code": 0
        },
        {
            "name": "Kert\u00e9sz",
            "kind": "utca",
            "post_code": 0
        },
        {
            "name": "Kert",
            "kind": "utca",
            "post_code": 0
        },
        {
            "name": "K\u00e9t\u00e1g\u00fa",
            "kind": "utca",
            "post_code": 0
        },
        {
            "name": "K\u00e9ttemet\u0151",
            "kind": "utca",
            "post_code": 0
        },
        {
            "name": "K\u00edgy\u00f3",
            "kind": "utca",
            "post_code": 0
        },
        {
            "name": "Kinizsi P\u00e1l",
            "kind": "utca",
            "post_code": 0
        },
        {
            "name": "Kis Tisza",
            "kind": "utca",
            "post_code": 0
        },
        {
            "name": "Kis",
            "kind": "utca",
            "post_code": 0
        },
        {
            "name": "Klapka Gy\u00f6rgy",
            "kind": "utca",
            "post_code": 0
        },
        {
            "name": "Klauz\u00e1l G\u00e1bor",
            "kind": "utca",
            "post_code": 0
        },
        {
            "name": "K\u00f6lcsey Ferenc",
            "kind": "utca",
            "post_code": 0
        },
        {
            "name": "Kolozsv\u00e1ri",
            "kind": "utca",
            "post_code": 0
        },
        {
            "name": "K\u00f6ny\u00f6k",
            "kind": "utca",
            "post_code": 0
        },
        {
            "name": "K\u0151r\u00f6storok",
            "kind": "\u00fcd\u00fcl\u0151-telep",
            "post_code": 0
        },
        {
            "name": "Kossuth",
            "kind": "t\u00e9r",
            "post_code": 0
        },
        {
            "name": "Levendula",
            "kind": "utca",
            "post_code": 0
        },
        {
            "name": "Losonczi",
            "kind": "utca",
            "post_code": 0
        },
        {
            "name": "Mad\u00e1ch Imre",
            "kind": "utca",
            "post_code": 0
        },
        {
            "name": "Martinovics Ign\u00e1c",
            "kind": "utca",
            "post_code": 0
        },
        {
            "name": "M\u00e1ty\u00e1s kir\u00e1ly",
            "kind": "utca",
            "post_code": 0
        },
        {
            "name": "Mikes Kelemen",
            "kind": "utca",
            "post_code": 0
        },
        {
            "name": "Miksz\u00e1th K\u00e1lm\u00e1n",
            "kind": "utca",
            "post_code": 0
        },
        {
            "name": "M\u00f3ra Ferenc",
            "kind": "rakpart",
            "post_code": 0
        },
        {
            "name": "M\u00f3ricz Zsigmond",
            "kind": "utca",
            "post_code": 0
        },
        {
            "name": "Munk\u00e1csy Mih\u00e1ly",
            "kind": "utca",
            "post_code": 0
        },
        {
            "name": "Musk\u00e1tli",
            "kind": "utca",
            "post_code": 0
        },
        {
            "name": "N\u00e1dor",
            "kind": "utca",
            "post_code": 0
        },
        {
            "name": "Nagymez\u0151",
            "kind": "utca",
            "post_code": 0
        },
        {
            "name": "Nap",
            "kind": "utca",
            "post_code": 0
        },
        {
            "name": "N\u00e1rcisz",
            "kind": "utca",
            "post_code": 0
        },
        {
            "name": "Nefelejcs",
            "kind": "utca",
            "post_code": 0
        },
        {
            "name": "Ny\u00edl",
            "kind": "utca",
            "post_code": 0
        },
        {
            "name": "Ord\u00f3dy P\u00e1l",
            "kind": "rakpart",
            "post_code": 0
        },
        {
            "name": "\u00d6regv\u00e1r",
            "kind": "utca",
            "post_code": 0
        },
        {
            "name": "Orgona",
            "kind": "utca",
            "post_code": 0
        },
        {
            "name": "\u00d6sszetart\u00e1s",
            "kind": "utca",
            "post_code": 0
        },
        {
            "name": "Pacsirta",
            "kind": "utca",
            "post_code": 0
        },
        {
            "name": "Pajt\u00e1s",
            "kind": "utca",
            "post_code": 0
        },
        {
            "name": "P\u00e1lffy J\u00e1nos",
            "kind": "utca",
            "post_code": 0
        },
        {
            "name": "P\u00e1zm\u00e1ny P\u00e9ter",
            "kind": "utca",
            "post_code": 0
        },
        {
            "name": "Perczel M\u00f3r",
            "kind": "utca",
            "post_code": 0
        },
        {
            "name": "Petneh\u00e1zy",
            "kind": "utca",
            "post_code": 0
        },
        {
            "name": "Pet\u0151fi S\u00e1ndor",
            "kind": "utca",
            "post_code": 0
        },
        {
            "name": "Piroska J\u00e1nos",
            "kind": "t\u00e9r",
            "post_code": 0
        },
        {
            "name": "Raisio",
            "kind": "utca",
            "post_code": 0
        },
        {
            "name": "R\u00e1k\u00f3czi Ferenc",
            "kind": "utca",
            "post_code": 0
        },
        {
            "name": "R\u00e9ti J\u00e1nos",
            "kind": "utca",
            "post_code": 0
        },
        {
            "name": "R\u00e9v Istv\u00e1n",
            "kind": "utca",
            "post_code": 0
        },
        {
            "name": "Rozmaring",
            "kind": "utca",
            "post_code": 0
        },
        {
            "name": "R\u00f3zsa Ferenc",
            "kind": "utca",
            "post_code": 0
        },
        {
            "name": "R\u00f3zsa",
            "kind": "utca",
            "post_code": 0
        },
        {
            "name": "S\u00edp",
            "kind": "utca",
            "post_code": 0
        },
        {
            "name": "Sport",
            "kind": "utca",
            "post_code": 0
        },
        {
            "name": "Sug\u00e1r",
            "kind": "utca",
            "post_code": 0
        },
        {
            "name": "Sz\u00e1nt\u00f3 K\u00f3v\u00e1cs J\u00e1nos",
            "kind": "utca",
            "post_code": 0
        },
        {
            "name": "Sz\u00e9chenyi",
            "kind": "utca",
            "post_code": 0
        },
        {
            "name": "Sz\u00e9chy M\u00e1ria",
            "kind": "utca",
            "post_code": 0
        },
        {
            "name": "Szegedi",
            "kind": "\u00fat",
            "post_code": 0
        },
        {
            "name": "Szegf\u0171",
            "kind": "utca",
            "post_code": 0
        },
        {
            "name": "Szemere Bertalan",
            "kind": "utca",
            "post_code": 0
        },
        {
            "name": "Szentesi",
            "kind": "\u00fat",
            "post_code": 0
        },
        {
            "name": "Szent Gy\u00f6rgy",
            "kind": "utca",
            "post_code": 0
        },
        {
            "name": "Szenth\u00e1roms\u00e1g",
            "kind": "t\u00e9r",
            "post_code": 0
        },
        {
            "name": "Szent Imre",
            "kind": "utca",
            "post_code": 0
        },
        {
            "name": "Szent J\u00e1nos",
            "kind": "t\u00e9r",
            "post_code": 0
        },
        {
            "name": "Szent R\u00f3kus",
            "kind": "t\u00e9r",
            "post_code": 0
        },
        {
            "name": "Sz\u00e9p",
            "kind": "utca",
            "post_code": 0
        },
        {
            "name": "Szigligeti Ede",
            "kind": "utca",
            "post_code": 0
        },
        {
            "name": "Sz\u0151l\u0151hegyi",
            "kind": "utca",
            "post_code": 0
        },
        {
            "name": "Sz\u0171k",
            "kind": "utca",
            "post_code": 0
        },
        {
            "name": "T\u00e1ncsics Mih\u00e1ly",
            "kind": "utca",
            "post_code": 0
        },
        {
            "name": "Tavasz",
            "kind": "utca",
            "post_code": 0
        },
        {
            "name": "Templom",
            "kind": "utca",
            "post_code": 0
        },
        {
            "name": "Th\u00f6k\u00f6ly Imre",
            "kind": "utca",
            "post_code": 0
        },
        {
            "name": "Tin\u00f3di Sebesty\u00e9n",
            "kind": "utca",
            "post_code": 0
        },
        {
            "name": "Tisza",
            "kind": "g\u00e1t",
            "post_code": 0
        },
        {
            "name": "Tiszavir\u00e1g",
            "kind": "utca",
            "post_code": 0
        },
        {
            "name": "T\u00f6m\u00f6rk\u00e9ny Istv\u00e1n",
            "kind": "utca",
            "post_code": 0
        },
        {
            "name": "Tompa Mih\u00e1ly",
            "kind": "utca",
            "post_code": 0
        },
        {
            "name": "Tulip\u00e1n",
            "kind": "utca",
            "post_code": 0
        },
        {
            "name": "\u00daj",
            "kind": "utca",
            "post_code": 0
        },
        {
            "name": "\u00datt\u00f6r\u0151",
            "kind": "utca",
            "post_code": 0
        },
        {
            "name": "Uzsoki",
            "kind": "utca",
            "post_code": 0
        },
        {
            "name": "V\u00e1r",
            "kind": "k\u00f6z",
            "post_code": 0
        },
        {
            "name": "Vas\u00fat",
            "kind": "t\u00e9r",
            "post_code": 0
        },
        {
            "name": "Vas\u00fat",
            "kind": "utca",
            "post_code": 0
        },
        {
            "name": "Vasv\u00e1ri P\u00e1l",
            "kind": "utca",
            "post_code": 0
        },
        {
            "name": "Vasvir\u00e1g",
            "kind": "utca",
            "post_code": 0
        },
        {
            "name": "V\u00e9g",
            "kind": "utca",
            "post_code": 0
        },
        {
            "name": "Vill\u00e1m",
            "kind": "utca",
            "post_code": 0
        },
        {
            "name": "Viola",
            "kind": "utca",
            "post_code": 0
        },
        {
            "name": "Vir\u00e1g Benedek",
            "kind": "utca",
            "post_code": 0
        },
        {
            "name": "V\u00f6r\u00f6smarty",
            "kind": "utca",
            "post_code": 0
        },
        {
            "name": "Wessel\u00e9nyi Mikl\u00f3s",
            "kind": "utca",
            "post_code": 0
        },
        {
            "name": "Z\u00f6ldkert",
            "kind": "utca",
            "post_code": 0
        },
        {
            "name": "Zr\u00ednyi",
            "kind": "utca",
            "post_code": 0
        },
        {
            "name": "Zsilip",
            "kind": "utca",
            "post_code": 0
        },
        {
            "name": "Zsin\u00f3r",
            "kind": "utca",
            "post_code": 0
        }
    ]
}