{
    "codes": {
        "8229": [
            "Csopak",
            null
        ]
    },
    "streets": [
        {
            "name": "Arany J\u00e1nos",
            "kind": "utca",
            "post_code": 0
        },
        {
            "name": "\u00c1rok",
            "kind": "utca",
            "post_code": 0
        },
        {
            "name": "\u00c1rp\u00e1d",
            "kind": "utca",
            "post_code": 0
        },
        {
            "name": "Balatoni",
            "kind": "utca",
            "post_code": 0
        },
        {
            "name": "Bencze L\u00e1szl\u00f3",
            "kind": "utca",
            "post_code": 0
        },
        {
            "name": "Bene",
            "kind": "d\u0171l\u0151",
            "post_code": 0
        },
        {
            "name": "Berekh\u00e1ti",
            "kind": "utca",
            "post_code": 0
        },
        {
            "name": "Bodonk\u00fati",
            "kind": "utca",
            "post_code": 0
        },
        {
            "name": "Bor\u00f3ka",
            "kind": "utca",
            "post_code": 0
        },
        {
            "name": "Budai",
            "kind": "utca",
            "post_code": 0
        },
        {
            "name": "Cinege",
            "kind": "utca",
            "post_code": 0
        },
        {
            "name": "Cs\u00e1k\u00e1nyhegyi",
            "kind": "utca",
            "post_code": 0
        },
        {
            "name": "Csall\u00f3",
            "kind": "k\u00f6z",
            "post_code": 0
        },
        {
            "name": "De\u00e1k Ferenc",
            "kind": "utca",
            "post_code": 0
        },
        {
            "name": "D\u00f3zsa Gy\u00f6rgy",
            "kind": "utca",
            "post_code": 0
        },
        {
            "name": "Dr. Ferenczy S\u00e1ndor",
            "kind": "utca",
            "post_code": 0
        },
        {
            "name": "Erd\u0151alja",
            "kind": "utca",
            "post_code": 0
        },
        {
            "name": "Falukertje",
            "kind": "utca",
            "post_code": 0
        },
        {
            "name": "Fecske",
            "kind": "utca",
            "post_code": 0
        },
        {
            "name": "Feh\u00e9rv\u00edz",
            "kind": "utca",
            "post_code": 0
        },
        {
            "name": "Feny\u0151",
            "kind": "k\u00f6z",
            "post_code": 0
        },
        {
            "name": "Fenyves",
            "kind": "utca",
            "post_code": 0
        },
        {
            "name": "Forr\u00e1s",
            "kind": "utca",
            "post_code": 0
        },
        {
            "name": "F\u00fcrd\u0151",
            "kind": "utca",
            "post_code": 0
        },
        {
            "name": "F\u00fcredi",
            "kind": "\u00fat",
            "post_code": 0
        },
        {
            "name": "Gy\u00f6ngyvir\u00e1g",
            "kind": "utca",
            "post_code": 0
        },
        {
            "name": "Hank\u00f3czi Jen\u0151",
            "kind": "utca",
            "post_code": 0
        },
        {
            "name": "Hark\u00e1ly",
            "kind": "utca",
            "post_code": 0
        },
        {
            "name": "H\u00e1rsfa",
            "kind": "utca",
            "post_code": 0
        },
        {
            "name": "Hegyalja",
            "kind": "utca",
            "post_code": 0
        },
        {
            "name": "Homokb\u00e1nya",
            "kind": "utca",
            "post_code": 0
        },
        {
            "name": "H\u00f3vir\u00e1g",
            "kind": "utca",
            "post_code": 0
        },
        {
            "name": "Ifj\u00fas\u00e1g",
            "kind": "s\u00e9t\u00e1ny",
            "post_code": 0
        },
        {
            "name": "II. R\u00e1k\u00f3czi Ferenc",
            "kind": "utca",
            "post_code": 0
        },
        {
            "name": "Istenfia",
            "kind": "utca",
            "post_code": 0
        },
        {
            "name": "Kerekedi",
            "kind": "utca",
            "post_code": 0
        },
        {
            "name": "Kil\u00e1t\u00f3",
            "kind": "utca",
            "post_code": 0
        },
        {
            "name": "Kisfaludy",
            "kind": "utca",
            "post_code": 0
        },
        {
            "name": "Kishegyi",
            "kind": "utca",
            "post_code": 0
        },
        {
            "name": "Kiskert",
            "kind": "utca",
            "post_code": 0
        },
        {
            "name": "K\u0151kors\u00f3",
            "kind": "utca",
            "post_code": 0
        },
        {
            "name": "Kossuth Lajos",
            "kind": "utca",
            "post_code": 0
        },
        {
            "name": "K\u00f6vesdi",
            "kind": "utca",
            "post_code": 0
        },
        {
            "name": "L\u00e1potai",
            "kind": "\u00fat",
            "post_code": 0
        },
        {
            "name": "Levendula",
            "kind": "utca",
            "post_code": 0
        },
        {
            "name": "L\u0151cedombi",
            "kind": "utca",
            "post_code": 0
        },
        {
            "name": "L\u00f3czy Lajos",
            "kind": "utca",
            "post_code": 0
        },
        {
            "name": "Mandulavir\u00e1g",
            "kind": "utca",
            "post_code": 0
        },
        {
            "name": "M\u0171",
            "kind": "\u00fat",
            "post_code": 0
        },
        {
            "name": "N\u00e1dask\u00fati",
            "kind": "utca",
            "post_code": 0
        },
        {
            "name": "Nagyk\u00fati",
            "kind": "utca",
            "post_code": 0
        },
        {
            "name": "Napsug\u00e1r",
            "kind": "utca",
            "post_code": 0
        },
        {
            "name": "\u00d3bor",
            "kind": "utca",
            "post_code": 0
        },
        {
            "name": "\u00d6rd\u00f6ng\u00f6s",
            "kind": "utca",
            "post_code": 0
        },
        {
            "name": "\u00d6reghegyi",
            "kind": "utca",
            "post_code": 0
        },
        {
            "name": "Orgona",
            "kind": "utca",
            "post_code": 0
        },
        {
            "name": "\u00d6rk\u00e9ny Istv\u00e1n",
            "kind": "s\u00e9t\u00e1ny",
            "post_code": 0
        },
        {
            "name": "\u0150rsi",
            "kind": "utca",
            "post_code": 0
        },
        {
            "name": "\u00d3voda",
            "kind": "k\u00f6z",
            "post_code": 0
        },
        {
            "name": "Pacsirta",
            "kind": "utca",
            "post_code": 0
        },
        {
            "name": "Paloznaki",
            "kind": "utca",
            "post_code": 0
        },
        {
            "name": "Patak",
            "kind": "utca",
            "post_code": 0
        },
        {
            "name": "Patakv\u00f6lgyi",
            "kind": "utca",
            "post_code": 0
        },
        {
            "name": "Pet\u0151fi",
            "kind": "utca",
            "post_code": 0
        },
        {
            "name": "Pincemester",
            "kind": "utca",
            "post_code": 0
        },
        {
            "name": "Ranolder J\u00e1nos",
            "kind": "",
            "post_code": 0
        },
        {
            "name": "Rig\u00f3",
            "kind": "utca",
            "post_code": 0
        },
        {
            "name": "Rizling",
            "kind": "\u00fat",
            "post_code": 0
        },
        {
            "name": "Rizling",
            "kind": "utca",
            "post_code": 0
        },
        {
            "name": "Rozmaring",
            "kind": "utca",
            "post_code": 0
        },
        {
            "name": "R\u00f3zsa",
            "kind": "utca",
            "post_code": 0
        },
        {
            "name": "S\u00e1fr\u00e1nykert",
            "kind": "utca",
            "post_code": 0
        },
        {
            "name": "S\u00e1ner J\u00e1nos",
            "kind": "utca",
            "post_code": 0
        },
        {
            "name": "Simoga",
            "kind": "k\u00f6z",
            "post_code": 0
        },
        {
            "name": "Sir\u00e1ly",
            "kind": "utca",
            "post_code": 0
        },
        {
            "name": "S\u00f3st\u00f3dombi",
            "kind": "utca",
            "post_code": 0
        },
        {
            "name": "S\u00f3st\u00f3i",
            "kind": "k\u00f6r\u00fat",
            "post_code": 0
        },
        {
            "name": "Sport",
            "kind": "utca",
            "post_code": 0
        },
        {
            "name": "Szeder",
            "kind": "utca",
            "post_code": 0
        },
        {
            "name": "Szent Donat",
            "kind": "",
            "post_code": 0
        },
        {
            "name": "Sz\u00e9pkil\u00e1t\u00f3",
            "kind": "utca",
            "post_code": 0
        },
        {
            "name": "Szeprente",
            "kind": "utca",
            "post_code": 0
        },
        {
            "name": "Sz\u00e9r\u0171skert",
            "kind": "utca",
            "post_code": 0
        },
        {
            "name": "Szitahegyi",
            "kind": "utca",
            "post_code": 0
        },
        {
            "name": "Sz\u0151l\u0151kalja",
            "kind": "utca",
            "post_code": 0
        },
        {
            "name": "Sz\u0151l\u0151skert",
            "kind": "utca",
            "post_code": 0
        },
        {
            "name": "T\u00edm\u00e1r J\u00f3zsef",
            "kind": "utca",
            "post_code": 0
        },
        {
            "name": "T\u00fcsk\u00e9salja",
            "kind": "utca",
            "post_code": 0
        },
        {
            "name": "Vadvir\u00e1g",
            "kind": "utca",
            "post_code": 0
        },
        {
            "name": "Vas\u00fat",
            "kind": "utca",
            "post_code": 0
        },
        {
            "name": "Venyige",
            "kind": "utca",
            "post_code": 0
        },
        {
            "name": "Veszpr\u00e9mi",
            "kind": "utca",
            "post_code": 0
        },
        {
            "name": "Vincell\u00e9r",
            "kind": "utca",
            "post_code": 0
        },
        {
            "name": "V\u00f6lgy",
            "kind": "utca",
            "post_code": 0
        }
    ]
}