{
    "codes": {
        "9919": [
            "Cs\u00e1k\u00e1nydoroszl\u00f3",
            null
        ]
    },
    "streets": [
        {
            "name": "Andris",
            "kind": "utca",
            "post_code": 0
        },
        {
            "name": "Batthy\u00e1ny",
            "kind": "utca",
            "post_code": 0
        },
        {
            "name": "Border AT-HU",
            "kind": "",
            "post_code": 0
        },
        {
            "name": "Doroszl\u00f3i",
            "kind": "utca",
            "post_code": 0
        },
        {
            "name": "D\u00f3zsaliget",
            "kind": "utca",
            "post_code": 0
        },
        {
            "name": "Felszabadul\u00e1s",
            "kind": "utca",
            "post_code": 0
        },
        {
            "name": "F\u0151",
            "kind": "utca",
            "post_code": 0
        },
        {
            "name": "Gy\u00fcm\u00f6lcs\u00f6s",
            "kind": "utca",
            "post_code": 0
        },
        {
            "name": "J\u00f3zsef Attila",
            "kind": "utca",
            "post_code": 0
        },
        {
            "name": "Kis",
            "kind": "utca",
            "post_code": 0
        },
        {
            "name": "K\u00f6rmendi",
            "kind": "utca",
            "post_code": 0
        },
        {
            "name": "Kossuth Lajos",
            "kind": "utca",
            "post_code": 0
        },
        {
            "name": "Pet\u0151fi S\u00e1ndor",
            "kind": "utca",
            "post_code": 0
        },
        {
            "name": "Szabads\u00e1g",
            "kind": "utca",
            "post_code": 0
        },
        {
            "name": "Telek",
            "kind": "utca",
            "post_code": 0
        },
        {
            "name": "V\u00e1rkert",
            "kind": "utca",
            "post_code": 0
        },
        {
            "name": "V\u00e1rk\u00f6r",
            "kind": "utca",
            "post_code": 0
        },
        {
            "name": "Vas\u00fat",
            "kind": "utca",
            "post_code": 0
        }
    ]
}