{
    "codes": {
        "2370": [
            "Dabas",
            " "
        ],
        "2371": [
            "Dabas",
            "S\u00e1ri"
        ],
        "2373": [
            "Dabas",
            "Gy\u00f3n"
        ]
    },
    "streets": [
        {
            "name": "52108",
            "kind": "",
            "post_code": 0
        },
        {
            "name": "\u00c1chim",
            "kind": "utca",
            "post_code": 0
        },
        {
            "name": "Ady Endre",
            "kind": "k\u00f6z",
            "post_code": 0
        },
        {
            "name": "Ady Endre",
            "kind": "utca",
            "post_code": 0
        },
        {
            "name": "\u00c1g",
            "kind": "utca",
            "post_code": 0
        },
        {
            "name": "Ak\u00e1cos",
            "kind": "utca",
            "post_code": 0
        },
        {
            "name": "Alig",
            "kind": "utca",
            "post_code": 0
        },
        {
            "name": "Alkotm\u00e1ny",
            "kind": "utca",
            "post_code": 0
        },
        {
            "name": "\u00c1lmos vez\u00e9r",
            "kind": "\u00fatja",
            "post_code": 0
        },
        {
            "name": "\u00c1lom",
            "kind": "utca",
            "post_code": 0
        },
        {
            "name": "Andr\u00e1ssy",
            "kind": "utca",
            "post_code": 0
        },
        {
            "name": "Arany J\u00e1nos",
            "kind": "utca",
            "post_code": 0
        },
        {
            "name": "\u00c1rok",
            "kind": "utca",
            "post_code": 0
        },
        {
            "name": "\u00c1rp\u00e1d",
            "kind": "utca",
            "post_code": 0
        },
        {
            "name": "Attila kir\u00e1ly",
            "kind": "\u00fatja",
            "post_code": 0
        },
        {
            "name": "Aut\u00f3s gyakorl\u00f3p\u00e1lya",
            "kind": "",
            "post_code": 0
        },
        {
            "name": "Avar",
            "kind": "utca",
            "post_code": 0
        },
        {
            "name": "Bajcsy-Zsilinszky",
            "kind": "k\u00f6z",
            "post_code": 0
        },
        {
            "name": "Bajcsy-Zsilinszky",
            "kind": "utca",
            "post_code": 0
        },
        {
            "name": "Balassi B\u00e1lint",
            "kind": "utca",
            "post_code": 0
        },
        {
            "name": "Balla P\u00e1l",
            "kind": "utca",
            "post_code": 0
        },
        {
            "name": "B\u00e1r\u00f3",
            "kind": "k\u00f6z",
            "post_code": 0
        },
        {
            "name": "Bart\u00f3k B\u00e9la",
            "kind": "\u00fat",
            "post_code": 0
        },
        {
            "name": "B\u00e1thory",
            "kind": "utca",
            "post_code": 0
        },
        {
            "name": "Bats\u00e1nyi J\u00e1nos",
            "kind": "k\u00f6z",
            "post_code": 0
        },
        {
            "name": "Bats\u00e1nyi J\u00e1nos",
            "kind": "utca",
            "post_code": 0
        },
        {
            "name": "B\u00e9ke",
            "kind": "k\u00f6z",
            "post_code": 0
        },
        {
            "name": "B\u00e9ke",
            "kind": "utca",
            "post_code": 0
        },
        {
            "name": "Bem",
            "kind": "utca",
            "post_code": 0
        },
        {
            "name": "Benedek Elek",
            "kind": "utca",
            "post_code": 0
        },
        {
            "name": "Bercs\u00e9nyi",
            "kind": "utca",
            "post_code": 0
        },
        {
            "name": "Berkenye",
            "kind": "utca",
            "post_code": 0
        },
        {
            "name": "Besny\u0151i",
            "kind": "utca",
            "post_code": 0
        },
        {
            "name": "Bibor",
            "kind": "utca",
            "post_code": 0
        },
        {
            "name": "Bimb\u00f3",
            "kind": "utca",
            "post_code": 0
        },
        {
            "name": "Bojt",
            "kind": "utca",
            "post_code": 0
        },
        {
            "name": "Bugyi",
            "kind": "\u00fat",
            "post_code": 0
        },
        {
            "name": "Buszfordul\u00f3",
            "kind": "",
            "post_code": 0
        },
        {
            "name": "C\u00edmer",
            "kind": "utca",
            "post_code": 0
        },
        {
            "name": "Csap",
            "kind": "utca",
            "post_code": 0
        },
        {
            "name": "Cs\u00e1rdapusztai",
            "kind": "d\u0171l\u0151",
            "post_code": 0
        },
        {
            "name": "Csarnok",
            "kind": "utca",
            "post_code": 0
        },
        {
            "name": "Csepp",
            "kind": "utca",
            "post_code": 0
        },
        {
            "name": "Csillag",
            "kind": "utca",
            "post_code": 0
        },
        {
            "name": "Csokonai",
            "kind": "utca",
            "post_code": 0
        },
        {
            "name": "Dabasi",
            "kind": "d\u0171l\u0151",
            "post_code": 0
        },
        {
            "name": "Dabasi",
            "kind": "utca",
            "post_code": 0
        },
        {
            "name": "Damjanich",
            "kind": "utca",
            "post_code": 0
        },
        {
            "name": "De\u00e1k Ferenc",
            "kind": "utca",
            "post_code": 0
        },
        {
            "name": "D\u00e9r",
            "kind": "utca",
            "post_code": 0
        },
        {
            "name": "Dinny\u00e9s",
            "kind": "d\u0171l\u0151",
            "post_code": 0
        },
        {
            "name": "Dinny\u00e9s Lajos",
            "kind": "utca",
            "post_code": 0
        },
        {
            "name": "Dob\u00f3 Katica",
            "kind": "utca",
            "post_code": 0
        },
        {
            "name": "Dob",
            "kind": "utca",
            "post_code": 0
        },
        {
            "name": "D\u00f3zsa Gy\u00f6rgy",
            "kind": "utca",
            "post_code": 0
        },
        {
            "name": "Dr. Hal\u00e1sz Mih\u00e1ly",
            "kind": "utca",
            "post_code": 0
        },
        {
            "name": "D. Szab\u00f3 K\u00e1roly",
            "kind": "utca",
            "post_code": 0
        },
        {
            "name": "Egressy B\u00e9ni",
            "kind": "utca",
            "post_code": 0
        },
        {
            "name": "Egyh\u00e1z",
            "kind": "utca",
            "post_code": 0
        },
        {
            "name": "\u00c9k",
            "kind": "utca",
            "post_code": 0
        },
        {
            "name": "El\u0151d vez\u00e9r",
            "kind": "\u00fatja",
            "post_code": 0
        },
        {
            "name": "Erkel Ferenc",
            "kind": "utca",
            "post_code": 0
        },
        {
            "name": "Es\u0151",
            "kind": "utca",
            "post_code": 0
        },
        {
            "name": "Esze Tam\u00e1s",
            "kind": "utca",
            "post_code": 0
        },
        {
            "name": "Falu Tam\u00e1s",
            "kind": "utca",
            "post_code": 0
        },
        {
            "name": "Feh\u00e9rak\u00e1c",
            "kind": "utca",
            "post_code": 0
        },
        {
            "name": "F\u0151",
            "kind": "\u00fat",
            "post_code": 0
        },
        {
            "name": "F\u00fcves",
            "kind": "utca",
            "post_code": 0
        },
        {
            "name": "G\u00e1bor \u00c1ron",
            "kind": "utca",
            "post_code": 0
        },
        {
            "name": "G\u00e1rdonyi G\u00e9za",
            "kind": "utca",
            "post_code": 0
        },
        {
            "name": "G\u00f6d\u00f6r",
            "kind": "utca",
            "post_code": 0
        },
        {
            "name": "G\u00f3lya",
            "kind": "utca",
            "post_code": 0
        },
        {
            "name": "Gr\u00f3f Vay S\u00e1ndor",
            "kind": "utca",
            "post_code": 0
        },
        {
            "name": "Gy\u00f3ni G\u00e9za",
            "kind": "utca",
            "post_code": 0
        },
        {
            "name": "Hajcs\u00e1r",
            "kind": "utca",
            "post_code": 0
        },
        {
            "name": "Hal\u00e1sz Jen\u0151",
            "kind": "utca",
            "post_code": 0
        },
        {
            "name": "Harang",
            "kind": "utca",
            "post_code": 0
        },
        {
            "name": "Harmat",
            "kind": "utca",
            "post_code": 0
        },
        {
            "name": "Hat\u00e1r",
            "kind": "utca",
            "post_code": 0
        },
        {
            "name": "Hold",
            "kind": "utca",
            "post_code": 0
        },
        {
            "name": "Homok",
            "kind": "utca",
            "post_code": 0
        },
        {
            "name": "Honv\u00e9d",
            "kind": "k\u00f6z",
            "post_code": 0
        },
        {
            "name": "Honv\u00e9d",
            "kind": "utca",
            "post_code": 0
        },
        {
            "name": "Horv\u00e1th L\u00e1szl\u00f3",
            "kind": "utca",
            "post_code": 0
        },
        {
            "name": "Huba vez\u00e9r",
            "kind": "\u00fatja",
            "post_code": 0
        },
        {
            "name": "Hunyadi J\u00e1nos",
            "kind": "utca",
            "post_code": 0
        },
        {
            "name": "Ifj\u00fas\u00e1g",
            "kind": "utca",
            "post_code": 0
        },
        {
            "name": "Illatos",
            "kind": "utca",
            "post_code": 0
        },
        {
            "name": "In\u00e1rcsi",
            "kind": "\u00fat",
            "post_code": 0
        },
        {
            "name": "Iskola",
            "kind": "utca",
            "post_code": 0
        },
        {
            "name": "\u00cdves",
            "kind": "utca",
            "post_code": 0
        },
        {
            "name": "J\u00e1sz",
            "kind": "utca",
            "post_code": 0
        },
        {
            "name": "J\u00f3kai M\u00f3r",
            "kind": "utca",
            "post_code": 0
        },
        {
            "name": "J\u00f3zsef Attila",
            "kind": "utca",
            "post_code": 0
        },
        {
            "name": "K\u00e1lvin",
            "kind": "utca",
            "post_code": 0
        },
        {
            "name": "Katona J\u00f3zsef",
            "kind": "utca",
            "post_code": 0
        },
        {
            "name": "Kert",
            "kind": "utca",
            "post_code": 0
        },
        {
            "name": "Kinizsi",
            "kind": "utca",
            "post_code": 0
        },
        {
            "name": "Kisfaludy",
            "kind": "utca",
            "post_code": 0
        },
        {
            "name": "Kiss Ern\u0151",
            "kind": "utca",
            "post_code": 0
        },
        {
            "name": "Klapka",
            "kind": "utca",
            "post_code": 0
        },
        {
            "name": "Kod\u00e1ly Zolt\u00e1n",
            "kind": "utca",
            "post_code": 0
        },
        {
            "name": "K\u00f6lcsey Ferenc",
            "kind": "utca",
            "post_code": 0
        },
        {
            "name": "Kond vez\u00e9r",
            "kind": "\u00fatja",
            "post_code": 0
        },
        {
            "name": "K\u00f3rh\u00e1z",
            "kind": "utca",
            "post_code": 0
        },
        {
            "name": "K\u00f6r",
            "kind": "utca",
            "post_code": 0
        },
        {
            "name": "Kossuth Lajos",
            "kind": "\u00fat",
            "post_code": 0
        },
        {
            "name": "Kossuth L\u00e1szl\u00f3",
            "kind": "k\u00f6z",
            "post_code": 0
        },
        {
            "name": "Kossuth L\u00e1szl\u00f3",
            "kind": "utca",
            "post_code": 0
        },
        {
            "name": "K\u00f6zt\u00e1rsas\u00e1g",
            "kind": "utca",
            "post_code": 0
        },
        {
            "name": "Kun",
            "kind": "utca",
            "post_code": 0
        },
        {
            "name": "Lakatos Dr.",
            "kind": "utca",
            "post_code": 0
        },
        {
            "name": "Lakos J\u00e1nos",
            "kind": "utca",
            "post_code": 0
        },
        {
            "name": "L\u00e1p",
            "kind": "utca",
            "post_code": 0
        },
        {
            "name": "Lev\u00e9l",
            "kind": "utca",
            "post_code": 0
        },
        {
            "name": "Lindmajer",
            "kind": "utca",
            "post_code": 0
        },
        {
            "name": "Liszt Ferenc",
            "kind": "utca",
            "post_code": 0
        },
        {
            "name": "Luther",
            "kind": "utca",
            "post_code": 0
        },
        {
            "name": "Mad\u00e1ch Imre",
            "kind": "utca",
            "post_code": 0
        },
        {
            "name": "M\u00e1dencia",
            "kind": "k\u00f6z",
            "post_code": 0
        },
        {
            "name": "M\u00e1dencia",
            "kind": "utca",
            "post_code": 0
        },
        {
            "name": "M\u00e1jus 1.",
            "kind": "utca",
            "post_code": 0
        },
        {
            "name": "Malom",
            "kind": "utca",
            "post_code": 0
        },
        {
            "name": "M\u00e1nteleki",
            "kind": "\u00fat",
            "post_code": 0
        },
        {
            "name": "M\u00e1nteleki",
            "kind": "utca",
            "post_code": 0
        },
        {
            "name": "Martinovics",
            "kind": "k\u00f6z",
            "post_code": 0
        },
        {
            "name": "Martinovics",
            "kind": "t\u00e9r",
            "post_code": 0
        },
        {
            "name": "Martinovics",
            "kind": "utca",
            "post_code": 0
        },
        {
            "name": "Meder",
            "kind": "utca",
            "post_code": 0
        },
        {
            "name": "Mester",
            "kind": "utca",
            "post_code": 0
        },
        {
            "name": "Mikes Kelemen",
            "kind": "utca",
            "post_code": 0
        },
        {
            "name": "Mogyor\u00f3",
            "kind": "k\u00f6z",
            "post_code": 0
        },
        {
            "name": "M\u00f3ra Ferenc",
            "kind": "utca",
            "post_code": 0
        },
        {
            "name": "Motel",
            "kind": "utca",
            "post_code": 0
        },
        {
            "name": "N\u00e1d",
            "kind": "utca",
            "post_code": 0
        },
        {
            "name": "Nap",
            "kind": "utca",
            "post_code": 0
        },
        {
            "name": "N\u00e1rcisz",
            "kind": "utca",
            "post_code": 0
        },
        {
            "name": "Nefelejcs",
            "kind": "utca",
            "post_code": 0
        },
        {
            "name": "Nemzet\u0151r",
            "kind": "utca",
            "post_code": 0
        },
        {
            "name": "N\u00e9vtelen",
            "kind": "\u00fat",
            "post_code": 0
        },
        {
            "name": "Ny\u00e1rfasor",
            "kind": "utca",
            "post_code": 0
        },
        {
            "name": "Ny\u00e1r",
            "kind": "utca",
            "post_code": 0
        },
        {
            "name": "Ond vez\u00e9r",
            "kind": "\u00fatja",
            "post_code": 0
        },
        {
            "name": "\u00d6regorsz\u00e1g\u00fat",
            "kind": "",
            "post_code": 0
        },
        {
            "name": "\u00d6rk\u00e9nyi",
            "kind": "\u00fat",
            "post_code": 0
        },
        {
            "name": "\u0150sz",
            "kind": "utca",
            "post_code": 0
        },
        {
            "name": "\u00d3voda",
            "kind": "utca",
            "post_code": 0
        },
        {
            "name": "P\u00e1lya",
            "kind": "utca",
            "post_code": 0
        },
        {
            "name": "Park",
            "kind": "utca",
            "post_code": 0
        },
        {
            "name": "Pasa",
            "kind": "k\u00f6z",
            "post_code": 0
        },
        {
            "name": "Patak",
            "kind": "k\u00f6z",
            "post_code": 0
        },
        {
            "name": "Patak",
            "kind": "utca",
            "post_code": 0
        },
        {
            "name": "Pet\u0151fi S\u00e1ndor",
            "kind": "utca",
            "post_code": 0
        },
        {
            "name": "Piac",
            "kind": "t\u00e9r",
            "post_code": 0
        },
        {
            "name": "Pillang\u00f3",
            "kind": "utca",
            "post_code": 0
        },
        {
            "name": "Pipacs",
            "kind": "utca",
            "post_code": 0
        },
        {
            "name": "Rab\u00e1rerd\u0151",
            "kind": "\u00fat",
            "post_code": 0
        },
        {
            "name": "R\u00e1k\u00f3czi",
            "kind": "k\u00f6z",
            "post_code": 0
        },
        {
            "name": "R\u00e1k\u00f3czi",
            "kind": "utca",
            "post_code": 0
        },
        {
            "name": "Ravasz L\u00e1szl\u00f3",
            "kind": "\u00fat",
            "post_code": 0
        },
        {
            "name": "Ravasz L\u00e1szl\u00f3",
            "kind": "utca",
            "post_code": 0
        },
        {
            "name": "R\u00e9t",
            "kind": "utca",
            "post_code": 0
        },
        {
            "name": "R\u00f6vid",
            "kind": "utca",
            "post_code": 0
        },
        {
            "name": "Rozmaring",
            "kind": "utca",
            "post_code": 0
        },
        {
            "name": "R\u00f3zsa",
            "kind": "utca",
            "post_code": 0
        },
        {
            "name": "Segesv\u00e1ri",
            "kind": "\u00fat",
            "post_code": 0
        },
        {
            "name": "Semmelweis",
            "kind": "utca",
            "post_code": 0
        },
        {
            "name": "Szabads\u00e1g",
            "kind": "t\u00e9r",
            "post_code": 0
        },
        {
            "name": "Szabads\u00e1g",
            "kind": "\u00fat",
            "post_code": 0
        },
        {
            "name": "Szamos",
            "kind": "utca",
            "post_code": 0
        },
        {
            "name": "Sz\u00e9chenyi",
            "kind": "utca",
            "post_code": 0
        },
        {
            "name": "Sz\u00e9kely",
            "kind": "k\u00f6z",
            "post_code": 0
        },
        {
            "name": "Sz\u00e9lmalom",
            "kind": "utca",
            "post_code": 0
        },
        {
            "name": "Szendrei J\u00falia",
            "kind": "utca",
            "post_code": 0
        },
        {
            "name": "Szent Istv\u00e1n",
            "kind": "t\u00e9r",
            "post_code": 0
        },
        {
            "name": "Szent Istv\u00e1n",
            "kind": "\u00fat",
            "post_code": 0
        },
        {
            "name": "Szent J\u00e1nos",
            "kind": "\u00fat",
            "post_code": 0
        },
        {
            "name": "Sz\u00e9p",
            "kind": "utca",
            "post_code": 0
        },
        {
            "name": "Szintes",
            "kind": "utca",
            "post_code": 0
        },
        {
            "name": "Szir\u00e1ki P\u00e1l",
            "kind": "utca",
            "post_code": 0
        },
        {
            "name": "Sz\u00edv",
            "kind": "utca",
            "post_code": 0
        },
        {
            "name": "Sz\u0151l\u0151",
            "kind": "k\u00f6z",
            "post_code": 0
        },
        {
            "name": "Sz\u0151l\u0151",
            "kind": "utca",
            "post_code": 0
        },
        {
            "name": "Sz\u0171k",
            "kind": "utca",
            "post_code": 0
        },
        {
            "name": "Tab\u00e1ni",
            "kind": "\u00fat",
            "post_code": 0
        },
        {
            "name": "T\u00e1ncsics Mih\u00e1ly",
            "kind": "utca",
            "post_code": 0
        },
        {
            "name": "Tas vez\u00e9r",
            "kind": "\u00fatja",
            "post_code": 0
        },
        {
            "name": "Tat\u00e1rszentgy\u00f6rgyi",
            "kind": "\u00fat",
            "post_code": 0
        },
        {
            "name": "Tavasz",
            "kind": "utca",
            "post_code": 0
        },
        {
            "name": "Telep",
            "kind": "utca",
            "post_code": 0
        },
        {
            "name": "T\u00e9l",
            "kind": "utca",
            "post_code": 0
        },
        {
            "name": "Temet\u0151",
            "kind": "utca",
            "post_code": 0
        },
        {
            "name": "Templom",
            "kind": "utca",
            "post_code": 0
        },
        {
            "name": "Tin\u00f3di",
            "kind": "utca",
            "post_code": 0
        },
        {
            "name": "Toldi Mikl\u00f3s",
            "kind": "\u00fat",
            "post_code": 0
        },
        {
            "name": "Toldi Mikl\u00f3s",
            "kind": "utca",
            "post_code": 0
        },
        {
            "name": "T\u00f6lgyfa",
            "kind": "utca",
            "post_code": 0
        },
        {
            "name": "T\u00fccs\u00f6k",
            "kind": "utca",
            "post_code": 0
        },
        {
            "name": "Tulip\u00e1n",
            "kind": "utca",
            "post_code": 0
        },
        {
            "name": "\u00daj",
            "kind": "utca",
            "post_code": 0
        },
        {
            "name": "Vacsi",
            "kind": "\u00fat",
            "post_code": 0
        },
        {
            "name": "V\u00e1g\u00f3h\u00edd",
            "kind": "utca",
            "post_code": 0
        },
        {
            "name": "Vajda",
            "kind": "utca",
            "post_code": 0
        },
        {
            "name": "Vak Botty\u00e1n",
            "kind": "utca",
            "post_code": 0
        },
        {
            "name": "V\u00e1s\u00e1rt\u00e9r",
            "kind": "utca",
            "post_code": 0
        },
        {
            "name": "Vas",
            "kind": "\u00fat",
            "post_code": 0
        },
        {
            "name": "Vas\u00fat",
            "kind": "utca",
            "post_code": 0
        },
        {
            "name": "Vay P\u00e9ter",
            "kind": "k\u00f6z",
            "post_code": 0
        },
        {
            "name": "Venyige",
            "kind": "utca",
            "post_code": 0
        },
        {
            "name": "V\u00e9rtan\u00fak",
            "kind": "\u00fatja",
            "post_code": 0
        },
        {
            "name": "Viola",
            "kind": "utca",
            "post_code": 0
        },
        {
            "name": "Vir\u00e1g",
            "kind": "utca",
            "post_code": 0
        },
        {
            "name": "Vonat",
            "kind": "utca",
            "post_code": 0
        },
        {
            "name": "V\u00f6r\u00f6smarty",
            "kind": "utca",
            "post_code": 0
        },
        {
            "name": "Wessel\u00e9nyi",
            "kind": "utca",
            "post_code": 0
        },
        {
            "name": "Z\u00e1por",
            "kind": "utca",
            "post_code": 0
        },
        {
            "name": "Zeng\u0151",
            "kind": "utca",
            "post_code": 0
        },
        {
            "name": "Zentai",
            "kind": "utca",
            "post_code": 0
        },
        {
            "name": "Zlinszky",
            "kind": "k\u00f6z",
            "post_code": 0
        },
        {
            "name": "Zlinszky",
            "kind": "utca",
            "post_code": 0
        },
        {
            "name": "Z\u00f6ldmez\u0151",
            "kind": "utca",
            "post_code": 0
        },
        {
            "name": "Zr\u00ednyi Mikl\u00f3s",
            "kind": "k\u00f6z",
            "post_code": 0
        },
        {
            "name": "Zr\u00ednyi Mikl\u00f3s",
            "kind": "utca",
            "post_code": 0
        },
        {
            "name": "Zs\u00e1k",
            "kind": "utca",
            "post_code": 0
        }
    ]
}