{
    "codes": {
        "7144": [
            "Decs",
            null
        ]
    },
    "streets": [
        {
            "name": "Ady Endre",
            "kind": "utca",
            "post_code": 0
        },
        {
            "name": "Alkotm\u00e1ny",
            "kind": "utca",
            "post_code": 0
        },
        {
            "name": "Arany J\u00e1nos",
            "kind": "utca",
            "post_code": 0
        },
        {
            "name": "B\u00e9lyei Tam\u00e1s",
            "kind": "utca",
            "post_code": 0
        },
        {
            "name": "Bem Ap\u00f3",
            "kind": "utca",
            "post_code": 0
        },
        {
            "name": "Damjanich",
            "kind": "utca",
            "post_code": 0
        },
        {
            "name": "Duna",
            "kind": "utca",
            "post_code": 0
        },
        {
            "name": "Ete",
            "kind": "utca",
            "post_code": 0
        },
        {
            "name": "F\u0151",
            "kind": "utca",
            "post_code": 0
        },
        {
            "name": "Garay",
            "kind": "utca",
            "post_code": 0
        },
        {
            "name": "G\u00e1rdonyi G\u00e9za",
            "kind": "utca",
            "post_code": 0
        },
        {
            "name": "G\u00f6r\u00f6gsz\u00f3",
            "kind": "",
            "post_code": 0
        },
        {
            "name": "Halad\u00e1s",
            "kind": "utca",
            "post_code": 0
        },
        {
            "name": "H\u00e1rsfa",
            "kind": "utca",
            "post_code": 0
        },
        {
            "name": "Hunyadi M\u00e1ty\u00e1s",
            "kind": "utca",
            "post_code": 0
        },
        {
            "name": "M\u00e1jus 1.",
            "kind": "utca",
            "post_code": 0
        },
        {
            "name": "M\u00f3ricz Zsigmond",
            "kind": "utca",
            "post_code": 0
        },
        {
            "name": "\u0150cs\u00e9nyi",
            "kind": "utca",
            "post_code": 0
        },
        {
            "name": "\u00d6reg",
            "kind": "utca",
            "post_code": 0
        },
        {
            "name": "R\u00e1k\u00f3czi Ferenc",
            "kind": "utca",
            "post_code": 0
        },
        {
            "name": "Sz\u00e9chenyi",
            "kind": "utca",
            "post_code": 0
        },
        {
            "name": "Sz\u00e9ll Judit",
            "kind": "utca",
            "post_code": 0
        },
        {
            "name": "Sz\u0151l\u0151hegyi",
            "kind": "utca",
            "post_code": 0
        },
        {
            "name": "Sz\u00f6vetkezeti",
            "kind": "utca",
            "post_code": 0
        },
        {
            "name": "Terv",
            "kind": "utca",
            "post_code": 0
        }
    ]
}