{
    "codes": {
        "2330": [
            "Dunaharaszti",
            null
        ]
    },
    "streets": [
        {
            "name": "Ady Endre",
            "kind": "utca",
            "post_code": 0
        },
        {
            "name": "Agoraszt\u00f3 Tivadar",
            "kind": "utca",
            "post_code": 0
        },
        {
            "name": "\u00c1g",
            "kind": "utca",
            "post_code": 0
        },
        {
            "name": "Ak\u00e1cfa",
            "kind": "utca",
            "post_code": 0
        },
        {
            "name": "Alkotm\u00e1ny",
            "kind": "utca",
            "post_code": 0
        },
        {
            "name": "Als\u00f3-Duna",
            "kind": "sor",
            "post_code": 0
        },
        {
            "name": "Andr\u00e1ssy Gyula",
            "kind": "utca",
            "post_code": 0
        },
        {
            "name": "Andr\u00e1ssy",
            "kind": "parkol\u00f3",
            "post_code": 0
        },
        {
            "name": "Apponyi Albert",
            "kind": "utca",
            "post_code": 0
        },
        {
            "name": "Arany J\u00e1nos",
            "kind": "utca",
            "post_code": 0
        },
        {
            "name": "\u00c1rnyas",
            "kind": "utca",
            "post_code": 0
        },
        {
            "name": "\u00c1rok",
            "kind": "utca",
            "post_code": 0
        },
        {
            "name": "\u00c1rp\u00e1d",
            "kind": "utca",
            "post_code": 0
        },
        {
            "name": "Attila",
            "kind": "utca",
            "post_code": 0
        },
        {
            "name": "Avar",
            "kind": "k\u00f6z",
            "post_code": 0
        },
        {
            "name": "Avar",
            "kind": "utca",
            "post_code": 0
        },
        {
            "name": "B\u00e1bakal\u00e1cs",
            "kind": "utca",
            "post_code": 0
        },
        {
            "name": "Babits",
            "kind": "k\u00f6z",
            "post_code": 0
        },
        {
            "name": "Babits Mih\u00e1ly",
            "kind": "utca",
            "post_code": 0
        },
        {
            "name": "Baktay Ervin",
            "kind": "t\u00e9r",
            "post_code": 0
        },
        {
            "name": "Baktay Ervin",
            "kind": "utca",
            "post_code": 0
        },
        {
            "name": "B\u00e1nki Don\u00e1t",
            "kind": "utca",
            "post_code": 0
        },
        {
            "name": "Baradlay J\u00e1nos",
            "kind": "utca",
            "post_code": 0
        },
        {
            "name": "Barka",
            "kind": "utca",
            "post_code": 0
        },
        {
            "name": "Baross",
            "kind": "utca",
            "post_code": 0
        },
        {
            "name": "Bartal Antal",
            "kind": "utca",
            "post_code": 0
        },
        {
            "name": "Bart\u00f3k B\u00e9la",
            "kind": "utca",
            "post_code": 0
        },
        {
            "name": "B\u00e1thory",
            "kind": "utca",
            "post_code": 0
        },
        {
            "name": "Batthy\u00e1ny",
            "kind": "utca",
            "post_code": 0
        },
        {
            "name": "Bem J\u00f3zsef",
            "kind": "utca",
            "post_code": 0
        },
        {
            "name": "Bercs\u00e9nyi",
            "kind": "utca",
            "post_code": 0
        },
        {
            "name": "Bethlen G\u00e1bor",
            "kind": "utca",
            "post_code": 0
        },
        {
            "name": "Bezer\u00e9di",
            "kind": "utca",
            "post_code": 0
        },
        {
            "name": "Bl\u00e1thy Ott\u00f3",
            "kind": "utca",
            "post_code": 0
        },
        {
            "name": "Bocskai",
            "kind": "utca",
            "post_code": 0
        },
        {
            "name": "Bolyai",
            "kind": "utca",
            "post_code": 0
        },
        {
            "name": "Bor\u00f3ka",
            "kind": "utca",
            "post_code": 0
        },
        {
            "name": "Botond",
            "kind": "utca",
            "post_code": 0
        },
        {
            "name": "B\u00fazavir\u00e1g",
            "kind": "sor",
            "post_code": 0
        },
        {
            "name": "Cickafark",
            "kind": "utca",
            "post_code": 0
        },
        {
            "name": "Coca Cola munk\u00e1sainak",
            "kind": "\u00fatja",
            "post_code": 0
        },
        {
            "name": "Cs\u00e1rda",
            "kind": "sor",
            "post_code": 0
        },
        {
            "name": "Csatorna",
            "kind": "sor",
            "post_code": 0
        },
        {
            "name": "Csendes",
            "kind": "utca",
            "post_code": 0
        },
        {
            "name": "Csengeri",
            "kind": "utca",
            "post_code": 0
        },
        {
            "name": "Csillag",
            "kind": "k\u00f6z",
            "post_code": 0
        },
        {
            "name": "Csillag",
            "kind": "utca",
            "post_code": 0
        },
        {
            "name": "Cs\u00f3k Istv\u00e1n",
            "kind": "utca",
            "post_code": 0
        },
        {
            "name": "Csokonai",
            "kind": "utca",
            "post_code": 0
        },
        {
            "name": "Cs\u00f3nak",
            "kind": "utca",
            "post_code": 0
        },
        {
            "name": "Csonka J\u00e1nos",
            "kind": "utca",
            "post_code": 0
        },
        {
            "name": "Csontv\u00e1ri",
            "kind": "utca",
            "post_code": 0
        },
        {
            "name": "Damjanich",
            "kind": "utca",
            "post_code": 0
        },
        {
            "name": "Dank\u00f3 Pista",
            "kind": "utca",
            "post_code": 0
        },
        {
            "name": "D\u00e1rda",
            "kind": "utca",
            "post_code": 0
        },
        {
            "name": "De\u00e1k Ferenc",
            "kind": "utca",
            "post_code": 0
        },
        {
            "name": "Dembinszky",
            "kind": "utca",
            "post_code": 0
        },
        {
            "name": "D\u00e9ri Miksa",
            "kind": "utca",
            "post_code": 0
        },
        {
            "name": "Di\u00f3fa",
            "kind": "utca",
            "post_code": 0
        },
        {
            "name": "Dob\u00f3 Istv\u00e1n",
            "kind": "utca",
            "post_code": 0
        },
        {
            "name": "Domb",
            "kind": "utca",
            "post_code": 0
        },
        {
            "name": "D\u00f3zsa Gy\u00f6rgy",
            "kind": "utca",
            "post_code": 0
        },
        {
            "name": "Dr. Posta S\u00e1ndor",
            "kind": "utca",
            "post_code": 0
        },
        {
            "name": "Duna",
            "kind": "k\u00f6z",
            "post_code": 0
        },
        {
            "name": "Duna",
            "kind": "s\u00e9t\u00e1ny",
            "post_code": 0
        },
        {
            "name": "Duna",
            "kind": "utca",
            "post_code": 0
        },
        {
            "name": "\u00c9gerfa",
            "kind": "utca",
            "post_code": 0
        },
        {
            "name": "Egry J\u00f3zsef",
            "kind": "utca",
            "post_code": 0
        },
        {
            "name": "E\u00f6tv\u00f6s",
            "kind": "k\u00f6z",
            "post_code": 0
        },
        {
            "name": "E\u00f6tv\u00f6s",
            "kind": "utca",
            "post_code": 0
        },
        {
            "name": "Erd\u0151",
            "kind": "k\u00f6z",
            "post_code": 0
        },
        {
            "name": "Erd\u0151",
            "kind": "sor",
            "post_code": 0
        },
        {
            "name": "Erd\u0151sz\u00e9l",
            "kind": "utca",
            "post_code": 0
        },
        {
            "name": "\u00c9rme",
            "kind": "utca",
            "post_code": 0
        },
        {
            "name": "Erzs\u00e9bet",
            "kind": "utca",
            "post_code": 0
        },
        {
            "name": "Evez\u0151s",
            "kind": "utca",
            "post_code": 0
        },
        {
            "name": "Fat\u00f6rzs",
            "kind": "utca",
            "post_code": 0
        },
        {
            "name": "Fecskef\u0171",
            "kind": "utca",
            "post_code": 0
        },
        {
            "name": "Fels\u0151-Duna",
            "kind": "sor",
            "post_code": 0
        },
        {
            "name": "Fels\u0151 Duna",
            "kind": "utca",
            "post_code": 0
        },
        {
            "name": "Festetich",
            "kind": "utca",
            "post_code": 0
        },
        {
            "name": "Fest\u0151",
            "kind": "utca",
            "post_code": 0
        },
        {
            "name": "F\u00e9szek",
            "kind": "utca",
            "post_code": 0
        },
        {
            "name": "F\u00f6ldv\u00e1ry",
            "kind": "utca",
            "post_code": 0
        },
        {
            "name": "F\u0151",
            "kind": "\u00fat",
            "post_code": 0
        },
        {
            "name": "F\u0171zfa",
            "kind": "utca",
            "post_code": 0
        },
        {
            "name": "G\u00e1bor \u00c1ron",
            "kind": "utca",
            "post_code": 0
        },
        {
            "name": "Ganz \u00c1brah\u00e1m",
            "kind": "utca",
            "post_code": 0
        },
        {
            "name": "G\u00e1rdonyi",
            "kind": "utca",
            "post_code": 0
        },
        {
            "name": "Golgota",
            "kind": "t\u00e9r",
            "post_code": 0
        },
        {
            "name": "Golgota",
            "kind": "utca",
            "post_code": 0
        },
        {
            "name": "G\u00f3lya",
            "kind": "utca",
            "post_code": 0
        },
        {
            "name": "Gomba",
            "kind": "utca",
            "post_code": 0
        },
        {
            "name": "Gy\u00e1rk\u00f6z",
            "kind": "utca",
            "post_code": 0
        },
        {
            "name": "Gyep",
            "kind": "utca",
            "post_code": 0
        },
        {
            "name": "Gy\u00f6k\u00e9r",
            "kind": "utca",
            "post_code": 0
        },
        {
            "name": "Gy\u00f6ngyvir\u00e1g",
            "kind": "utca",
            "post_code": 0
        },
        {
            "name": "Gy\u00f3ni G\u00e9za",
            "kind": "",
            "post_code": 0
        },
        {
            "name": "Gy\u00f3ni G\u00e9za",
            "kind": "k\u00f6z",
            "post_code": 0
        },
        {
            "name": "Hajnal",
            "kind": "utca",
            "post_code": 0
        },
        {
            "name": "H\u00e1ncs",
            "kind": "utca",
            "post_code": 0
        },
        {
            "name": "Haraszthy Ferenc",
            "kind": "utca",
            "post_code": 0
        },
        {
            "name": "Hat\u00e1r",
            "kind": "\u00fat",
            "post_code": 0
        },
        {
            "name": "Havasi",
            "kind": "utca",
            "post_code": 0
        },
        {
            "name": "H\u00c9V",
            "kind": "s\u00e9t\u00e1ny",
            "post_code": 0
        },
        {
            "name": "H\u00f3kony",
            "kind": "sor",
            "post_code": 0
        },
        {
            "name": "Hold",
            "kind": "utca",
            "post_code": 0
        },
        {
            "name": "Holtsy P\u00e1l",
            "kind": "utca",
            "post_code": 0
        },
        {
            "name": "Homokt\u00f6vis",
            "kind": "utca",
            "post_code": 0
        },
        {
            "name": "Homok",
            "kind": "utca",
            "post_code": 0
        },
        {
            "name": "Honv\u00e9d",
            "kind": "utca",
            "post_code": 0
        },
        {
            "name": "H\u0151s\u00f6k",
            "kind": "tere",
            "post_code": 0
        },
        {
            "name": "Hubay Jen\u0151",
            "kind": "utca",
            "post_code": 0
        },
        {
            "name": "Hunyadi J\u00e1nos",
            "kind": "utca",
            "post_code": 0
        },
        {
            "name": "Ibolya",
            "kind": "utca",
            "post_code": 0
        },
        {
            "name": "Iparos",
            "kind": "utca",
            "post_code": 0
        },
        {
            "name": "Irinyi J\u00e1nos",
            "kind": "utca",
            "post_code": 0
        },
        {
            "name": "Jedlik \u00c1nyos",
            "kind": "\u00fat",
            "post_code": 0
        },
        {
            "name": "Jendrassik Gy\u00f6rgy",
            "kind": "utca",
            "post_code": 0
        },
        {
            "name": "J\u00f3kai",
            "kind": "k\u00f6z",
            "post_code": 0
        },
        {
            "name": "J\u00f3kai M\u00f3r",
            "kind": "utca",
            "post_code": 0
        },
        {
            "name": "J\u00f3zsef Attila",
            "kind": "utca",
            "post_code": 0
        },
        {
            "name": "Kamilla",
            "kind": "utca",
            "post_code": 0
        },
        {
            "name": "Kand\u00f3 K\u00e1lm\u00e1n",
            "kind": "utca",
            "post_code": 0
        },
        {
            "name": "Kankalin",
            "kind": "utca",
            "post_code": 0
        },
        {
            "name": "Karinthy Frigyes",
            "kind": "utca",
            "post_code": 0
        },
        {
            "name": "K\u00e1rolyi Mih\u00e1ly",
            "kind": "utca",
            "post_code": 0
        },
        {
            "name": "Kass\u00e1k Lajos",
            "kind": "utca",
            "post_code": 0
        },
        {
            "name": "Kaszala K\u00e1roly",
            "kind": "utca",
            "post_code": 0
        },
        {
            "name": "Kazinczy Ferenc",
            "kind": "k\u00f6z",
            "post_code": 0
        },
        {
            "name": "Kazinczy Ferenc",
            "kind": "utca",
            "post_code": 0
        },
        {
            "name": "Kengyel",
            "kind": "k\u00f6z",
            "post_code": 0
        },
        {
            "name": "Kengyel",
            "kind": "utca",
            "post_code": 0
        },
        {
            "name": "Kerkai Jen\u0151",
            "kind": "park",
            "post_code": 0
        },
        {
            "name": "Kikelet",
            "kind": "utca",
            "post_code": 0
        },
        {
            "name": "Kik\u00f6t\u0151",
            "kind": "s\u00e9t\u00e1ny",
            "post_code": 0
        },
        {
            "name": "Kinizsi",
            "kind": "lak\u00f3telep",
            "post_code": 0
        },
        {
            "name": "Kinizsi",
            "kind": "utca",
            "post_code": 0
        },
        {
            "name": "Kir\u00e1ly",
            "kind": "k\u00f6z",
            "post_code": 0
        },
        {
            "name": "Kir\u00e1ly",
            "kind": "utca",
            "post_code": 0
        },
        {
            "name": "Kisfaludy K\u00e1roly",
            "kind": "utca",
            "post_code": 0
        },
        {
            "name": "Kiss Ern\u0151",
            "kind": "utca",
            "post_code": 0
        },
        {
            "name": "Klapka Gy\u00f6rgy",
            "kind": "utca",
            "post_code": 0
        },
        {
            "name": "Klauz\u00e1l",
            "kind": "utca",
            "post_code": 0
        },
        {
            "name": "Kn\u00e9zich",
            "kind": "utca",
            "post_code": 0
        },
        {
            "name": "K\u00f3csag",
            "kind": "utca",
            "post_code": 0
        },
        {
            "name": "Kod\u00e1ly Zolt\u00e1n",
            "kind": "utca",
            "post_code": 0
        },
        {
            "name": "K\u00f6lcsey",
            "kind": "utca",
            "post_code": 0
        },
        {
            "name": "K\u0151risfa",
            "kind": "utca",
            "post_code": 0
        },
        {
            "name": "K\u0151r\u00f6si Csoma S\u00e1ndor",
            "kind": "utca",
            "post_code": 0
        },
        {
            "name": "K\u00f3s K\u00e1roly",
            "kind": "utca",
            "post_code": 0
        },
        {
            "name": "Kossuth Lajos",
            "kind": "utca",
            "post_code": 0
        },
        {
            "name": "Las Torres",
            "kind": "utca",
            "post_code": 0
        },
        {
            "name": "Lechman kapit\u00e1ny",
            "kind": "utca",
            "post_code": 0
        },
        {
            "name": "Lehel",
            "kind": "k\u00f6z",
            "post_code": 0
        },
        {
            "name": "Lenvir\u00e1g",
            "kind": "utca",
            "post_code": 0
        },
        {
            "name": "Lev\u00e9l",
            "kind": "utca",
            "post_code": 0
        },
        {
            "name": "Levendula",
            "kind": "utca",
            "post_code": 0
        },
        {
            "name": "Lilaak\u00e1c",
            "kind": "k\u00f6z",
            "post_code": 0
        },
        {
            "name": "Liszt Ferenc",
            "kind": "utca",
            "post_code": 0
        },
        {
            "name": "Lomb",
            "kind": "utca",
            "post_code": 0
        },
        {
            "name": "L\u00f3nyai",
            "kind": "utca",
            "post_code": 0
        },
        {
            "name": "Lovas",
            "kind": "utca",
            "post_code": 0
        },
        {
            "name": "Magyar",
            "kind": "utca",
            "post_code": 0
        },
        {
            "name": "M\u00e1lyva",
            "kind": "utca",
            "post_code": 0
        },
        {
            "name": "Mandula",
            "kind": "utca",
            "post_code": 0
        },
        {
            "name": "M\u00e1rton \u00c1ron",
            "kind": "utca",
            "post_code": 0
        },
        {
            "name": "M\u00e1ty\u00e1s kir\u00e1ly",
            "kind": "utca",
            "post_code": 0
        },
        {
            "name": "M\u00c1V-als\u00f3",
            "kind": "utca",
            "post_code": 0
        },
        {
            "name": "Mechwart Andr\u00e1s",
            "kind": "utca",
            "post_code": 0
        },
        {
            "name": "Mikl\u00f3s",
            "kind": "sor",
            "post_code": 0
        },
        {
            "name": "Miksz\u00e1th",
            "kind": "k\u00f6z",
            "post_code": 0
        },
        {
            "name": "Millenniumi",
            "kind": "utca",
            "post_code": 0
        },
        {
            "name": "Mindszenty",
            "kind": "utca",
            "post_code": 0
        },
        {
            "name": "M\u00f3ra Ferenc",
            "kind": "utca",
            "post_code": 0
        },
        {
            "name": "M\u00f3ricz Zsigmond",
            "kind": "utca",
            "post_code": 0
        },
        {
            "name": "Munk\u00e1csy Mih\u00e1ly",
            "kind": "utca",
            "post_code": 0
        },
        {
            "name": "N\u00e1dor",
            "kind": "utca",
            "post_code": 0
        },
        {
            "name": "Nagy Lajos",
            "kind": "utca",
            "post_code": 0
        },
        {
            "name": "Napsug\u00e1r",
            "kind": "utca",
            "post_code": 0
        },
        {
            "name": "Nefelejcs",
            "kind": "utca",
            "post_code": 0
        },
        {
            "name": "N\u00e9medi",
            "kind": "\u00fat",
            "post_code": 0
        },
        {
            "name": "Ny\u00e1rfa",
            "kind": "utca",
            "post_code": 0
        },
        {
            "name": "Nyereg",
            "kind": "utca",
            "post_code": 0
        },
        {
            "name": "Ny\u00faldomb",
            "kind": "utca",
            "post_code": 0
        },
        {
            "name": "Orgona",
            "kind": "utca",
            "post_code": 0
        },
        {
            "name": "\u0150rtorony",
            "kind": "utca",
            "post_code": 0
        },
        {
            "name": "Pa\u00e1l L\u00e1szl\u00f3",
            "kind": "utca",
            "post_code": 0
        },
        {
            "name": "Pann\u00f3nia",
            "kind": "utca",
            "post_code": 0
        },
        {
            "name": "P\u00e1zm\u00e1ny P\u00e9ter",
            "kind": "utca",
            "post_code": 0
        },
        {
            "name": "Pet\u0151fi S\u00e1ndor utca 5\/A",
            "kind": "",
            "post_code": 0
        },
        {
            "name": "Pillang\u00f3",
            "kind": "k\u00f6z",
            "post_code": 0
        },
        {
            "name": "Pillang\u00f3",
            "kind": "utca",
            "post_code": 0
        },
        {
            "name": "Pipacs",
            "kind": "utca",
            "post_code": 0
        },
        {
            "name": "Pitypang",
            "kind": "utca",
            "post_code": 0
        },
        {
            "name": "Ponty",
            "kind": "k\u00f6z",
            "post_code": 0
        },
        {
            "name": "Ponty",
            "kind": "utca",
            "post_code": 0
        },
        {
            "name": "Pusk\u00e1s Tivadar",
            "kind": "utca",
            "post_code": 0
        },
        {
            "name": "R\u00e1ckevei Duna\u00e1g h\u00edd",
            "kind": "",
            "post_code": 0
        },
        {
            "name": "R\u00e1day",
            "kind": "utca",
            "post_code": 0
        },
        {
            "name": "Rajkovits K\u00e1roly",
            "kind": "utca",
            "post_code": 0
        },
        {
            "name": "R\u00e1k\u00f3czi",
            "kind": "utca",
            "post_code": 0
        },
        {
            "name": "Rakt\u00e1r",
            "kind": "utca",
            "post_code": 0
        },
        {
            "name": "R\u00f3mai",
            "kind": "utca",
            "post_code": 0
        },
        {
            "name": "R\u00f3nai Gy\u00f6rgy",
            "kind": "utca",
            "post_code": 0
        },
        {
            "name": "Rozmarint",
            "kind": "utca",
            "post_code": 0
        },
        {
            "name": "R\u00f3zsa",
            "kind": "utca",
            "post_code": 0
        },
        {
            "name": "Semmelweis",
            "kind": "utca",
            "post_code": 0
        },
        {
            "name": "Sisak",
            "kind": "utca",
            "post_code": 0
        },
        {
            "name": "Somogyv\u00e1ri Gyula",
            "kind": "utca",
            "post_code": 0
        },
        {
            "name": "Soroks\u00e1ri",
            "kind": "\u00fat",
            "post_code": 0
        },
        {
            "name": "Sport",
            "kind": "k\u00f6z",
            "post_code": 0
        },
        {
            "name": "Sz\u00e9chenyi Istv\u00e1n",
            "kind": "k\u00f6z",
            "post_code": 0
        },
        {
            "name": "Sz\u00e9chenyi Istv\u00e1n",
            "kind": "utca",
            "post_code": 0
        },
        {
            "name": "Szegedi Istv\u00e1n sik\u00e1tor",
            "kind": "",
            "post_code": 0
        },
        {
            "name": "Szek\u00e9r",
            "kind": "utca",
            "post_code": 0
        },
        {
            "name": "Szel\u00e9nyi Alad\u00e1r",
            "kind": "utca",
            "post_code": 0
        },
        {
            "name": "Szent Istv\u00e1n",
            "kind": "utca",
            "post_code": 0
        },
        {
            "name": "Szent L\u00e1szl\u00f3",
            "kind": "utca",
            "post_code": 0
        },
        {
            "name": "Sziget",
            "kind": "utca",
            "post_code": 0
        },
        {
            "name": "Szil\u00e1gyi Erzs\u00e9bet",
            "kind": "utca",
            "post_code": 0
        },
        {
            "name": "Sz\u0151l\u00f6hegy",
            "kind": "utca",
            "post_code": 0
        },
        {
            "name": "Szondi Gy\u00f6rgy",
            "kind": "utca",
            "post_code": 0
        },
        {
            "name": "Taksony",
            "kind": "sor",
            "post_code": 0
        },
        {
            "name": "T\u00e1ncsics Mih\u00e1ly",
            "kind": "utca",
            "post_code": 0
        },
        {
            "name": "Tas vez\u00e9r",
            "kind": "utca",
            "post_code": 0
        },
        {
            "name": "T\u00e1tika",
            "kind": "utca",
            "post_code": 0
        },
        {
            "name": "Tavasz",
            "kind": "utca",
            "post_code": 0
        },
        {
            "name": "Temet\u0151",
            "kind": "utca",
            "post_code": 0
        },
        {
            "name": "Templom",
            "kind": "utca",
            "post_code": 0
        },
        {
            "name": "Th\u00f6k\u00f6ly",
            "kind": "utca",
            "post_code": 0
        },
        {
            "name": "Tin\u00f3di",
            "kind": "utca",
            "post_code": 0
        },
        {
            "name": "T\u00f3k\u00f6z",
            "kind": "utca",
            "post_code": 0
        },
        {
            "name": "Toldi",
            "kind": "utca",
            "post_code": 0
        },
        {
            "name": "Tomori",
            "kind": "utca",
            "post_code": 0
        },
        {
            "name": "Tompa M.",
            "kind": "utca",
            "post_code": 0
        },
        {
            "name": "T\u00f3th \u00c1rp\u00e1d",
            "kind": "utca",
            "post_code": 0
        },
        {
            "name": "Tulip\u00e1n",
            "kind": "t\u00e9r",
            "post_code": 0
        },
        {
            "name": "Turj\u00e1n",
            "kind": "utca",
            "post_code": 0
        },
        {
            "name": "Uzsoki",
            "kind": "k\u00f6z",
            "post_code": 0
        },
        {
            "name": "Uzsoki",
            "kind": "utca",
            "post_code": 0
        },
        {
            "name": "Vadvir\u00e1g",
            "kind": "utca",
            "post_code": 0
        },
        {
            "name": "Varga L\u00e1szl\u00f3",
            "kind": "utca",
            "post_code": 0
        },
        {
            "name": "V\u00e1s\u00e1rhelyi",
            "kind": "k\u00f6z",
            "post_code": 0
        },
        {
            "name": "V\u00e1s\u00e1rhelyi P\u00e1l",
            "kind": "utca",
            "post_code": 0
        },
        {
            "name": "Vas\u00fat",
            "kind": "utca",
            "post_code": 0
        },
        {
            "name": "V\u00e9rcse",
            "kind": "utca",
            "post_code": 0
        },
        {
            "name": "V\u00f6r\u00f6sf\u00f6ld",
            "kind": "utca",
            "post_code": 0
        },
        {
            "name": "V\u00f6r\u00f6smarty Mih\u00e1ly",
            "kind": "utca",
            "post_code": 0
        },
        {
            "name": "Wessel\u00e9nyi",
            "kind": "utca",
            "post_code": 0
        },
        {
            "name": "Z\u00e1goni K\u00e1roly",
            "kind": "utca",
            "post_code": 0
        },
        {
            "name": "Z\u00f6ldfa",
            "kind": "utca",
            "post_code": 0
        },
        {
            "name": "Zr\u00ednyi",
            "kind": "utca",
            "post_code": 0
        },
        {
            "name": "Zs\u00e1lya",
            "kind": "utca",
            "post_code": 0
        }
    ]
}