{
    "codes": {
        "2336": [
            "Dunavars\u00e1ny",
            null
        ]
    },
    "streets": [
        {
            "name": "Ady Endre",
            "kind": "utca",
            "post_code": 0
        },
        {
            "name": "Ak\u00e1cfa",
            "kind": "utca",
            "post_code": 0
        },
        {
            "name": "Alkotm\u00e1ny",
            "kind": "utca",
            "post_code": 0
        },
        {
            "name": "Arany J\u00e1nos",
            "kind": "utca",
            "post_code": 0
        },
        {
            "name": "\u00c1rnyas",
            "kind": "utca",
            "post_code": 0
        },
        {
            "name": "\u00c1rp\u00e1d",
            "kind": "utca",
            "post_code": 0
        },
        {
            "name": "\u00c1rval\u00e1nyhajas",
            "kind": "utca",
            "post_code": 0
        },
        {
            "name": "Attila",
            "kind": "utca",
            "post_code": 0
        },
        {
            "name": "Bajai",
            "kind": "\u00fat",
            "post_code": 0
        },
        {
            "name": "Bajcsy-Zsilinszky",
            "kind": "utca",
            "post_code": 0
        },
        {
            "name": "Bajnok",
            "kind": "utca",
            "post_code": 0
        },
        {
            "name": "B\u00e1nki Don\u00e1t",
            "kind": "utca",
            "post_code": 0
        },
        {
            "name": "Bar\u00e1ts\u00e1g",
            "kind": "utca",
            "post_code": 0
        },
        {
            "name": "Baross",
            "kind": "utca",
            "post_code": 0
        },
        {
            "name": "Bart\u00f3k B\u00e9la",
            "kind": "",
            "post_code": 0
        },
        {
            "name": "B\u00e9ke",
            "kind": "utca",
            "post_code": 0
        },
        {
            "name": "B\u00e9la",
            "kind": "k\u00f6z",
            "post_code": 0
        },
        {
            "name": "Bem",
            "kind": "utca",
            "post_code": 0
        },
        {
            "name": "Bethlen G\u00e1bor",
            "kind": "utca",
            "post_code": 0
        },
        {
            "name": "Bokr\u00e9ta",
            "kind": "utca",
            "post_code": 0
        },
        {
            "name": "B\u00faza",
            "kind": "utca",
            "post_code": 0
        },
        {
            "name": "Csenkesz",
            "kind": "utca",
            "post_code": 0
        },
        {
            "name": "Csermely",
            "kind": "k\u00f6z",
            "post_code": 0
        },
        {
            "name": "Csermely",
            "kind": "utca",
            "post_code": 0
        },
        {
            "name": "Csonka J\u00e1nos",
            "kind": "utca",
            "post_code": 0
        },
        {
            "name": "Csorba Dezs\u0151",
            "kind": "utca",
            "post_code": 0
        },
        {
            "name": "Damjanich",
            "kind": "utca",
            "post_code": 0
        },
        {
            "name": "De\u00e1k Ferenc",
            "kind": "utca",
            "post_code": 0
        },
        {
            "name": "D\u00e9ri Miksa",
            "kind": "utca",
            "post_code": 0
        },
        {
            "name": "Di\u00f3fa",
            "kind": "utca",
            "post_code": 0
        },
        {
            "name": "Domb",
            "kind": "utca",
            "post_code": 0
        },
        {
            "name": "D\u00f3zsa Gy\u00f6rgy",
            "kind": "utca",
            "post_code": 0
        },
        {
            "name": "Duna",
            "kind": "sor",
            "post_code": 0
        },
        {
            "name": "E\u00f6tv\u00f6s",
            "kind": "utca",
            "post_code": 0
        },
        {
            "name": "Epres",
            "kind": "k\u00f6z",
            "post_code": 0
        },
        {
            "name": "Epres",
            "kind": "utca",
            "post_code": 0
        },
        {
            "name": "Erd\u0151alja",
            "kind": "utca",
            "post_code": 0
        },
        {
            "name": "Erkel Ferenc",
            "kind": "utca",
            "post_code": 0
        },
        {
            "name": "Er\u0151spuszta",
            "kind": "",
            "post_code": 0
        },
        {
            "name": "Er\u0151spusztai",
            "kind": "h\u00eddf\u0151",
            "post_code": 0
        },
        {
            "name": "\u00c9r",
            "kind": "utca",
            "post_code": 0
        },
        {
            "name": "Estike",
            "kind": "utca",
            "post_code": 0
        },
        {
            "name": "F\u00e1tyolvir\u00e1g",
            "kind": "utca",
            "post_code": 0
        },
        {
            "name": "Folyam",
            "kind": "utca",
            "post_code": 0
        },
        {
            "name": "Forr\u00e1s",
            "kind": "sor",
            "post_code": 0
        },
        {
            "name": "Forr\u00e1s",
            "kind": "utca",
            "post_code": 0
        },
        {
            "name": "F\u0151",
            "kind": "\u00fat",
            "post_code": 0
        },
        {
            "name": "F\u0151",
            "kind": "utca",
            "post_code": 0
        },
        {
            "name": "Galagonya",
            "kind": "utca",
            "post_code": 0
        },
        {
            "name": "G\u00e1t",
            "kind": "utca",
            "post_code": 0
        },
        {
            "name": "G\u00f6m\u00f6ri Ferenc",
            "kind": "utca",
            "post_code": 0
        },
        {
            "name": "G\u00f6rgey",
            "kind": "utca",
            "post_code": 0
        },
        {
            "name": "Gy\u00f6ngyvir\u00e1g",
            "kind": "utca",
            "post_code": 0
        },
        {
            "name": "Gy\u00f3ni G\u00e9za",
            "kind": "utca",
            "post_code": 0
        },
        {
            "name": "Habitat",
            "kind": "k\u00f6z",
            "post_code": 0
        },
        {
            "name": "Habit\u00e1t",
            "kind": "utca",
            "post_code": 0
        },
        {
            "name": "Hal\u00e1sz Lajosn\u00e9",
            "kind": "utca",
            "post_code": 0
        },
        {
            "name": "Hat\u00e1r",
            "kind": "\u00fat",
            "post_code": 0
        },
        {
            "name": "Homok",
            "kind": "utca",
            "post_code": 0
        },
        {
            "name": "Honv\u00e9d",
            "kind": "utca",
            "post_code": 0
        },
        {
            "name": "H\u0151s\u00f6k",
            "kind": "tere",
            "post_code": 0
        },
        {
            "name": "H\u0151s\u00f6k",
            "kind": "\u00fatja",
            "post_code": 0
        },
        {
            "name": "H\u00f3vir\u00e1g",
            "kind": "utca",
            "post_code": 0
        },
        {
            "name": "Hun",
            "kind": "utca",
            "post_code": 0
        },
        {
            "name": "Ifj\u00fas\u00e1g",
            "kind": "utca",
            "post_code": 0
        },
        {
            "name": "Imola",
            "kind": "utca",
            "post_code": 0
        },
        {
            "name": "Iskola",
            "kind": "utca",
            "post_code": 0
        },
        {
            "name": "J\u00f3kai",
            "kind": "utca",
            "post_code": 0
        },
        {
            "name": "Kand\u00f3 K\u00e1lm\u00e1n",
            "kind": "\u00fat",
            "post_code": 0
        },
        {
            "name": "Kert\u00e9sz",
            "kind": "utca",
            "post_code": 0
        },
        {
            "name": "Kikerics",
            "kind": "k\u00f6z",
            "post_code": 0
        },
        {
            "name": "K\u00f6k\u00e9ny",
            "kind": "k\u00f6z",
            "post_code": 0
        },
        {
            "name": "K\u00f6lcsey Ferenc",
            "kind": "utca",
            "post_code": 0
        },
        {
            "name": "Kolozsv\u00e1ri",
            "kind": "utca",
            "post_code": 0
        },
        {
            "name": "Kossuth Lajos",
            "kind": "utca",
            "post_code": 0
        },
        {
            "name": "Ladik",
            "kind": "utca",
            "post_code": 0
        },
        {
            "name": "Liget",
            "kind": "utca",
            "post_code": 0
        },
        {
            "name": "M\u00e1rtonyi K\u00e1roly",
            "kind": "utca",
            "post_code": 0
        },
        {
            "name": "M\u00e1ty\u00e1s kir\u00e1ly",
            "kind": "utca",
            "post_code": 0
        },
        {
            "name": "M\u00e9csvir\u00e1g",
            "kind": "utca",
            "post_code": 0
        },
        {
            "name": "Meder",
            "kind": "utca",
            "post_code": 0
        },
        {
            "name": "Mormos J\u00f3zsef",
            "kind": "utca",
            "post_code": 0
        },
        {
            "name": "Musk\u00e1tli",
            "kind": "k\u00f6z",
            "post_code": 0
        },
        {
            "name": "Nagyvars\u00e1nyi",
            "kind": "\u00fat",
            "post_code": 0
        },
        {
            "name": "Napr\u00f3zsa",
            "kind": "utca",
            "post_code": 0
        },
        {
            "name": "Neumann J\u00e1nos",
            "kind": "\u00fat",
            "post_code": 0
        },
        {
            "name": "Ny\u00e1rf\u00e1s",
            "kind": "sor",
            "post_code": 0
        },
        {
            "name": "Ny\u00e1r",
            "kind": "utca",
            "post_code": 0
        },
        {
            "name": "Orgona",
            "kind": "k\u00f6z",
            "post_code": 0
        },
        {
            "name": "\u0150sz",
            "kind": "utca",
            "post_code": 0
        },
        {
            "name": "P\u00e1lya",
            "kind": "utca",
            "post_code": 0
        },
        {
            "name": "Parti",
            "kind": "utca",
            "post_code": 0
        },
        {
            "name": "Patak",
            "kind": "utca",
            "post_code": 0
        },
        {
            "name": "Pet\u0151fi",
            "kind": "lak\u00f3telep",
            "post_code": 0
        },
        {
            "name": "Pet\u0151fi S\u00e1ndor",
            "kind": "utca",
            "post_code": 0
        },
        {
            "name": "Pet\u0151fi Sz\u00e1rnyasliget",
            "kind": "",
            "post_code": 0
        },
        {
            "name": "Ponty",
            "kind": "utca",
            "post_code": 0
        },
        {
            "name": "Pozsonyi",
            "kind": "utca",
            "post_code": 0
        },
        {
            "name": "R\u00e1k\u00f3czi",
            "kind": "utca",
            "post_code": 0
        },
        {
            "name": "R\u00e9t",
            "kind": "utca",
            "post_code": 0
        },
        {
            "name": "R\u00f3zsa",
            "kind": "utca",
            "post_code": 0
        },
        {
            "name": "S\u00f3deros",
            "kind": "\u00fat",
            "post_code": 0
        },
        {
            "name": "Sport",
            "kind": "utca",
            "post_code": 0
        },
        {
            "name": "Strand",
            "kind": "utca",
            "post_code": 0
        },
        {
            "name": "Szabadkai",
            "kind": "k\u00f6z",
            "post_code": 0
        },
        {
            "name": "Szabadkai",
            "kind": "utca",
            "post_code": 0
        },
        {
            "name": "Szabads\u00e1g",
            "kind": "utca",
            "post_code": 0
        },
        {
            "name": "Sz\u00e1rnyasliget",
            "kind": "d\u0171l\u0151",
            "post_code": 0
        },
        {
            "name": "Sz\u00e1zados Istv\u00e1nn\u00e9",
            "kind": "utca",
            "post_code": 0
        },
        {
            "name": "Sz\u00e9chenyi",
            "kind": "utca",
            "post_code": 0
        },
        {
            "name": "Sziget",
            "kind": "sor",
            "post_code": 0
        },
        {
            "name": "Sz\u0151l\u0151",
            "kind": "utca",
            "post_code": 0
        },
        {
            "name": "Taksony Vez\u00e9r-h\u00edd",
            "kind": "",
            "post_code": 0
        },
        {
            "name": "Tan\u00edt\u00f3k",
            "kind": "\u00fatja",
            "post_code": 0
        },
        {
            "name": "Tavasz",
            "kind": "utca",
            "post_code": 0
        },
        {
            "name": "Temesv\u00e1r",
            "kind": "utca",
            "post_code": 0
        },
        {
            "name": "Temet\u0151",
            "kind": "utca",
            "post_code": 0
        },
        {
            "name": "Templom",
            "kind": "utca",
            "post_code": 0
        },
        {
            "name": "Tisztih\u00e1zak",
            "kind": "",
            "post_code": 0
        },
        {
            "name": "Tisztih\u00e1zak",
            "kind": "d\u0171l\u0151",
            "post_code": 0
        },
        {
            "name": "T\u00f6lgyfa",
            "kind": "utca",
            "post_code": 0
        },
        {
            "name": "T\u00f6m\u00f6sv\u00e1ri S\u00e1ndor",
            "kind": "utca",
            "post_code": 0
        },
        {
            "name": "Tompa Mih\u00e1ly",
            "kind": "utca",
            "post_code": 0
        },
        {
            "name": "Tulip\u00e1n",
            "kind": "utca",
            "post_code": 0
        },
        {
            "name": "\u00dcd\u00fcl\u0151",
            "kind": "s\u00e9t\u00e1ny",
            "post_code": 0
        },
        {
            "name": "Udvarev",
            "kind": "tanya",
            "post_code": 0
        },
        {
            "name": "Vadrezeda",
            "kind": "utca",
            "post_code": 0
        },
        {
            "name": "Vars\u00e1nyi",
            "kind": "\u00fat",
            "post_code": 0
        },
        {
            "name": "Varsa",
            "kind": "utca",
            "post_code": 0
        },
        {
            "name": "Vas\u00fat",
            "kind": "sor",
            "post_code": 0
        },
        {
            "name": "Vasvir\u00e1g",
            "kind": "utca",
            "post_code": 0
        },
        {
            "name": "V\u00e9szi J\u00f3zsef",
            "kind": "utca",
            "post_code": 0
        },
        {
            "name": "Viola",
            "kind": "utca",
            "post_code": 0
        },
        {
            "name": "Vir\u00e1g",
            "kind": "utca",
            "post_code": 0
        },
        {
            "name": "V\u00f6lgy",
            "kind": "utca",
            "post_code": 0
        },
        {
            "name": "V\u00f6r\u00f6smarty Mih\u00e1ly",
            "kind": "utca",
            "post_code": 0
        },
        {
            "name": "Z\u00f6rg\u0151f\u0171",
            "kind": "utca",
            "post_code": 0
        }
    ]
}