{
    "codes": {
        "2120": [
            "Dunakeszi",
            null
        ]
    },
    "streets": [
        {
            "name": "\u00c1brah\u00e1m P\u00e1l",
            "kind": "k\u00f6z",
            "post_code": 0
        },
        {
            "name": "\u00c1brah\u00e1m P\u00e1l",
            "kind": "utca",
            "post_code": 0
        },
        {
            "name": "Ady Endre",
            "kind": "utca",
            "post_code": 0
        },
        {
            "name": "\u00c1gnes",
            "kind": "utca",
            "post_code": 0
        },
        {
            "name": "Ak\u00e1cfa",
            "kind": "utca",
            "post_code": 0
        },
        {
            "name": "Alagi",
            "kind": "utca",
            "post_code": 0
        },
        {
            "name": "Albert",
            "kind": "utca",
            "post_code": 0
        },
        {
            "name": "Alkotm\u00e1ny",
            "kind": "utca",
            "post_code": 0
        },
        {
            "name": "\u00c1llom\u00e1s",
            "kind": "s\u00e9t\u00e1ny",
            "post_code": 0
        },
        {
            "name": "Alm\u00e1s",
            "kind": "utca",
            "post_code": 0
        },
        {
            "name": "Als\u00f3g\u00f6di",
            "kind": "k\u00f6z",
            "post_code": 0
        },
        {
            "name": "Als\u00f3g\u00f6di",
            "kind": "utca",
            "post_code": 0
        },
        {
            "name": "Als\u00f3tab\u00e1n",
            "kind": "utca",
            "post_code": 0
        },
        {
            "name": "Amur",
            "kind": "utca",
            "post_code": 0
        },
        {
            "name": "Andr\u00e1ssy Gyula",
            "kind": "utca",
            "post_code": 0
        },
        {
            "name": "Anna",
            "kind": "utca",
            "post_code": 0
        },
        {
            "name": "Apor Vilmos",
            "kind": "t\u00e9r",
            "post_code": 0
        },
        {
            "name": "Arad",
            "kind": "utca",
            "post_code": 0
        },
        {
            "name": "Arany J\u00e1nos",
            "kind": "utca",
            "post_code": 0
        },
        {
            "name": "Aranyk\u00e1r\u00e1sz",
            "kind": "utca",
            "post_code": 0
        },
        {
            "name": "\u00c1rok",
            "kind": "k\u00f6z",
            "post_code": 0
        },
        {
            "name": "\u00c1rp\u00e1d",
            "kind": "utca",
            "post_code": 0
        },
        {
            "name": "Attila",
            "kind": "utca",
            "post_code": 0
        },
        {
            "name": "Aulich Lajos",
            "kind": "utca",
            "post_code": 0
        },
        {
            "name": "Babits Mih\u00e1ly",
            "kind": "utca",
            "post_code": 0
        },
        {
            "name": "Bagoly",
            "kind": "utca",
            "post_code": 0
        },
        {
            "name": "Bajcsy-Zsilinszky",
            "kind": "utca",
            "post_code": 0
        },
        {
            "name": "Bajnok G\u00e9za",
            "kind": "t\u00e9r",
            "post_code": 0
        },
        {
            "name": "Bajt\u00e1rs",
            "kind": "utca",
            "post_code": 0
        },
        {
            "name": "Bajza",
            "kind": "utca",
            "post_code": 0
        },
        {
            "name": "Balassi B\u00e1lint",
            "kind": "utca",
            "post_code": 0
        },
        {
            "name": "Balin",
            "kind": "utca",
            "post_code": 0
        },
        {
            "name": "Balogh J\u00e1nos",
            "kind": "utca",
            "post_code": 0
        },
        {
            "name": "Barackos",
            "kind": "utca",
            "post_code": 0
        },
        {
            "name": "Bar\u00e1ts\u00e1g",
            "kind": "\u00fatja",
            "post_code": 0
        },
        {
            "name": "Bar\u00e1zda",
            "kind": "utca",
            "post_code": 0
        },
        {
            "name": "B\u00e1rdos Lajos",
            "kind": "utca",
            "post_code": 0
        },
        {
            "name": "Baross",
            "kind": "utca",
            "post_code": 0
        },
        {
            "name": "Bart\u00f3k B\u00e9la",
            "kind": "utca",
            "post_code": 0
        },
        {
            "name": "B\u00e1thory Istv\u00e1n",
            "kind": "utca",
            "post_code": 0
        },
        {
            "name": "B\u00e1torkeszi",
            "kind": "utca",
            "post_code": 0
        },
        {
            "name": "Batthy\u00e1ny Elem\u00e9r",
            "kind": "utca",
            "post_code": 0
        },
        {
            "name": "Bayer Emil",
            "kind": "utca",
            "post_code": 0
        },
        {
            "name": "Bazsanth Vince",
            "kind": "utca",
            "post_code": 0
        },
        {
            "name": "B\u00e9ke",
            "kind": "utca",
            "post_code": 0
        },
        {
            "name": "Bem J\u00f3zsef",
            "kind": "utca",
            "post_code": 0
        },
        {
            "name": "Bem",
            "kind": "utca",
            "post_code": 0
        },
        {
            "name": "Benedek Elek",
            "kind": "utca",
            "post_code": 0
        },
        {
            "name": "Bercs\u00e9nyi",
            "kind": "utca",
            "post_code": 0
        },
        {
            "name": "Berek",
            "kind": "utca",
            "post_code": 0
        },
        {
            "name": "Berzsenyi D\u00e1niel",
            "kind": "utca",
            "post_code": 0
        },
        {
            "name": "Blaha Lujza",
            "kind": "utca",
            "post_code": 0
        },
        {
            "name": "Bocskai",
            "kind": "utca",
            "post_code": 0
        },
        {
            "name": "Bohunka Lajos",
            "kind": "utca",
            "post_code": 0
        },
        {
            "name": "Bojtorj\u00e1n",
            "kind": "utca",
            "post_code": 0
        },
        {
            "name": "Botond",
            "kind": "utca",
            "post_code": 0
        },
        {
            "name": "Brass\u00f3i",
            "kind": "utca",
            "post_code": 0
        },
        {
            "name": "Br\u00f3dy S\u00e1ndor",
            "kind": "utca",
            "post_code": 0
        },
        {
            "name": "Budai Nagy Antal",
            "kind": "k\u00f6z",
            "post_code": 0
        },
        {
            "name": "Budai Nagy Antal",
            "kind": "utca",
            "post_code": 0
        },
        {
            "name": "Bulcs\u00fa",
            "kind": "utca",
            "post_code": 0
        },
        {
            "name": "Casalgrande",
            "kind": "t\u00e9r",
            "post_code": 0
        },
        {
            "name": "Comp\u00f3",
            "kind": "utca",
            "post_code": 0
        },
        {
            "name": "Csaba",
            "kind": "utca",
            "post_code": 0
        },
        {
            "name": "Csendes",
            "kind": "k\u00f6z",
            "post_code": 0
        },
        {
            "name": "Csereszny\u00e9s",
            "kind": "utca",
            "post_code": 0
        },
        {
            "name": "Cserk\u00e9sz",
            "kind": "utca",
            "post_code": 0
        },
        {
            "name": "Csermely",
            "kind": "utca",
            "post_code": 0
        },
        {
            "name": "Csiga",
            "kind": "k\u00f6z",
            "post_code": 0
        },
        {
            "name": "Csillag",
            "kind": "utca",
            "post_code": 0
        },
        {
            "name": "Csobog\u00f3",
            "kind": "k\u00f6z",
            "post_code": 0
        },
        {
            "name": "Csokonai",
            "kind": "utca",
            "post_code": 0
        },
        {
            "name": "Csom\u00e1di",
            "kind": "utca",
            "post_code": 0
        },
        {
            "name": "Cs\u00f3nak",
            "kind": "k\u00f6z",
            "post_code": 0
        },
        {
            "name": "Csuka",
            "kind": "utca",
            "post_code": 0
        },
        {
            "name": "Csurg\u00f3",
            "kind": "k\u00f6z",
            "post_code": 0
        },
        {
            "name": "Csuta Ferenc",
            "kind": "utca",
            "post_code": 0
        },
        {
            "name": "Cz\u00e9dli Istv\u00e1n",
            "kind": "utca",
            "post_code": 0
        },
        {
            "name": "D\u00e1lia",
            "kind": "utca",
            "post_code": 0
        },
        {
            "name": "Damjanich",
            "kind": "utca",
            "post_code": 0
        },
        {
            "name": "De\u00e1k Ferenc",
            "kind": "utca",
            "post_code": 0
        },
        {
            "name": "D\u00e9li",
            "kind": "k\u00f6z",
            "post_code": 0
        },
        {
            "name": "D\u00e9li",
            "kind": "utca",
            "post_code": 0
        },
        {
            "name": "D\u00e9ryn\u00e9",
            "kind": "utca",
            "post_code": 0
        },
        {
            "name": "Dessewffy Arisztid",
            "kind": "utca",
            "post_code": 0
        },
        {
            "name": "D\u00e9v\u00e9r",
            "kind": "utca",
            "post_code": 0
        },
        {
            "name": "Di\u00f3fa",
            "kind": "utca",
            "post_code": 0
        },
        {
            "name": "Dob\u00f3",
            "kind": "utca",
            "post_code": 0
        },
        {
            "name": "D\u00f3zsa Gy\u00f6rgy",
            "kind": "t\u00e9r",
            "post_code": 0
        },
        {
            "name": "Dr. Babicz B\u00e9la",
            "kind": "utca",
            "post_code": 0
        },
        {
            "name": "Dr. Brusznyai \u00c1rp\u00e1d",
            "kind": "utca",
            "post_code": 0
        },
        {
            "name": "Dr. Kem\u00e9ny Ferenc",
            "kind": "utca",
            "post_code": 0
        },
        {
            "name": "Dr. Legindi Istv\u00e1n",
            "kind": "utca",
            "post_code": 0
        },
        {
            "name": "Dr. Osvai L\u00e1szl\u00f3",
            "kind": "utca",
            "post_code": 0
        },
        {
            "name": "Dr. Tam\u00e1s Gy\u0151z\u0151",
            "kind": "utca",
            "post_code": 0
        },
        {
            "name": "Dugonics",
            "kind": "utca",
            "post_code": 0
        },
        {
            "name": "Dunakeszi, 3. & 4. v\u00e1g\u00e1ny",
            "kind": "",
            "post_code": 0
        },
        {
            "name": "Duna",
            "kind": "sor",
            "post_code": 0
        },
        {
            "name": "Duna",
            "kind": "utca",
            "post_code": 0
        },
        {
            "name": "Ecsh Gy\u0151z\u0151",
            "kind": "utca",
            "post_code": 0
        },
        {
            "name": "Egressy",
            "kind": "utca",
            "post_code": 0
        },
        {
            "name": "Eisemann Mih\u00e1ly",
            "kind": "utca",
            "post_code": 0
        },
        {
            "name": "Elem\u00e9r",
            "kind": "utca",
            "post_code": 0
        },
        {
            "name": "E\u00f6tv\u00f6s",
            "kind": "utca",
            "post_code": 0
        },
        {
            "name": "Eper",
            "kind": "utca",
            "post_code": 0
        },
        {
            "name": "Erkel Ferenc",
            "kind": "utca",
            "post_code": 0
        },
        {
            "name": "Erzs\u00e9bet",
            "kind": "utca",
            "post_code": 0
        },
        {
            "name": "\u00c9szaki",
            "kind": "k\u00f6z",
            "post_code": 0
        },
        {
            "name": "\u00c9szaki",
            "kind": "utca",
            "post_code": 0
        },
        {
            "name": "Esz\u00e9k",
            "kind": "utca",
            "post_code": 0
        },
        {
            "name": "Esze Tam\u00e1s",
            "kind": "utca",
            "post_code": 0
        },
        {
            "name": "Eszterh\u00e1zy P\u00e1l",
            "kind": "utca",
            "post_code": 0
        },
        {
            "name": "EuroVelo 6 ker\u00e9kp\u00e1r\u00fat",
            "kind": "",
            "post_code": 0
        },
        {
            "name": "\u00c9va",
            "kind": "utca",
            "post_code": 0
        },
        {
            "name": "Evez\u0151",
            "kind": "k\u00f6z",
            "post_code": 0
        },
        {
            "name": "Faludi J\u00e1nos",
            "kind": "utca",
            "post_code": 0
        },
        {
            "name": "Farkas Ferenc",
            "kind": "utca",
            "post_code": 0
        },
        {
            "name": "Fazekas Mih\u00e1ly",
            "kind": "utca",
            "post_code": 0
        },
        {
            "name": "Felh\u0151",
            "kind": "utca",
            "post_code": 0
        },
        {
            "name": "Fels\u0151tab\u00e1n",
            "kind": "k\u00f6z",
            "post_code": 0
        },
        {
            "name": "Fels\u0151tab\u00e1n",
            "kind": "utca",
            "post_code": 0
        },
        {
            "name": "Fenyves",
            "kind": "utca",
            "post_code": 0
        },
        {
            "name": "Ferenc",
            "kind": "utca",
            "post_code": 0
        },
        {
            "name": "F\u00e9szek",
            "kind": "k\u00f6z",
            "post_code": 0
        },
        {
            "name": "Fill\u00e9r",
            "kind": "utca",
            "post_code": 0
        },
        {
            "name": "Fl\u00f3ri\u00e1n",
            "kind": "utca",
            "post_code": 0
        },
        {
            "name": "Fogas",
            "kind": "k\u00f6z",
            "post_code": 0
        },
        {
            "name": "Folyam",
            "kind": "utca",
            "post_code": 0
        },
        {
            "name": "Forg\u00e1cs",
            "kind": "utca",
            "post_code": 0
        },
        {
            "name": "Forr\u00e1s",
            "kind": "d\u0171l\u0151",
            "post_code": 0
        },
        {
            "name": "F\u00f3ti",
            "kind": "k\u00f6z",
            "post_code": 0
        },
        {
            "name": "F\u00f3ti",
            "kind": "\u00fat",
            "post_code": 0
        },
        {
            "name": "F\u0151",
            "kind": "\u00fat",
            "post_code": 0
        },
        {
            "name": "F\u00f6veny",
            "kind": "utca",
            "post_code": 0
        },
        {
            "name": "Frangep\u00e1n",
            "kind": "utca",
            "post_code": 0
        },
        {
            "name": "Garas",
            "kind": "utca",
            "post_code": 0
        },
        {
            "name": "Gard\u00e9nia",
            "kind": "k\u00f6z",
            "post_code": 0
        },
        {
            "name": "G\u00e1rdonyi G\u00e9za",
            "kind": "utca",
            "post_code": 0
        },
        {
            "name": "G\u00e9recz Attila",
            "kind": "utca",
            "post_code": 0
        },
        {
            "name": "G\u00e9za",
            "kind": "utca",
            "post_code": 0
        },
        {
            "name": "Gida",
            "kind": "utca",
            "post_code": 0
        },
        {
            "name": "Git\u00e1r",
            "kind": "utca",
            "post_code": 0
        },
        {
            "name": "Gizella",
            "kind": "utca",
            "post_code": 0
        },
        {
            "name": "G\u00f6rgey Art\u00far",
            "kind": "utca",
            "post_code": 0
        },
        {
            "name": "Gutai J\u00e1nos",
            "kind": "utca",
            "post_code": 0
        },
        {
            "name": "Gy\u00f6ngyvir\u00e1g",
            "kind": "utca",
            "post_code": 0
        },
        {
            "name": "Hajcs\u00e1r",
            "kind": "\u00fat",
            "post_code": 0
        },
        {
            "name": "Hajnal",
            "kind": "sor",
            "post_code": 0
        },
        {
            "name": "Haj\u00f3",
            "kind": "k\u00f6z",
            "post_code": 0
        },
        {
            "name": "Haj\u00f3",
            "kind": "utca",
            "post_code": 0
        },
        {
            "name": "Harcsa",
            "kind": "utca",
            "post_code": 0
        },
        {
            "name": "Hargita",
            "kind": "utca",
            "post_code": 0
        },
        {
            "name": "H\u00e1rsfa",
            "kind": "utca",
            "post_code": 0
        },
        {
            "name": "H\u00e1rs",
            "kind": "k\u00f6z",
            "post_code": 0
        },
        {
            "name": "Hat\u00e1r",
            "kind": "utca",
            "post_code": 0
        },
        {
            "name": "Hegyrej\u00e1r\u00f3",
            "kind": "utca",
            "post_code": 0
        },
        {
            "name": "Hesp J\u00f3zsef",
            "kind": "utca",
            "post_code": 0
        },
        {
            "name": "Hitch R\u00f3bert",
            "kind": "utca",
            "post_code": 0
        },
        {
            "name": "Hold",
            "kind": "utca",
            "post_code": 0
        },
        {
            "name": "Honv\u00e9d",
            "kind": "utca",
            "post_code": 0
        },
        {
            "name": "Hor\u00e1ny",
            "kind": "k\u00f6z",
            "post_code": 0
        },
        {
            "name": "Horog",
            "kind": "utca",
            "post_code": 0
        },
        {
            "name": "H\u00f3vir\u00e1g",
            "kind": "utca",
            "post_code": 0
        },
        {
            "name": "Hull\u00e1m",
            "kind": "utca",
            "post_code": 0
        },
        {
            "name": "Hunyadi J\u00e1nos",
            "kind": "utca",
            "post_code": 0
        },
        {
            "name": "Huszka Jen\u0151",
            "kind": "utca",
            "post_code": 0
        },
        {
            "name": "Huszt",
            "kind": "utca",
            "post_code": 0
        },
        {
            "name": "H\u0171t\u0151h\u00e1z",
            "kind": "utca",
            "post_code": 0
        },
        {
            "name": "Ibolya",
            "kind": "utca",
            "post_code": 0
        },
        {
            "name": "Ida",
            "kind": "utca",
            "post_code": 0
        },
        {
            "name": "Ifj\u00fas\u00e1g",
            "kind": "utca",
            "post_code": 0
        },
        {
            "name": "Ilka",
            "kind": "utca",
            "post_code": 0
        },
        {
            "name": "Illeg\u00e1lis!",
            "kind": "",
            "post_code": 0
        },
        {
            "name": "Illy\u00e9s Gyula",
            "kind": "utca",
            "post_code": 0
        },
        {
            "name": "Iskola",
            "kind": "s\u00e9t\u00e1ny",
            "post_code": 0
        },
        {
            "name": "Iskola",
            "kind": "utca",
            "post_code": 0
        },
        {
            "name": "Istv\u00e1n",
            "kind": "utca",
            "post_code": 0
        },
        {
            "name": "IV. B\u00e9la",
            "kind": "utca",
            "post_code": 0
        },
        {
            "name": "\u00cdves",
            "kind": "\u00fat",
            "post_code": 0
        },
        {
            "name": "J\u00e1cint",
            "kind": "utca",
            "post_code": 0
        },
        {
            "name": "Janek G\u00e9za",
            "kind": "utca",
            "post_code": 0
        },
        {
            "name": "J\u00e1nos",
            "kind": "utca",
            "post_code": 0
        },
        {
            "name": "J\u00e1szai Mari",
            "kind": "utca",
            "post_code": 0
        },
        {
            "name": "J\u00f3kai M\u00f3r",
            "kind": "utca",
            "post_code": 0
        },
        {
            "name": "J\u00f3sika",
            "kind": "utca",
            "post_code": 0
        },
        {
            "name": "J\u00f3zsef",
            "kind": "utca",
            "post_code": 0
        },
        {
            "name": "Juh\u00e1sz Gyula",
            "kind": "utca",
            "post_code": 0
        },
        {
            "name": "J\u00falia",
            "kind": "utca",
            "post_code": 0
        },
        {
            "name": "Kacs\u00f3h Pongr\u00e1c",
            "kind": "k\u00f6z",
            "post_code": 0
        },
        {
            "name": "Kacs\u00f3h Pongr\u00e1c",
            "kind": "utca",
            "post_code": 0
        },
        {
            "name": "K\u00e1d\u00e1r",
            "kind": "utca",
            "post_code": 0
        },
        {
            "name": "Kadosa P\u00e1l",
            "kind": "utca",
            "post_code": 0
        },
        {
            "name": "Kagyl\u00f3",
            "kind": "k\u00f6z",
            "post_code": 0
        },
        {
            "name": "Kagyl\u00f3",
            "kind": "utca",
            "post_code": 0
        },
        {
            "name": "Kajak",
            "kind": "k\u00f6z",
            "post_code": 0
        },
        {
            "name": "K\u00e1lm\u00e1n",
            "kind": "utca",
            "post_code": 0
        },
        {
            "name": "K\u00e1lvin J\u00e1nos",
            "kind": "utca",
            "post_code": 0
        },
        {
            "name": "Kand\u00f3 K\u00e1lm\u00e1n",
            "kind": "utca",
            "post_code": 0
        },
        {
            "name": "K\u00e1polna",
            "kind": "k\u00f6z",
            "post_code": 0
        },
        {
            "name": "K\u00e1polna",
            "kind": "utca",
            "post_code": 0
        },
        {
            "name": "Kar\u00e1csony S\u00e1ndor",
            "kind": "utca",
            "post_code": 0
        },
        {
            "name": "Karinthy Frigyes",
            "kind": "utca",
            "post_code": 0
        },
        {
            "name": "Karolina",
            "kind": "utca",
            "post_code": 0
        },
        {
            "name": "K\u00e1rolyi",
            "kind": "utca",
            "post_code": 0
        },
        {
            "name": "K\u00e1rp\u00e1t",
            "kind": "utca",
            "post_code": 0
        },
        {
            "name": "Kassa",
            "kind": "utca",
            "post_code": 0
        },
        {
            "name": "Katonadomb",
            "kind": "sor",
            "post_code": 0
        },
        {
            "name": "Katona J\u00f3zsef",
            "kind": "utca",
            "post_code": 0
        },
        {
            "name": "Kavics",
            "kind": "utca",
            "post_code": 0
        },
        {
            "name": "Kazinczy Ferenc",
            "kind": "utca",
            "post_code": 0
        },
        {
            "name": "Keleti",
            "kind": "utca",
            "post_code": 0
        },
        {
            "name": "Kenu",
            "kind": "k\u00f6z",
            "post_code": 0
        },
        {
            "name": "Kereszt",
            "kind": "utca",
            "post_code": 0
        },
        {
            "name": "Kert\u00e9sz",
            "kind": "utca",
            "post_code": 0
        },
        {
            "name": "Kert",
            "kind": "utca",
            "post_code": 0
        },
        {
            "name": "Keszeg",
            "kind": "utca",
            "post_code": 0
        },
        {
            "name": "Keszthelyi Istv\u00e1n",
            "kind": "utca",
            "post_code": 0
        },
        {
            "name": "K\u00e9zay Simon",
            "kind": "utca",
            "post_code": 0
        },
        {
            "name": "Kikelet",
            "kind": "utca",
            "post_code": 0
        },
        {
            "name": "Kincsem",
            "kind": "k\u00f6z",
            "post_code": 0
        },
        {
            "name": "Kincsem",
            "kind": "utca",
            "post_code": 0
        },
        {
            "name": "Kinizsi",
            "kind": "utca",
            "post_code": 0
        },
        {
            "name": "Kir\u00e1lyh\u00e1g\u00f3",
            "kind": "utca",
            "post_code": 0
        },
        {
            "name": "Kir\u00e1ly",
            "kind": "utca",
            "post_code": 0
        },
        {
            "name": "Kisalagi",
            "kind": "utca",
            "post_code": 0
        },
        {
            "name": "Kiscsurg\u00f3",
            "kind": "k\u00f6z",
            "post_code": 0
        },
        {
            "name": "Kiscsurg\u00f3",
            "kind": "utca",
            "post_code": 0
        },
        {
            "name": "Kisdobos",
            "kind": "utca",
            "post_code": 0
        },
        {
            "name": "Kiserd\u0151",
            "kind": "utca",
            "post_code": 0
        },
        {
            "name": "Kisfaludy",
            "kind": "utca",
            "post_code": 0
        },
        {
            "name": "Kiskert",
            "kind": "k\u00f6z",
            "post_code": 0
        },
        {
            "name": "Kis",
            "kind": "k\u00f6z",
            "post_code": 0
        },
        {
            "name": "Kismarton",
            "kind": "utca",
            "post_code": 0
        },
        {
            "name": "Kiss Ern\u0151",
            "kind": "utca",
            "post_code": 0
        },
        {
            "name": "Kiss J\u00f3zsef",
            "kind": "utca",
            "post_code": 0
        },
        {
            "name": "Kistemplom",
            "kind": "utca",
            "post_code": 0
        },
        {
            "name": "Kis",
            "kind": "utca",
            "post_code": 0
        },
        {
            "name": "Klapka Gy\u00f6rgy",
            "kind": "utca",
            "post_code": 0
        },
        {
            "name": "Klimsha Albert",
            "kind": "utca",
            "post_code": 0
        },
        {
            "name": "Kn\u00e9zich K\u00e1roly",
            "kind": "utca",
            "post_code": 0
        },
        {
            "name": "Kod\u00e1ly Zolt\u00e1n",
            "kind": "utca",
            "post_code": 0
        },
        {
            "name": "K\u00f6lcsey Ferenc",
            "kind": "utca",
            "post_code": 0
        },
        {
            "name": "Kolozsv\u00e1r",
            "kind": "utca",
            "post_code": 0
        },
        {
            "name": "Konr\u00e1d Ign\u00e1c",
            "kind": "utca",
            "post_code": 0
        },
        {
            "name": "K\u00f6nyves K\u00e1lm\u00e1n",
            "kind": "utca",
            "post_code": 0
        },
        {
            "name": "K\u00f6r\u00f6nd",
            "kind": "utca",
            "post_code": 0
        },
        {
            "name": "Kors\u00f3s J\u00f3zsef",
            "kind": "utca",
            "post_code": 0
        },
        {
            "name": "Kossuth Lajos",
            "kind": "k\u00f6z",
            "post_code": 0
        },
        {
            "name": "Kossuth Lajos",
            "kind": "utca",
            "post_code": 0
        },
        {
            "name": "Kosztol\u00e1nyi",
            "kind": "utca",
            "post_code": 0
        },
        {
            "name": "Krajc\u00e1r",
            "kind": "utca",
            "post_code": 0
        },
        {
            "name": "Kr\u00fady Gyula",
            "kind": "utca",
            "post_code": 0
        },
        {
            "name": "Lahner Gy\u00f6rgy",
            "kind": "utca",
            "post_code": 0
        },
        {
            "name": "Lajos",
            "kind": "utca",
            "post_code": 0
        },
        {
            "name": "L\u00e1nyi",
            "kind": "s\u00e9t\u00e1ny",
            "post_code": 0
        },
        {
            "name": "L\u00e1szl\u00f3",
            "kind": "k\u00f6z",
            "post_code": 0
        },
        {
            "name": "L\u00e1szl\u00f3",
            "kind": "utca",
            "post_code": 0
        },
        {
            "name": "L\u00e1z\u00e1r Vilmos",
            "kind": "utca",
            "post_code": 0
        },
        {
            "name": "Leh\u00e1r Ferenc",
            "kind": "utca",
            "post_code": 0
        },
        {
            "name": "Lehel",
            "kind": "utca",
            "post_code": 0
        },
        {
            "name": "Leiningen K\u00e1roly",
            "kind": "utca",
            "post_code": 0
        },
        {
            "name": "Lejt\u0151",
            "kind": "utca",
            "post_code": 0
        },
        {
            "name": "Lenke",
            "kind": "utca",
            "post_code": 0
        },
        {
            "name": "Levente",
            "kind": "utca",
            "post_code": 0
        },
        {
            "name": "Liget",
            "kind": "utca",
            "post_code": 0
        },
        {
            "name": "Lilla",
            "kind": "utca",
            "post_code": 0
        },
        {
            "name": "Liszt Ferenc",
            "kind": "utca",
            "post_code": 0
        },
        {
            "name": "Mad\u00e1ch Imre",
            "kind": "utca",
            "post_code": 0
        },
        {
            "name": "Magdolna",
            "kind": "utca",
            "post_code": 0
        },
        {
            "name": "Magyars\u00e1g",
            "kind": "s\u00e9t\u00e1ny",
            "post_code": 0
        },
        {
            "name": "Magyar",
            "kind": "utca",
            "post_code": 0
        },
        {
            "name": "M\u00e1jus 1.",
            "kind": "utca",
            "post_code": 0
        },
        {
            "name": "M\u00e1ln\u00e1s",
            "kind": "utca",
            "post_code": 0
        },
        {
            "name": "Malom",
            "kind": "k\u00f6z",
            "post_code": 0
        },
        {
            "name": "Mansfeld P\u00e9ter",
            "kind": "utca",
            "post_code": 0
        },
        {
            "name": "M\u00e1nyoki \u00c1d\u00e1m",
            "kind": "t\u00e9r",
            "post_code": 0
        },
        {
            "name": "Margit",
            "kind": "k\u00f6z",
            "post_code": 0
        },
        {
            "name": "Margit",
            "kind": "utca",
            "post_code": 0
        },
        {
            "name": "M\u00e1ria",
            "kind": "utca",
            "post_code": 0
        },
        {
            "name": "M\u00e1rta",
            "kind": "utca",
            "post_code": 0
        },
        {
            "name": "Martinovics",
            "kind": "utca",
            "post_code": 0
        },
        {
            "name": "M\u00e1rton \u00c1ron",
            "kind": "utca",
            "post_code": 0
        },
        {
            "name": "Matr\u00f3z",
            "kind": "k\u00f6z",
            "post_code": 0
        },
        {
            "name": "M\u00e1ty\u00e1s kir\u00e1ly",
            "kind": "utca",
            "post_code": 0
        },
        {
            "name": "Meder",
            "kind": "utca",
            "post_code": 0
        },
        {
            "name": "Meggyes",
            "kind": "utca",
            "post_code": 0
        },
        {
            "name": "Mez\u0151",
            "kind": "utca",
            "post_code": 0
        },
        {
            "name": "Mih\u00e1ly",
            "kind": "utca",
            "post_code": 0
        },
        {
            "name": "Mikes Kelemen",
            "kind": "utca",
            "post_code": 0
        },
        {
            "name": "Miksz\u00e1th K\u00e1lm\u00e1n",
            "kind": "utca",
            "post_code": 0
        },
        {
            "name": "Mindszenty J\u00f3zsef",
            "kind": "s\u00e9t\u00e1ny",
            "post_code": 0
        },
        {
            "name": "Moln\u00e1r Ferenc",
            "kind": "k\u00f6z",
            "post_code": 0
        },
        {
            "name": "M\u00f3ra Ferenc",
            "kind": "utca",
            "post_code": 0
        },
        {
            "name": "M\u00f3ricz Zsigmond",
            "kind": "utca",
            "post_code": 0
        },
        {
            "name": "Mozaik",
            "kind": "k\u00f6z",
            "post_code": 0
        },
        {
            "name": "Mravik P\u00e1l",
            "kind": "utca",
            "post_code": 0
        },
        {
            "name": "Munk\u00e1csy Mih\u00e1ly",
            "kind": "utca",
            "post_code": 0
        },
        {
            "name": "Munk\u00e1s",
            "kind": "utca",
            "post_code": 0
        },
        {
            "name": "Musk\u00e1tli",
            "kind": "utca",
            "post_code": 0
        },
        {
            "name": "N\u00e1das",
            "kind": "utca",
            "post_code": 0
        },
        {
            "name": "Nagykert",
            "kind": "k\u00f6z",
            "post_code": 0
        },
        {
            "name": "Nagykert",
            "kind": "utca",
            "post_code": 0
        },
        {
            "name": "Nagys\u00e1ndor J\u00f3zsef",
            "kind": "t\u00e9r",
            "post_code": 0
        },
        {
            "name": "N\u00e1ndorfeh\u00e9rv\u00e1r",
            "kind": "utca",
            "post_code": 0
        },
        {
            "name": "N\u00e1ndori",
            "kind": "utca",
            "post_code": 0
        },
        {
            "name": "Napraforg\u00f3",
            "kind": "t\u00e9r",
            "post_code": 0
        },
        {
            "name": "Nap",
            "kind": "utca",
            "post_code": 0
        },
        {
            "name": "N\u00e9meth L\u00e1szl\u00f3",
            "kind": "k\u00f6z",
            "post_code": 0
        },
        {
            "name": "N\u00e9meth L\u00e1szl\u00f3",
            "kind": "utca",
            "post_code": 0
        },
        {
            "name": "Nevel\u0151",
            "kind": "utca",
            "post_code": 0
        },
        {
            "name": "Ny\u00e1rfa",
            "kind": "k\u00f6z",
            "post_code": 0
        },
        {
            "name": "Nyereg",
            "kind": "k\u00f6z",
            "post_code": 0
        },
        {
            "name": "\u00d6rv\u00e9ny",
            "kind": "k\u00f6z",
            "post_code": 0
        },
        {
            "name": "\u00d6rv\u00e9ny",
            "kind": "utca",
            "post_code": 0
        },
        {
            "name": "\u00d3voda",
            "kind": "k\u00f6z",
            "post_code": 0
        },
        {
            "name": "Pacsirta",
            "kind": "utca",
            "post_code": 0
        },
        {
            "name": "Pallag",
            "kind": "utca",
            "post_code": 0
        },
        {
            "name": "P\u00e1lya",
            "kind": "utca",
            "post_code": 0
        },
        {
            "name": "Pavilon",
            "kind": "utca",
            "post_code": 0
        },
        {
            "name": "Pejachevich Albert",
            "kind": "utca",
            "post_code": 0
        },
        {
            "name": "Perczel M\u00f3r",
            "kind": "utca",
            "post_code": 0
        },
        {
            "name": "Pesti",
            "kind": "\u00fat",
            "post_code": 0
        },
        {
            "name": "Pet\u0151fi S\u00e1ndor",
            "kind": "utca",
            "post_code": 0
        },
        {
            "name": "Pet\u0151fi",
            "kind": "telep",
            "post_code": 0
        },
        {
            "name": "Pihen\u0151",
            "kind": "k\u00f6z",
            "post_code": 0
        },
        {
            "name": "Pihen\u0151",
            "kind": "lejt\u0151",
            "post_code": 0
        },
        {
            "name": "Pihen\u0151",
            "kind": "s\u00e9t\u00e1ny",
            "post_code": 0
        },
        {
            "name": "Pihen\u0151",
            "kind": "utca",
            "post_code": 0
        },
        {
            "name": "Pilinszky J\u00e1nos",
            "kind": "utca",
            "post_code": 0
        },
        {
            "name": "Pipa",
            "kind": "utca",
            "post_code": 0
        },
        {
            "name": "Piroska",
            "kind": "utca",
            "post_code": 0
        },
        {
            "name": "P\u00f6ltenberg Ern\u0151",
            "kind": "utca",
            "post_code": 0
        },
        {
            "name": "Ponty",
            "kind": "utca",
            "post_code": 0
        },
        {
            "name": "Posta",
            "kind": "k\u00f6z",
            "post_code": 0
        },
        {
            "name": "Posta",
            "kind": "utca",
            "post_code": 0
        },
        {
            "name": "Pozsonyi",
            "kind": "utca",
            "post_code": 0
        },
        {
            "name": "Pr\u00e1ga",
            "kind": "utca",
            "post_code": 0
        },
        {
            "name": "P+R",
            "kind": "parkol\u00f3",
            "post_code": 0
        },
        {
            "name": "Puskin",
            "kind": "utca",
            "post_code": 0
        },
        {
            "name": "Radn\u00f3ti Mikl\u00f3s",
            "kind": "utca",
            "post_code": 0
        },
        {
            "name": "R\u00e1k\u00f3czi",
            "kind": "\u00fat",
            "post_code": 0
        },
        {
            "name": "Rep\u00fcl\u0151t\u00e9ri",
            "kind": "\u00fat",
            "post_code": 0
        },
        {
            "name": "R\u00e9v\u00e9sz",
            "kind": "k\u00f6z",
            "post_code": 0
        },
        {
            "name": "R\u00e9v",
            "kind": "k\u00f6z",
            "post_code": 0
        },
        {
            "name": "R\u00e9v",
            "kind": "utca",
            "post_code": 0
        },
        {
            "name": "Rezeda",
            "kind": "utca",
            "post_code": 0
        },
        {
            "name": "R\u00f3mai",
            "kind": "utca",
            "post_code": 0
        },
        {
            "name": "Rozmaring",
            "kind": "utca",
            "post_code": 0
        },
        {
            "name": "R\u00f3zsakert",
            "kind": "k\u00f6z",
            "post_code": 0
        },
        {
            "name": "Sajdik S\u00e1ndor",
            "kind": "utca",
            "post_code": 0
        },
        {
            "name": "Schweidel J\u00f3zsef",
            "kind": "utca",
            "post_code": 0
        },
        {
            "name": "Shejbal J\u00f3zsef",
            "kind": "utca",
            "post_code": 0
        },
        {
            "name": "S\u00f3lyom",
            "kind": "utca",
            "post_code": 0
        },
        {
            "name": "Spartacus",
            "kind": "utca",
            "post_code": 0
        },
        {
            "name": "Sport",
            "kind": "utca",
            "post_code": 0
        },
        {
            "name": "Stromfeld Aur\u00e9l",
            "kind": "utca",
            "post_code": 0
        },
        {
            "name": "S\u00fcg\u00e9r",
            "kind": "t\u00e9r",
            "post_code": 0
        },
        {
            "name": "S\u00fcll\u0151",
            "kind": "utca",
            "post_code": 0
        },
        {
            "name": "Szabadka",
            "kind": "utca",
            "post_code": 0
        },
        {
            "name": "Szabads\u00e1g",
            "kind": "t\u00e9r",
            "post_code": 0
        },
        {
            "name": "Szabads\u00e1g",
            "kind": "utca",
            "post_code": 0
        },
        {
            "name": "Szab\u00f3 Ervin",
            "kind": "utca",
            "post_code": 0
        },
        {
            "name": "Szak\u00e1ll Ferenc",
            "kind": "utca",
            "post_code": 0
        },
        {
            "name": "Sz\u00e1k",
            "kind": "utca",
            "post_code": 0
        },
        {
            "name": "Sz\u00e1nt\u00f3",
            "kind": "utca",
            "post_code": 0
        },
        {
            "name": "Sz\u00e9chenyi",
            "kind": "utca",
            "post_code": 0
        },
        {
            "name": "Szedres",
            "kind": "utca",
            "post_code": 0
        },
        {
            "name": "Szeg\u00e9ly",
            "kind": "utca",
            "post_code": 0
        },
        {
            "name": "Szegf\u0171",
            "kind": "utca",
            "post_code": 0
        },
        {
            "name": "Sz\u00e9kelykereszt\u00far",
            "kind": "utca",
            "post_code": 0
        },
        {
            "name": "Sz\u00e9kesd\u0171l\u0151",
            "kind": "sor",
            "post_code": 0
        },
        {
            "name": "Szent Erzs\u00e9bet",
            "kind": "utca",
            "post_code": 0
        },
        {
            "name": "Szent Gy\u00f6rgy",
            "kind": "utca",
            "post_code": 0
        },
        {
            "name": "Szent Imre",
            "kind": "t\u00e9r",
            "post_code": 0
        },
        {
            "name": "Szent Istv\u00e1n",
            "kind": "utca",
            "post_code": 0
        },
        {
            "name": "Szent Kinga",
            "kind": "utca",
            "post_code": 0
        },
        {
            "name": "Szent L\u00e1szl\u00f3",
            "kind": "utca",
            "post_code": 0
        },
        {
            "name": "Szent Margit",
            "kind": "utca",
            "post_code": 0
        },
        {
            "name": "Szent Mih\u00e1ly",
            "kind": "t\u00e9r",
            "post_code": 0
        },
        {
            "name": "Sz\u00e9p Ern\u0151",
            "kind": "utca",
            "post_code": 0
        },
        {
            "name": "Szil\u00e1gyi",
            "kind": "utca",
            "post_code": 0
        },
        {
            "name": "Sz\u0151di",
            "kind": "utca",
            "post_code": 0
        },
        {
            "name": "Szokolai Istv\u00e1n",
            "kind": "utca",
            "post_code": 0
        },
        {
            "name": "Sz\u0151l\u0151",
            "kind": "k\u00f6z",
            "post_code": 0
        },
        {
            "name": "Szondi",
            "kind": "utca",
            "post_code": 0
        },
        {
            "name": "Sz\u00fcrke",
            "kind": "k\u00f6z",
            "post_code": 0
        },
        {
            "name": "T\u00e1bor",
            "kind": "utca",
            "post_code": 0
        },
        {
            "name": "Tall\u00e9r",
            "kind": "utca",
            "post_code": 0
        },
        {
            "name": "T\u00e1ltos",
            "kind": "utca",
            "post_code": 0
        },
        {
            "name": "Tam\u00e1si \u00c1ron",
            "kind": "utca",
            "post_code": 0
        },
        {
            "name": "T\u00e1ncsics Mih\u00e1ly",
            "kind": "utca",
            "post_code": 0
        },
        {
            "name": "T\u00e1tra",
            "kind": "utca",
            "post_code": 0
        },
        {
            "name": "Tavasz",
            "kind": "utca",
            "post_code": 0
        },
        {
            "name": "Teleki P\u00e1l",
            "kind": "utca",
            "post_code": 0
        },
        {
            "name": "Temet\u0151",
            "kind": "utca",
            "post_code": 0
        },
        {
            "name": "Th\u00f6k\u00f6ly",
            "kind": "utca",
            "post_code": 0
        },
        {
            "name": "Tisza",
            "kind": "utca",
            "post_code": 0
        },
        {
            "name": "Toldi",
            "kind": "utca",
            "post_code": 0
        },
        {
            "name": "Tompa Mih\u00e1ly",
            "kind": "utca",
            "post_code": 0
        },
        {
            "name": "T\u00f6r\u00f6k Ign\u00e1c",
            "kind": "utca",
            "post_code": 0
        },
        {
            "name": "Torony",
            "kind": "k\u00f6z",
            "post_code": 0
        },
        {
            "name": "T\u00f3th \u00c1rp\u00e1d",
            "kind": "utca",
            "post_code": 0
        },
        {
            "name": "T\u00f3th Ilona",
            "kind": "utca",
            "post_code": 0
        },
        {
            "name": "T\u0151zegtavi",
            "kind": "\u00fat",
            "post_code": 0
        },
        {
            "name": "Tulip\u00e1n",
            "kind": "utca",
            "post_code": 0
        },
        {
            "name": "T\u00fcnde",
            "kind": "utca",
            "post_code": 0
        },
        {
            "name": "Tutaj",
            "kind": "utca",
            "post_code": 0
        },
        {
            "name": "\u00dcd\u00fcl\u0151",
            "kind": "sor",
            "post_code": 0
        },
        {
            "name": "\u00dcd\u00fcl\u0151",
            "kind": "utca",
            "post_code": 0
        },
        {
            "name": "\u00dajsz\u0151l\u0151",
            "kind": "utca",
            "post_code": 0
        },
        {
            "name": "Ungv\u00e1r",
            "kind": "utca",
            "post_code": 0
        },
        {
            "name": "Usz\u00e1ly",
            "kind": "utca",
            "post_code": 0
        },
        {
            "name": "V\u00e1ci Mih\u00e1ly",
            "kind": "utca",
            "post_code": 0
        },
        {
            "name": "V\u00e1ci",
            "kind": "\u00fat",
            "post_code": 0
        },
        {
            "name": "Vad\u00e1sz",
            "kind": "k\u00f6z",
            "post_code": 0
        },
        {
            "name": "Vad\u00e1sz",
            "kind": "utca",
            "post_code": 0
        },
        {
            "name": "Vajda J\u00e1nos",
            "kind": "utca",
            "post_code": 0
        },
        {
            "name": "Vajk",
            "kind": "utca",
            "post_code": 0
        },
        {
            "name": "Vars\u00f3i",
            "kind": "utca",
            "post_code": 0
        },
        {
            "name": "Vas\u00fat",
            "kind": "utca",
            "post_code": 0
        },
        {
            "name": "Vasv\u00e1ri P\u00e1l",
            "kind": "utca",
            "post_code": 0
        },
        {
            "name": "V\u00e9csey K\u00e1roly",
            "kind": "utca",
            "post_code": 0
        },
        {
            "name": "Vereckei",
            "kind": "utca",
            "post_code": 0
        },
        {
            "name": "Veres P\u00e9ter",
            "kind": "utca",
            "post_code": 0
        },
        {
            "name": "Verseny",
            "kind": "utca",
            "post_code": 0
        },
        {
            "name": "Viola",
            "kind": "utca",
            "post_code": 0
        },
        {
            "name": "Vir\u00e1g",
            "kind": "utca",
            "post_code": 0
        },
        {
            "name": "V\u00edz",
            "kind": "k\u00f6z",
            "post_code": 0
        },
        {
            "name": "V\u00f6r\u00f6smarty Mih\u00e1ly",
            "kind": "utca",
            "post_code": 0
        },
        {
            "name": "Wass Albert",
            "kind": "utca",
            "post_code": 0
        },
        {
            "name": "We\u00f6res S\u00e1ndor",
            "kind": "utca",
            "post_code": 0
        },
        {
            "name": "Zal\u00e1n",
            "kind": "utca",
            "post_code": 0
        },
        {
            "name": "Z\u00e1polya",
            "kind": "utca",
            "post_code": 0
        },
        {
            "name": "Z\u00e1vodszy G\u00e9za",
            "kind": "utca",
            "post_code": 0
        },
        {
            "name": "Zerkovicz B\u00e9la",
            "kind": "utca",
            "post_code": 0
        },
        {
            "name": "Zolt\u00e1n",
            "kind": "utca",
            "post_code": 0
        },
        {
            "name": "Zr\u00ednyi",
            "kind": "utca",
            "post_code": 0
        },
        {
            "name": "Zs\u00e1lya",
            "kind": "k\u00f6z",
            "post_code": 0
        },
        {
            "name": "Zs\u00f3fia",
            "kind": "utca",
            "post_code": 0
        },
        {
            "name": "D\u00f3zsa Gy\u00f6rgy",
            "kind": "t\u00e9r",
            "post_code": 0
        },
        {
            "name": "Dunakeszi, 3. & 4. v\u00e1g\u00e1ny",
            "kind": "",
            "post_code": 0
        },
        {
            "name": "R\u00e9v\u00e9sz Istv\u00e1n",
            "kind": "s\u00e9t\u00e1ny",
            "post_code": 0
        }
    ]
}