{
    "codes": {
        "7020": [
            "Dunaf\u00f6ldv\u00e1r",
            " "
        ]
    },
    "streets": [
        {
            "name": "Ady Endre",
            "kind": "utca",
            "post_code": 0
        },
        {
            "name": "Als\u00f3 B\u00f6lcske",
            "kind": "utca",
            "post_code": 0
        },
        {
            "name": "Als\u00f3burgundia",
            "kind": "utca",
            "post_code": 0
        },
        {
            "name": "Als\u00f3 Homokerd\u0151",
            "kind": "",
            "post_code": 0
        },
        {
            "name": "Als\u00f3 Homokerd\u0151",
            "kind": "utca",
            "post_code": 0
        },
        {
            "name": "Als\u00f3r\u00e9v",
            "kind": "utca",
            "post_code": 0
        },
        {
            "name": "Aradi",
            "kind": "k\u00f6z",
            "post_code": 0
        },
        {
            "name": "Arany J\u00e1nos",
            "kind": "utca",
            "post_code": 0
        },
        {
            "name": "\u00c1rp\u00e1d",
            "kind": "utca",
            "post_code": 0
        },
        {
            "name": "Attila",
            "kind": "utca",
            "post_code": 0
        },
        {
            "name": "B\u00e1nomka",
            "kind": "utca",
            "post_code": 0
        },
        {
            "name": "Baross",
            "kind": "d\u0171l\u0151",
            "post_code": 0
        },
        {
            "name": "Baross",
            "kind": "utca",
            "post_code": 0
        },
        {
            "name": "Barota",
            "kind": "k\u00f6z",
            "post_code": 0
        },
        {
            "name": "Batthy\u00e1ny Lajos",
            "kind": "sor",
            "post_code": 0
        },
        {
            "name": "Batthy\u00e1ny",
            "kind": "sor",
            "post_code": 0
        },
        {
            "name": "B\u00e9ke",
            "kind": "t\u00e9r",
            "post_code": 0
        },
        {
            "name": "Bels\u0151 B\u00f6lcske",
            "kind": "utca",
            "post_code": 0
        },
        {
            "name": "Bels\u0151 Kertek k\u00f6ze",
            "kind": "",
            "post_code": 0
        },
        {
            "name": "Bercs\u00e9nyi",
            "kind": "utca",
            "post_code": 0
        },
        {
            "name": "B\u00e9ri Balogh \u00c1d\u00e1m",
            "kind": "utca",
            "post_code": 0
        },
        {
            "name": "Besz\u00e9des J\u00f3zsef h\u00edd",
            "kind": "",
            "post_code": 0
        },
        {
            "name": "Bethlen G\u00e1bor",
            "kind": "k\u00f6z",
            "post_code": 0
        },
        {
            "name": "Bezer\u00e9dj",
            "kind": "utca",
            "post_code": 0
        },
        {
            "name": "B\u00fazavir\u00e1g",
            "kind": "utca",
            "post_code": 0
        },
        {
            "name": "Corvin J\u00e1nos",
            "kind": "utca",
            "post_code": 0
        },
        {
            "name": "Csaba",
            "kind": "utca",
            "post_code": 0
        },
        {
            "name": "Damjanich",
            "kind": "utca",
            "post_code": 0
        },
        {
            "name": "Dank\u00f3 Pista",
            "kind": "utca",
            "post_code": 0
        },
        {
            "name": "De\u00e1k",
            "kind": "t\u00e9r",
            "post_code": 0
        },
        {
            "name": "Derecskei",
            "kind": "utca",
            "post_code": 0
        },
        {
            "name": "D\u00e9zsma",
            "kind": "sor",
            "post_code": 0
        },
        {
            "name": "Dob\u00f3",
            "kind": "utca",
            "post_code": 0
        },
        {
            "name": "D\u00f3zsa Gy\u00f6rgy",
            "kind": "utca",
            "post_code": 0
        },
        {
            "name": "Dunaf\u00f6ldv\u00e1r-Dunak\u00f6ml\u0151d",
            "kind": "",
            "post_code": 0
        },
        {
            "name": "Duna",
            "kind": "utca",
            "post_code": 0
        },
        {
            "name": "El\u0151sz\u00e1ll\u00e1si",
            "kind": "\u00fat",
            "post_code": 0
        },
        {
            "name": "Erkel Ferenc",
            "kind": "utca",
            "post_code": 0
        },
        {
            "name": "Erzs\u00e9bet",
            "kind": "utca",
            "post_code": 0
        },
        {
            "name": "Feh\u00e9rv\u00e1ri",
            "kind": "utca",
            "post_code": 0
        },
        {
            "name": "Fels\u0151 B\u00f6lcske",
            "kind": "utca",
            "post_code": 0
        },
        {
            "name": "Fels\u0151 Homokerd\u0151",
            "kind": "",
            "post_code": 0
        },
        {
            "name": "Fels\u0151 K\u00e1lv\u00e1ria",
            "kind": "",
            "post_code": 0
        },
        {
            "name": "Fl\u00f3ri\u00e1n",
            "kind": "utca",
            "post_code": 0
        },
        {
            "name": "F\u00fczes",
            "kind": "sor",
            "post_code": 0
        },
        {
            "name": "G\u00e1bor P\u00e1l",
            "kind": "utca",
            "post_code": 0
        },
        {
            "name": "Gy\u00f6rki",
            "kind": "sor",
            "post_code": 0
        },
        {
            "name": "Homokai",
            "kind": "k\u00f6z",
            "post_code": 0
        },
        {
            "name": "H\u0151s\u00f6k",
            "kind": "tere",
            "post_code": 0
        },
        {
            "name": "Hunyadi",
            "kind": "sor",
            "post_code": 0
        },
        {
            "name": "Ifj\u00fas\u00e1g",
            "kind": "t\u00e9r",
            "post_code": 0
        },
        {
            "name": "Ilona",
            "kind": "utca",
            "post_code": 0
        },
        {
            "name": "Irinyi J\u00e1nos",
            "kind": "utca",
            "post_code": 0
        },
        {
            "name": "Iskola",
            "kind": "utca",
            "post_code": 0
        },
        {
            "name": "Jobb\u00e1gy\u0151s\u00f6k",
            "kind": "\u00fatja",
            "post_code": 0
        },
        {
            "name": "J\u00f3kai M\u00f3r",
            "kind": "utca",
            "post_code": 0
        },
        {
            "name": "J\u00f3zsef",
            "kind": "utca",
            "post_code": 0
        },
        {
            "name": "Kadarka",
            "kind": "utca",
            "post_code": 0
        },
        {
            "name": "k\u00e1lv\u00e1ria Dunaf\u00f6ldv\u00e1r",
            "kind": "",
            "post_code": 0
        },
        {
            "name": "Katona J\u00f3zsef",
            "kind": "utca",
            "post_code": 0
        },
        {
            "name": "Kecskeugrat\u00f3",
            "kind": "",
            "post_code": 0
        },
        {
            "name": "Kereszt",
            "kind": "utca",
            "post_code": 0
        },
        {
            "name": "K\u00e9ri",
            "kind": "\u00fat",
            "post_code": 0
        },
        {
            "name": "Kinizsi P\u00e1l",
            "kind": "utca",
            "post_code": 0
        },
        {
            "name": "Kis",
            "kind": "k\u00f6z",
            "post_code": 0
        },
        {
            "name": "Kod\u00e1ly Zolt\u00e1n",
            "kind": "utca",
            "post_code": 0
        },
        {
            "name": "K\u00f6lcsey Ferenc",
            "kind": "utca",
            "post_code": 0
        },
        {
            "name": "Kossuth Lajos",
            "kind": "t\u00e9r",
            "post_code": 0
        },
        {
            "name": "Kossuth Lajos",
            "kind": "utca",
            "post_code": 0
        },
        {
            "name": "K\u00f6z\u00e9p Burgundia",
            "kind": "",
            "post_code": 0
        },
        {
            "name": "K\u00f6z\u00e9p Homokerd\u0151",
            "kind": "",
            "post_code": 0
        },
        {
            "name": "K\u00f6z\u00f6s",
            "kind": "\u00fat",
            "post_code": 0
        },
        {
            "name": "K\u00fcls\u0151 B\u00f6lcske",
            "kind": "utca",
            "post_code": 0
        },
        {
            "name": "K\u00fcls\u0151 K\u00e9ri",
            "kind": "utca",
            "post_code": 0
        },
        {
            "name": "K\u00fcls\u0151 kertek k\u00f6ze",
            "kind": "",
            "post_code": 0
        },
        {
            "name": "K\u00fcls\u0151 Kertek k\u00f6ze",
            "kind": "",
            "post_code": 0
        },
        {
            "name": "K\u00fcls\u0151 T\u00e9glah\u00e1z",
            "kind": "utca",
            "post_code": 0
        },
        {
            "name": "Liszt Ferenc",
            "kind": "utca",
            "post_code": 0
        },
        {
            "name": "Magdolna",
            "kind": "utca",
            "post_code": 0
        },
        {
            "name": "Magyar",
            "kind": "k\u00f6z",
            "post_code": 0
        },
        {
            "name": "Magyar L\u00e1szl\u00f3",
            "kind": "utca",
            "post_code": 0
        },
        {
            "name": "Major",
            "kind": "k\u00f6z",
            "post_code": 0
        },
        {
            "name": "M\u00e1jus 1.",
            "kind": "utca",
            "post_code": 0
        },
        {
            "name": "Medny\u00e1nszky",
            "kind": "utca",
            "post_code": 0
        },
        {
            "name": "M\u00e9ly",
            "kind": "\u00fat",
            "post_code": 0
        },
        {
            "name": "M\u00e9sz\u00e1ros",
            "kind": "utca",
            "post_code": 0
        },
        {
            "name": "Mezei",
            "kind": "k\u00f6z",
            "post_code": 0
        },
        {
            "name": "M\u00f3ra Ferenc",
            "kind": "utca",
            "post_code": 0
        },
        {
            "name": "M\u00f3ricz Zsigmond",
            "kind": "utca",
            "post_code": 0
        },
        {
            "name": "Nefelejcs",
            "kind": "utca",
            "post_code": 0
        },
        {
            "name": "Olajmalom",
            "kind": "k\u00f6z",
            "post_code": 0
        },
        {
            "name": "Paksi",
            "kind": "utca",
            "post_code": 0
        },
        {
            "name": "Pentele",
            "kind": "utca",
            "post_code": 0
        },
        {
            "name": "Pet\u0151fi S\u00e1ndor",
            "kind": "utca",
            "post_code": 0
        },
        {
            "name": "Pince",
            "kind": "k\u00f6z",
            "post_code": 0
        },
        {
            "name": "Pipacs",
            "kind": "utca",
            "post_code": 0
        },
        {
            "name": "Pusk\u00e1s",
            "kind": "utca",
            "post_code": 0
        },
        {
            "name": "P\u00fcsp\u00f6k",
            "kind": "utca",
            "post_code": 0
        },
        {
            "name": "Radn\u00f3ti Mikl\u00f3s",
            "kind": "utca",
            "post_code": 0
        },
        {
            "name": "R\u00e1k\u00f3czi Ferenc",
            "kind": "utca",
            "post_code": 0
        },
        {
            "name": "R\u00e1tkay",
            "kind": "k\u00f6z",
            "post_code": 0
        },
        {
            "name": "Reiter",
            "kind": "k\u00f6z",
            "post_code": 0
        },
        {
            "name": "Rizling",
            "kind": "utca",
            "post_code": 0
        },
        {
            "name": "R\u00f3zsa",
            "kind": "utca",
            "post_code": 0
        },
        {
            "name": "Sas",
            "kind": "utca",
            "post_code": 0
        },
        {
            "name": "S\u00f3h\u00e1z",
            "kind": "utca",
            "post_code": 0
        },
        {
            "name": "Solti",
            "kind": "utca",
            "post_code": 0
        },
        {
            "name": "Sz\u00e9chenyi",
            "kind": "utca",
            "post_code": 0
        },
        {
            "name": "Sz\u00e9les Csap\u00e1s",
            "kind": "",
            "post_code": 0
        },
        {
            "name": "Szent Istv\u00e1n",
            "kind": "utca",
            "post_code": 0
        },
        {
            "name": "Szent L\u00e1szl\u00f3",
            "kind": "utca",
            "post_code": 0
        },
        {
            "name": "Szent L\u0151rinc",
            "kind": "utca",
            "post_code": 0
        },
        {
            "name": "Sziget",
            "kind": "k\u00f6z",
            "post_code": 0
        },
        {
            "name": "Sz\u0151l\u0151skertek",
            "kind": "\u00fatja",
            "post_code": 0
        },
        {
            "name": "Szondi",
            "kind": "utca",
            "post_code": 0
        },
        {
            "name": "Tab\u00e1n",
            "kind": "",
            "post_code": 0
        },
        {
            "name": "Tam\u00e1si Istv\u00e1n",
            "kind": "utca",
            "post_code": 0
        },
        {
            "name": "T\u00e1ncsics Mih\u00e1ly",
            "kind": "utca",
            "post_code": 0
        },
        {
            "name": "Tavasz",
            "kind": "utca",
            "post_code": 0
        },
        {
            "name": "Temet\u0151",
            "kind": "sor",
            "post_code": 0
        },
        {
            "name": "Templom",
            "kind": "utca",
            "post_code": 0
        },
        {
            "name": "T\u00f3j\u00e1r\u00e1s",
            "kind": "utca",
            "post_code": 0
        },
        {
            "name": "Toldi",
            "kind": "t\u00e9r",
            "post_code": 0
        },
        {
            "name": "T\u00f3th",
            "kind": "v\u00f6lgy",
            "post_code": 0
        },
        {
            "name": "T\u00f3",
            "kind": "utca",
            "post_code": 0
        },
        {
            "name": "\u00daj vermek",
            "kind": "sor",
            "post_code": 0
        },
        {
            "name": "V\u00e1ci Mih\u00e1ly",
            "kind": "utca",
            "post_code": 0
        },
        {
            "name": "Vad\u00e1sz",
            "kind": "utca",
            "post_code": 0
        },
        {
            "name": "V\u00e1g\u00f3h\u00edd",
            "kind": "utca",
            "post_code": 0
        },
        {
            "name": "V\u00e1rdomb",
            "kind": "utca",
            "post_code": 0
        },
        {
            "name": "Vas\u00fat",
            "kind": "utca",
            "post_code": 0
        },
        {
            "name": "Vermek",
            "kind": "sora",
            "post_code": 0
        },
        {
            "name": "Vir\u00e1g",
            "kind": "utca",
            "post_code": 0
        },
        {
            "name": "V\u00f6lgy",
            "kind": "utca",
            "post_code": 0
        },
        {
            "name": "V\u00f6r\u00f6smarty Mih\u00e1ly",
            "kind": "utca",
            "post_code": 0
        },
        {
            "name": "Zr\u00ednyi",
            "kind": "k\u00f6z",
            "post_code": 0
        }
    ]
}