{
    "codes": {
        "9225": [
            "Dunakiliti",
            null
        ]
    },
    "streets": [
        {
            "name": "Ady Endre",
            "kind": "utca",
            "post_code": 0
        },
        {
            "name": "Arany J\u00e1nos",
            "kind": "utca",
            "post_code": 0
        },
        {
            "name": "Bels\u0151 major",
            "kind": "utca",
            "post_code": 0
        },
        {
            "name": "Cs\u00f6l\u00f6szt\u0151i",
            "kind": "\u00fat",
            "post_code": 0
        },
        {
            "name": "Di\u00f3s",
            "kind": "utca",
            "post_code": 0
        },
        {
            "name": "Egyed",
            "kind": "k\u00f6z",
            "post_code": 0
        },
        {
            "name": "Gy\u00fcm\u00f6lcs\u00f6s",
            "kind": "utca",
            "post_code": 0
        },
        {
            "name": "J\u00f3zsef Attila",
            "kind": "utca",
            "post_code": 0
        },
        {
            "name": "Kisduna",
            "kind": "utca",
            "post_code": 0
        },
        {
            "name": "Kisfaludy",
            "kind": "utca",
            "post_code": 0
        },
        {
            "name": "Kossuth Lajos",
            "kind": "utca",
            "post_code": 0
        },
        {
            "name": "Kov\u00e1cs",
            "kind": "k\u00f6z",
            "post_code": 0
        },
        {
            "name": "Mozi",
            "kind": "k\u00f6z",
            "post_code": 0
        },
        {
            "name": "Nefelejcs",
            "kind": "utca",
            "post_code": 0
        },
        {
            "name": "Pet\u0151fi S\u00e1ndor",
            "kind": "utca",
            "post_code": 0
        },
        {
            "name": "Radn\u00f3ti Mikl\u00f3s",
            "kind": "utca",
            "post_code": 0
        },
        {
            "name": "Rajkai",
            "kind": "utca",
            "post_code": 0
        },
        {
            "name": "R\u00e9v",
            "kind": "utca",
            "post_code": 0
        },
        {
            "name": "Sallai Imre",
            "kind": "utca",
            "post_code": 0
        },
        {
            "name": "Sport",
            "kind": "utca",
            "post_code": 0
        },
        {
            "name": "Szilv\u00e1s",
            "kind": "sor",
            "post_code": 0
        },
        {
            "name": "Villa",
            "kind": "k\u00f6z",
            "post_code": 0
        }
    ]
}