{
    "codes": {
        "5510": [
            "D\u00e9vav\u00e1nya",
            null
        ]
    },
    "streets": [
        {
            "name": "Ady Endre",
            "kind": "utca",
            "post_code": 0
        },
        {
            "name": "Ak\u00e1cfa",
            "kind": "utca",
            "post_code": 0
        },
        {
            "name": "\u00c1llom\u00e1s",
            "kind": "utca",
            "post_code": 0
        },
        {
            "name": "Arany J\u00e1nos",
            "kind": "utca",
            "post_code": 0
        },
        {
            "name": "\u00c1rp\u00e1d",
            "kind": "",
            "post_code": 0
        },
        {
            "name": "\u00c1rp\u00e1d",
            "kind": "utca",
            "post_code": 0
        },
        {
            "name": "Asztalos S\u00e1ndor",
            "kind": "utca",
            "post_code": 0
        },
        {
            "name": "Bajcsy-Zsilinszky",
            "kind": "utca",
            "post_code": 0
        },
        {
            "name": "B\u00e1nomkert",
            "kind": "utca",
            "post_code": 0
        },
        {
            "name": "Barc\u00e9i",
            "kind": "utca",
            "post_code": 0
        },
        {
            "name": "Bart\u00f3k B\u00e9la",
            "kind": "utca",
            "post_code": 0
        },
        {
            "name": "B\u00e1thori",
            "kind": "utca",
            "post_code": 0
        },
        {
            "name": "Batthy\u00e1ny",
            "kind": "utca",
            "post_code": 0
        },
        {
            "name": "B\u00e9ka",
            "kind": "utca",
            "post_code": 0
        },
        {
            "name": "Bem J\u00f3zsef",
            "kind": "utca",
            "post_code": 0
        },
        {
            "name": "Bethlen G\u00e1bor",
            "kind": "utca",
            "post_code": 0
        },
        {
            "name": "Bocskai",
            "kind": "utca",
            "post_code": 0
        },
        {
            "name": "B\u00f6jt\u00f6s",
            "kind": "utca",
            "post_code": 0
        },
        {
            "name": "Borona",
            "kind": "utca",
            "post_code": 0
        },
        {
            "name": "Csokonai Mih\u00e1ly",
            "kind": "utca",
            "post_code": 0
        },
        {
            "name": "Damjanich",
            "kind": "utca",
            "post_code": 0
        },
        {
            "name": "Darab",
            "kind": "utca",
            "post_code": 0
        },
        {
            "name": "De\u00e1k Ferenc",
            "kind": "utca",
            "post_code": 0
        },
        {
            "name": "D\u00e9vav\u00e1nyai f\u00f6ld\u00fat",
            "kind": "",
            "post_code": 0
        },
        {
            "name": "Dob\u00f3 Istv\u00e1n",
            "kind": "utca",
            "post_code": 0
        },
        {
            "name": "D\u00f3zsa Gy\u00f6rgy",
            "kind": "utca",
            "post_code": 0
        },
        {
            "name": "Eke",
            "kind": "utca",
            "post_code": 0
        },
        {
            "name": "E\u00f6tv\u00f6s J\u00f3zsef",
            "kind": "utca",
            "post_code": 0
        },
        {
            "name": "E\u00f6tv\u00f6s",
            "kind": "utca",
            "post_code": 0
        },
        {
            "name": "Erkel Ferenc",
            "kind": "utca",
            "post_code": 0
        },
        {
            "name": "Gyomai",
            "kind": "\u00fat",
            "post_code": 0
        },
        {
            "name": "Gy\u0151zelem",
            "kind": "utca",
            "post_code": 0
        },
        {
            "name": "Hajnal",
            "kind": "utca",
            "post_code": 0
        },
        {
            "name": "Haj\u00f3s",
            "kind": "utca",
            "post_code": 0
        },
        {
            "name": "H\u00e1rom R\u00f3zsa",
            "kind": "utca",
            "post_code": 0
        },
        {
            "name": "Hold",
            "kind": "utca",
            "post_code": 0
        },
        {
            "name": "Homokb\u00e1nya",
            "kind": "utca",
            "post_code": 0
        },
        {
            "name": "Hunyadi J\u00e1nos",
            "kind": "utca",
            "post_code": 0
        },
        {
            "name": "J\u00e9ggy\u00e1r",
            "kind": "utca",
            "post_code": 0
        },
        {
            "name": "J\u00f3kai",
            "kind": "utca",
            "post_code": 0
        },
        {
            "name": "J\u00f3zsef Attila",
            "kind": "utca",
            "post_code": 0
        },
        {
            "name": "Kert",
            "kind": "utca",
            "post_code": 0
        },
        {
            "name": "K\u00edgy\u00f3",
            "kind": "utca",
            "post_code": 0
        },
        {
            "name": "Kinizsi",
            "kind": "utca",
            "post_code": 0
        },
        {
            "name": "Kisfaludy",
            "kind": "",
            "post_code": 0
        },
        {
            "name": "Kis\u00fajsz\u00e1ll\u00e1si",
            "kind": "\u00fat",
            "post_code": 0
        },
        {
            "name": "Klapka",
            "kind": "utca",
            "post_code": 0
        },
        {
            "name": "Kod\u00e1ly Zolt\u00e1n",
            "kind": "utca",
            "post_code": 0
        },
        {
            "name": "K\u00f6lcsey",
            "kind": "utca",
            "post_code": 0
        },
        {
            "name": "K\u00f6leshalmi",
            "kind": "utca",
            "post_code": 0
        },
        {
            "name": "Konr\u00e1d",
            "kind": "utca",
            "post_code": 0
        },
        {
            "name": "K\u00f6nyves K\u00e1lm\u00e1n",
            "kind": "utca",
            "post_code": 0
        },
        {
            "name": "K\u00f3rh\u00e1z",
            "kind": "utca",
            "post_code": 0
        },
        {
            "name": "K\u00f6r\u00f6slad\u00e1nyi",
            "kind": "\u00fat",
            "post_code": 0
        },
        {
            "name": "K\u00f6r\u00f6slad\u00e1nyi",
            "kind": "utca",
            "post_code": 0
        },
        {
            "name": "K\u00f6r",
            "kind": "utca",
            "post_code": 0
        },
        {
            "name": "Kossuth Lajos",
            "kind": "utca",
            "post_code": 0
        },
        {
            "name": "K\u00f6zt\u00e1rsas\u00e1g",
            "kind": "utca",
            "post_code": 0
        },
        {
            "name": "Kulich Gyula",
            "kind": "utca",
            "post_code": 0
        },
        {
            "name": "Lad\u00e1nyi Mih\u00e1ly",
            "kind": "utca",
            "post_code": 0
        },
        {
            "name": "Lev\u00e9l",
            "kind": "utca",
            "post_code": 0
        },
        {
            "name": "lez\u00e1rt r\u00e9tre vezet\u0151",
            "kind": "\u00fat",
            "post_code": 0
        },
        {
            "name": "Mad\u00e1ch Imre",
            "kind": "utca",
            "post_code": 0
        },
        {
            "name": "M\u00e1jus 1.",
            "kind": "utca",
            "post_code": 0
        },
        {
            "name": "M\u00e1ty\u00e1s",
            "kind": "utca",
            "post_code": 0
        },
        {
            "name": "Mez\u0151t\u00fari",
            "kind": "utca",
            "post_code": 0
        },
        {
            "name": "Miksz\u00e1th K\u00e1lm\u00e1n",
            "kind": "utca",
            "post_code": 0
        },
        {
            "name": "M\u00f3ricz Zsigmond",
            "kind": "utca",
            "post_code": 0
        },
        {
            "name": "Nap",
            "kind": "utca",
            "post_code": 0
        },
        {
            "name": "Ny\u00edl",
            "kind": "utca",
            "post_code": 0
        },
        {
            "name": "\u00d6tv\u00f6s",
            "kind": "utca",
            "post_code": 0
        },
        {
            "name": "Pet\u0151fi",
            "kind": "utca",
            "post_code": 0
        },
        {
            "name": "Radn\u00f3ti Mikl\u00f3s",
            "kind": "utca",
            "post_code": 0
        },
        {
            "name": "R\u00e1k\u00f3czi",
            "kind": "utca",
            "post_code": 0
        },
        {
            "name": "R\u00e9gi vas\u00fat",
            "kind": "",
            "post_code": 0
        },
        {
            "name": "R\u00f6vid",
            "kind": "utca",
            "post_code": 0
        },
        {
            "name": "Sarl\u00f3",
            "kind": "utca",
            "post_code": 0
        },
        {
            "name": "S\u00e1ros",
            "kind": "utca",
            "post_code": 0
        },
        {
            "name": "Sas",
            "kind": "utca",
            "post_code": 0
        },
        {
            "name": "Sir\u00e1ly",
            "kind": "utca",
            "post_code": 0
        },
        {
            "name": "Sport",
            "kind": "\u00fat",
            "post_code": 0
        },
        {
            "name": "Sport",
            "kind": "utca",
            "post_code": 0
        },
        {
            "name": "Szabads\u00e1g",
            "kind": "utca",
            "post_code": 0
        },
        {
            "name": "Sz\u00e1nt\u00f3 Kov\u00e1cs",
            "kind": "utca",
            "post_code": 0
        },
        {
            "name": "Sz\u00e9chenyi Istv\u00e1n",
            "kind": "utca",
            "post_code": 0
        },
        {
            "name": "Sz\u00e9chenyi",
            "kind": "utca",
            "post_code": 0
        },
        {
            "name": "Szederkert",
            "kind": "",
            "post_code": 0
        },
        {
            "name": "Szegf\u0171",
            "kind": "utca",
            "post_code": 0
        },
        {
            "name": "Szeghalmi",
            "kind": "\u00fat",
            "post_code": 0
        },
        {
            "name": "Sz\u00e9les",
            "kind": "utca",
            "post_code": 0
        },
        {
            "name": "Sz\u00e9r\u0171skert",
            "kind": "utca",
            "post_code": 0
        },
        {
            "name": "Szondy",
            "kind": "utca",
            "post_code": 0
        },
        {
            "name": "T\u00e1ncsics",
            "kind": "",
            "post_code": 0
        },
        {
            "name": "Telek",
            "kind": "utca",
            "post_code": 0
        },
        {
            "name": "Temet\u0151",
            "kind": "utca",
            "post_code": 0
        },
        {
            "name": "Th\u00f6k\u00f6ly Imre",
            "kind": "utca",
            "post_code": 0
        },
        {
            "name": "Tompa",
            "kind": "utca",
            "post_code": 0
        },
        {
            "name": "T\u00f6vis",
            "kind": "utca",
            "post_code": 0
        },
        {
            "name": "V\u00e1g\u00e1ssz\u00e9l",
            "kind": "utca",
            "post_code": 0
        },
        {
            "name": "Vajda",
            "kind": "utca",
            "post_code": 0
        },
        {
            "name": "V\u00e1s\u00e1rsz\u00e9l",
            "kind": "utca",
            "post_code": 0
        },
        {
            "name": "Viharsarok",
            "kind": "utca",
            "post_code": 0
        },
        {
            "name": "Villa",
            "kind": "utca",
            "post_code": 0
        },
        {
            "name": "V\u00f6r\u00f6smarty",
            "kind": "utca",
            "post_code": 0
        },
        {
            "name": "Z\u00f6ldfa",
            "kind": "utca",
            "post_code": 0
        },
        {
            "name": "Zr\u00ednyi Mikl\u00f3s",
            "kind": "utca",
            "post_code": 0
        }
    ]
}