{
    "codes": {
        "2027": [
            "D\u00f6m\u00f6s",
            null
        ]
    },
    "streets": [
        {
            "name": "\u00c1lmos herceg",
            "kind": "\u00fatja",
            "post_code": 0
        },
        {
            "name": "Als\u00f3r\u00e9t",
            "kind": "utca",
            "post_code": 0
        },
        {
            "name": "\u00c1rp\u00e1d",
            "kind": "telep",
            "post_code": 0
        },
        {
            "name": "Barackos",
            "kind": "utca",
            "post_code": 0
        },
        {
            "name": "Bart\u00f3k B\u00e9la",
            "kind": "\u00fat",
            "post_code": 0
        },
        {
            "name": "B\u00e9la kir\u00e1ly",
            "kind": "utca",
            "post_code": 0
        },
        {
            "name": "Cukorhegy",
            "kind": "utca",
            "post_code": 0
        },
        {
            "name": "Dob\u00f3k\u0151i",
            "kind": "\u00fat",
            "post_code": 0
        },
        {
            "name": "D\u00f3zsa Gy\u00f6rgy",
            "kind": "\u00fat",
            "post_code": 0
        },
        {
            "name": "Duna",
            "kind": "utca",
            "post_code": 0
        },
        {
            "name": "H\u0151s\u00f6k",
            "kind": "tere",
            "post_code": 0
        },
        {
            "name": "K\u00e1lvin J\u00e1nos",
            "kind": "utca",
            "post_code": 0
        },
        {
            "name": "Kir\u00e1lyk\u00fati",
            "kind": "utca",
            "post_code": 0
        },
        {
            "name": "K\u0151r\u00f6ssy L\u00e1szl\u00f3",
            "kind": "utca",
            "post_code": 0
        },
        {
            "name": "Kossuth Lajos",
            "kind": "\u00fat",
            "post_code": 0
        },
        {
            "name": "K\u00f6vespatak",
            "kind": "utca",
            "post_code": 0
        },
        {
            "name": "Luk\u00e1cs",
            "kind": "\u00e1rok",
            "post_code": 0
        },
        {
            "name": "Luk\u00e1cs-\u00e1rok",
            "kind": "",
            "post_code": 0
        },
        {
            "name": "Nov\u00e1k Lajos",
            "kind": "utca",
            "post_code": 0
        },
        {
            "name": "P\u00e1sztor J\u00e1nos",
            "kind": "utca",
            "post_code": 0
        },
        {
            "name": "R\u00e1m-szakad\u00e9k",
            "kind": "",
            "post_code": 0
        },
        {
            "name": "Szent Istv\u00e1n",
            "kind": "utca",
            "post_code": 0
        },
        {
            "name": "Szuha",
            "kind": "d\u0171l\u0151",
            "post_code": 0
        },
        {
            "name": "T\u00e1ncsics Mih\u00e1ly",
            "kind": "utca",
            "post_code": 0
        },
        {
            "name": "T\u00e9ry",
            "kind": "\u00fat",
            "post_code": 0
        },
        {
            "name": "T\u00f6lgyfa",
            "kind": "utca",
            "post_code": 0
        },
        {
            "name": "Vertel J\u00f3zsef",
            "kind": "utca",
            "post_code": 0
        }
    ]
}