{
    "codes": {
        "3300": [
            "Eger",
            null
        ]
    },
    "streets": [
        {
            "name": "Ady Endre",
            "kind": "utca",
            "post_code": 0
        },
        {
            "name": "\u00c1gas",
            "kind": "utca",
            "post_code": 0
        },
        {
            "name": "Agyagos",
            "kind": "utca",
            "post_code": 0
        },
        {
            "name": "Ak\u00e1cfa",
            "kind": "utca",
            "post_code": 0
        },
        {
            "name": "Albert Ferenc",
            "kind": "utca",
            "post_code": 0
        },
        {
            "name": "\u00c1llom\u00e1s",
            "kind": "t\u00e9r",
            "post_code": 0
        },
        {
            "name": "Almagyar",
            "kind": "",
            "post_code": 0
        },
        {
            "name": "Almagyar",
            "kind": "k\u00f6z",
            "post_code": 0
        },
        {
            "name": "Almagyar",
            "kind": "\u00fat",
            "post_code": 0
        },
        {
            "name": "Alm\u00e1rv\u00f6lgyi",
            "kind": "utca",
            "post_code": 0
        },
        {
            "name": "Alm\u00e1si P\u00e1l",
            "kind": "utca",
            "post_code": 0
        },
        {
            "name": "Alv\u00e9gi",
            "kind": "utca",
            "post_code": 0
        },
        {
            "name": "Andr\u00e1s b\u00edr\u00f3",
            "kind": "utca",
            "post_code": 0
        },
        {
            "name": "Ankli J\u00f3zsef",
            "kind": "utca",
            "post_code": 0
        },
        {
            "name": "Ap\u00e1tfalvi",
            "kind": "utca",
            "post_code": 0
        },
        {
            "name": "Aradi",
            "kind": "utca",
            "post_code": 0
        },
        {
            "name": "Arany J\u00e1nos",
            "kind": "utca",
            "post_code": 0
        },
        {
            "name": "\u00c1rny\u00e9kszala",
            "kind": "utca",
            "post_code": 0
        },
        {
            "name": "\u00c1rok",
            "kind": "k\u00f6z",
            "post_code": 0
        },
        {
            "name": "\u00c1rp\u00e1d",
            "kind": "\u00fat",
            "post_code": 0
        },
        {
            "name": "\u00c1rva",
            "kind": "k\u00f6z",
            "post_code": 0
        },
        {
            "name": "Attila",
            "kind": "utca",
            "post_code": 0
        },
        {
            "name": "Babocsay S\u00e1ndor",
            "kind": "utca",
            "post_code": 0
        },
        {
            "name": "Bajcsy-Zsilinszky Endre",
            "kind": "utca",
            "post_code": 0
        },
        {
            "name": "Bajza J\u00f3zsef",
            "kind": "utca",
            "post_code": 0
        },
        {
            "name": "Baktai",
            "kind": "\u00fat",
            "post_code": 0
        },
        {
            "name": "Balassi B\u00e1lint",
            "kind": "utca",
            "post_code": 0
        },
        {
            "name": "B\u00e1lint pap",
            "kind": "utca",
            "post_code": 0
        },
        {
            "name": "B\u00e1nki Don\u00e1t",
            "kind": "utca",
            "post_code": 0
        },
        {
            "name": "B\u00e1r\u00e1ny",
            "kind": "utca",
            "post_code": 0
        },
        {
            "name": "Bark\u00f3czy",
            "kind": "\u00fat",
            "post_code": 0
        },
        {
            "name": "Bartakovics B\u00e9la",
            "kind": "utca",
            "post_code": 0
        },
        {
            "name": "Bartalos Gyula",
            "kind": "\u00fat",
            "post_code": 0
        },
        {
            "name": "Bart\u00f3k B\u00e9la",
            "kind": "t\u00e9r",
            "post_code": 0
        },
        {
            "name": "B\u00e1stya",
            "kind": "utca",
            "post_code": 0
        },
        {
            "name": "B\u00e1stya utcai alulj\u00e1r\u00f3",
            "kind": "",
            "post_code": 0
        },
        {
            "name": "B\u00e9ke",
            "kind": "utca",
            "post_code": 0
        },
        {
            "name": "Belv\u00e1rosi",
            "kind": "udvar",
            "post_code": 0
        },
        {
            "name": "Bem t\u00e1bornok",
            "kind": "utca",
            "post_code": 0
        },
        {
            "name": "Bercs\u00e9nyi Mikl\u00f3s",
            "kind": "utca",
            "post_code": 0
        },
        {
            "name": "B\u00e9rc",
            "kind": "utca",
            "post_code": 0
        },
        {
            "name": "Bervai",
            "kind": "lak\u00f3telep",
            "post_code": 0
        },
        {
            "name": "Bervai",
            "kind": "\u00fat",
            "post_code": 0
        },
        {
            "name": "Berze Nagy J\u00e1nos",
            "kind": "utca",
            "post_code": 0
        },
        {
            "name": "Berzsenyi D\u00e1niel",
            "kind": "utca",
            "post_code": 0
        },
        {
            "name": "Bethlen G\u00e1bor",
            "kind": "utca",
            "post_code": 0
        },
        {
            "name": "Blaskovics Gyula",
            "kind": "utca",
            "post_code": 0
        },
        {
            "name": "Bocskai Istv\u00e1n",
            "kind": "utca",
            "post_code": 0
        },
        {
            "name": "Bolyki Tam\u00e1s",
            "kind": "utca",
            "post_code": 0
        },
        {
            "name": "Borh\u00e1z",
            "kind": "sor",
            "post_code": 0
        },
        {
            "name": "Bornemissza Gergely",
            "kind": "utca",
            "post_code": 0
        },
        {
            "name": "Boross Endre",
            "kind": "utca",
            "post_code": 0
        },
        {
            "name": "Borsitz J\u00e1nos",
            "kind": "utca",
            "post_code": 0
        },
        {
            "name": "Borsod",
            "kind": "utca",
            "post_code": 0
        },
        {
            "name": "Brass\u00f3i",
            "kind": "utca",
            "post_code": 0
        },
        {
            "name": "Breznay Imre",
            "kind": "utca",
            "post_code": 0
        },
        {
            "name": "Br\u00f3dy S\u00e1ndor",
            "kind": "utca",
            "post_code": 0
        },
        {
            "name": "B\u00fckk S\u00e9t\u00e1ny",
            "kind": "",
            "post_code": 0
        },
        {
            "name": "Buzog\u00e1ny",
            "kind": "utca",
            "post_code": 0
        },
        {
            "name": "Cecey \u00c9va",
            "kind": "utca",
            "post_code": 0
        },
        {
            "name": "Cegl\u00e9di",
            "kind": "utca",
            "post_code": 0
        },
        {
            "name": "C\u00e9hmesterek udvara",
            "kind": "",
            "post_code": 0
        },
        {
            "name": "Cifrakapu",
            "kind": "t\u00e9r",
            "post_code": 0
        },
        {
            "name": "Cifrakapu",
            "kind": "\u00fat",
            "post_code": 0
        },
        {
            "name": "Cifrapart",
            "kind": "utca",
            "post_code": 0
        },
        {
            "name": "Cinca",
            "kind": "utca",
            "post_code": 0
        },
        {
            "name": "Cs\u00e1k\u00e1ny",
            "kind": "utca",
            "post_code": 0
        },
        {
            "name": "Cs\u00e1k\u00f3sor",
            "kind": "utca",
            "post_code": 0
        },
        {
            "name": "Csalog\u00e1ny",
            "kind": "utca",
            "post_code": 0
        },
        {
            "name": "Csiky S\u00e1ndor",
            "kind": "utca",
            "post_code": 0
        },
        {
            "name": "Csokonai Mih\u00e1ly",
            "kind": "utca",
            "post_code": 0
        },
        {
            "name": "Csord\u00e1s",
            "kind": "utca",
            "post_code": 0
        },
        {
            "name": "Csurg\u00f3",
            "kind": "utca",
            "post_code": 0
        },
        {
            "name": "Darvas",
            "kind": "utca",
            "post_code": 0
        },
        {
            "name": "Dayka G\u00e1bor",
            "kind": "utca",
            "post_code": 0
        },
        {
            "name": "De\u00e1k Ferenc",
            "kind": "\u00fat",
            "post_code": 0
        },
        {
            "name": "Dem\u00e9ndi",
            "kind": "utca",
            "post_code": 0
        },
        {
            "name": "D\u00e9va",
            "kind": "utca",
            "post_code": 0
        },
        {
            "name": "D\u00e9zsmah\u00e1z",
            "kind": "",
            "post_code": 0
        },
        {
            "name": "Di\u00f3fak\u00fat",
            "kind": "utca",
            "post_code": 0
        },
        {
            "name": "Diszn\u00f3f\u0151-sor",
            "kind": "",
            "post_code": 0
        },
        {
            "name": "Dob\u00f3 Istv\u00e1n",
            "kind": "utca",
            "post_code": 0
        },
        {
            "name": "Dob\u00f3",
            "kind": "k\u00f6z",
            "post_code": 0
        },
        {
            "name": "Domokos Jakab",
            "kind": "utca",
            "post_code": 0
        },
        {
            "name": "Don\u00e1t",
            "kind": "\u00fat",
            "post_code": 0
        },
        {
            "name": "Dr. Bak\u00f3 Ferenc",
            "kind": "utca",
            "post_code": 0
        },
        {
            "name": "Dr. Frank M\u00e1ria",
            "kind": "utca",
            "post_code": 0
        },
        {
            "name": "Dr. Hibay K\u00e1roly",
            "kind": "utca",
            "post_code": 0
        },
        {
            "name": "Dr. Kapor Elem\u00e9r",
            "kind": "utca",
            "post_code": 0
        },
        {
            "name": "Dr. Nagy J\u00e1nos",
            "kind": "utca",
            "post_code": 0
        },
        {
            "name": "Dr. S\u00e1ndor Imre",
            "kind": "utca",
            "post_code": 0
        },
        {
            "name": "Eg\u00e9szs\u00e9gh\u00e1z",
            "kind": "utca",
            "post_code": 0
        },
        {
            "name": "Egri csillagok",
            "kind": "utca",
            "post_code": 0
        },
        {
            "name": "Egri",
            "kind": "\u00fat",
            "post_code": 0
        },
        {
            "name": "Endresz Gy\u00f6rgy",
            "kind": "utca",
            "post_code": 0
        },
        {
            "name": "E\u00f6tv\u00f6s Lor\u00e1nd",
            "kind": "utca",
            "post_code": 0
        },
        {
            "name": "Eperjesi",
            "kind": "utca",
            "post_code": 0
        },
        {
            "name": "Epreskert",
            "kind": "",
            "post_code": 0
        },
        {
            "name": "Erd\u00e9lyi \u00c9va",
            "kind": "utca",
            "post_code": 0
        },
        {
            "name": "Erd\u00e9szek",
            "kind": "\u00fatja",
            "post_code": 0
        },
        {
            "name": "\u00c9rsek",
            "kind": "utca",
            "post_code": 0
        },
        {
            "name": "Erzs\u00e9bet",
            "kind": "udvar",
            "post_code": 0
        },
        {
            "name": "Eszperant\u00f3",
            "kind": "s\u00e9t\u00e1ny",
            "post_code": 0
        },
        {
            "name": "Eszterh\u00e1zy",
            "kind": "t\u00e9r",
            "post_code": 0
        },
        {
            "name": "Fadrusz J\u00e1nos",
            "kind": "utca",
            "post_code": 0
        },
        {
            "name": "Faggyas",
            "kind": "utca",
            "post_code": 0
        },
        {
            "name": "Faiskola",
            "kind": "utca",
            "post_code": 0
        },
        {
            "name": "Farkasv\u00e1r",
            "kind": "utca",
            "post_code": 0
        },
        {
            "name": "Farkasv\u00f6lgy",
            "kind": "utca",
            "post_code": 0
        },
        {
            "name": "Fazola Henrik",
            "kind": "utca",
            "post_code": 0
        },
        {
            "name": "Fecske",
            "kind": "utca",
            "post_code": 0
        },
        {
            "name": "Feh\u00e9rhegyi",
            "kind": "utca",
            "post_code": 0
        },
        {
            "name": "Fejedelem",
            "kind": "utca",
            "post_code": 0
        },
        {
            "name": "F\u00e9lhold",
            "kind": "utca",
            "post_code": 0
        },
        {
            "name": "Fellner Jakab t\u00f6mbbels\u0151",
            "kind": "",
            "post_code": 0
        },
        {
            "name": "Fellner Jakab",
            "kind": "utca",
            "post_code": 0
        },
        {
            "name": "Felv\u00e9gi",
            "kind": "utca",
            "post_code": 0
        },
        {
            "name": "Feny\u0151",
            "kind": "utca",
            "post_code": 0
        },
        {
            "name": "Fert\u0151b\u00e1nya",
            "kind": "utca",
            "post_code": 0
        },
        {
            "name": "Fiumei",
            "kind": "utca",
            "post_code": 0
        },
        {
            "name": "Fogl\u00e1r",
            "kind": "utca",
            "post_code": 0
        },
        {
            "name": "Foly\u00e1s",
            "kind": "utca",
            "post_code": 0
        },
        {
            "name": "Frank Tivadar",
            "kind": "utca",
            "post_code": 0
        },
        {
            "name": "F\u00fcgedy J\u00e1nos",
            "kind": "utca",
            "post_code": 0
        },
        {
            "name": "F\u00fcrd\u0151",
            "kind": "utca",
            "post_code": 0
        },
        {
            "name": "F\u00fcz\u00e9r",
            "kind": "utca",
            "post_code": 0
        },
        {
            "name": "Galagony\u00e1s",
            "kind": "utca",
            "post_code": 0
        },
        {
            "name": "Garay J\u00e1nos",
            "kind": "utca",
            "post_code": 0
        },
        {
            "name": "G\u00e1rdonyi G\u00e9za",
            "kind": "utca",
            "post_code": 0
        },
        {
            "name": "Gerinc",
            "kind": "utca",
            "post_code": 0
        },
        {
            "name": "Gerle",
            "kind": "k\u00f6z",
            "post_code": 0
        },
        {
            "name": "Gerl M\u00e1ty\u00e1s",
            "kind": "utca",
            "post_code": 0
        },
        {
            "name": "G\u00f3lya",
            "kind": "utca",
            "post_code": 0
        },
        {
            "name": "G\u00f6r\u00f6g",
            "kind": "utca",
            "post_code": 0
        },
        {
            "name": "Gorov\u00e9 L\u00e1szl\u00f3",
            "kind": "utca",
            "post_code": 0
        },
        {
            "name": "Gr\u00f3nay S\u00e1ndor",
            "kind": "utca",
            "post_code": 0
        },
        {
            "name": "Gy\u00f6ngy",
            "kind": "utca",
            "post_code": 0
        },
        {
            "name": "Gy\u00f3ni G\u00e9za",
            "kind": "utca",
            "post_code": 0
        },
        {
            "name": "Gyulafeh\u00e9rv\u00e1ri",
            "kind": "utca",
            "post_code": 0
        },
        {
            "name": "Hadnagy",
            "kind": "utca",
            "post_code": 0
        },
        {
            "name": "Hajd\u00fahegy",
            "kind": "utca",
            "post_code": 0
        },
        {
            "name": "Harangl\u00e1b",
            "kind": "utca",
            "post_code": 0
        },
        {
            "name": "Harang\u00f6nt\u0151",
            "kind": "utca",
            "post_code": 0
        },
        {
            "name": "H\u00e1rsfa",
            "kind": "utca",
            "post_code": 0
        },
        {
            "name": "Hatvanasezred",
            "kind": "utca",
            "post_code": 0
        },
        {
            "name": "Hatvani kapu",
            "kind": "t\u00e9r",
            "post_code": 0
        },
        {
            "name": "Hell Miksa",
            "kind": "utca",
            "post_code": 0
        },
        {
            "name": "H\u00e9t vez\u00e9r",
            "kind": "utca",
            "post_code": 0
        },
        {
            "name": "Hevesi S\u00e1ndor",
            "kind": "utca",
            "post_code": 0
        },
        {
            "name": "Hild J\u00f3zsef",
            "kind": "utca",
            "post_code": 0
        },
        {
            "name": "Homok",
            "kind": "utca",
            "post_code": 0
        },
        {
            "name": "Honfoglal\u00e1s",
            "kind": "utca",
            "post_code": 0
        },
        {
            "name": "Hontalan",
            "kind": "utca",
            "post_code": 0
        },
        {
            "name": "H\u0151s\u00f6k",
            "kind": "utca",
            "post_code": 0
        },
        {
            "name": "H\u00f3vir\u00e1g",
            "kind": "utca",
            "post_code": 0
        },
        {
            "name": "Ifj\u00fas\u00e1g",
            "kind": "utca",
            "post_code": 0
        },
        {
            "name": "Igl\u00f3i",
            "kind": "utca",
            "post_code": 0
        },
        {
            "name": "II. R\u00e1k\u00f3czi Ferenc",
            "kind": "\u00fat",
            "post_code": 0
        },
        {
            "name": "I. Istv\u00e1ny kir\u00e1ly",
            "kind": "utca",
            "post_code": 0
        },
        {
            "name": "\u00cdj",
            "kind": "k\u00f6z",
            "post_code": 0
        },
        {
            "name": "\u00cdj",
            "kind": "utca",
            "post_code": 0
        },
        {
            "name": "Ipartelepi",
            "kind": "k\u00f6z",
            "post_code": 0
        },
        {
            "name": "Ipolyi",
            "kind": "utca",
            "post_code": 0
        },
        {
            "name": "Iskola",
            "kind": "\u00fat",
            "post_code": 0
        },
        {
            "name": "\u00cdv",
            "kind": "utca",
            "post_code": 0
        },
        {
            "name": "Janics\u00e1r",
            "kind": "utca",
            "post_code": 0
        },
        {
            "name": "Jankovics Dezs\u0151",
            "kind": "utca",
            "post_code": 0
        },
        {
            "name": "J\u00f3kai M\u00f3r",
            "kind": "utca",
            "post_code": 0
        },
        {
            "name": "Jo\u00f3 J\u00e1nos",
            "kind": "utca",
            "post_code": 0
        },
        {
            "name": "J\u00f3zsef Attila",
            "kind": "k\u00f6z",
            "post_code": 0
        },
        {
            "name": "J\u00f3zsef Attila",
            "kind": "utca",
            "post_code": 0
        },
        {
            "name": "Kacsapart",
            "kind": "utca",
            "post_code": 0
        },
        {
            "name": "K\u00e1das G\u00e9za",
            "kind": "utca",
            "post_code": 0
        },
        {
            "name": "Kalcit",
            "kind": "k\u00f6z",
            "post_code": 0
        },
        {
            "name": "Kall\u00f3malom",
            "kind": "utca",
            "post_code": 0
        },
        {
            "name": "K\u00e1lnoky L\u00e1szl\u00f3",
            "kind": "utca",
            "post_code": 0
        },
        {
            "name": "Kandra Kabos",
            "kind": "utca",
            "post_code": 0
        },
        {
            "name": "Kap\u00e1s",
            "kind": "utca",
            "post_code": 0
        },
        {
            "name": "Kar\u00e9j",
            "kind": "utca",
            "post_code": 0
        },
        {
            "name": "K\u00e1rolyi Mih\u00e1ly",
            "kind": "utca",
            "post_code": 0
        },
        {
            "name": "K\u00e1rp\u00e1t",
            "kind": "utca",
            "post_code": 0
        },
        {
            "name": "Kassai",
            "kind": "utca",
            "post_code": 0
        },
        {
            "name": "Kazinczy Ferenc",
            "kind": "utca",
            "post_code": 0
        },
        {
            "name": "Keglevich Mikl\u00f3s",
            "kind": "utca",
            "post_code": 0
        },
        {
            "name": "Kertalja",
            "kind": "utca",
            "post_code": 0
        },
        {
            "name": "Kert\u00e9sz",
            "kind": "utca",
            "post_code": 0
        },
        {
            "name": "Kili\u00e1n Istv\u00e1n",
            "kind": "utca",
            "post_code": 0
        },
        {
            "name": "Kir\u00e1ly",
            "kind": "utca",
            "post_code": 0
        },
        {
            "name": "Kisasszony",
            "kind": "\u00fat",
            "post_code": 0
        },
        {
            "name": "Kisdelel\u0151",
            "kind": "utca",
            "post_code": 0
        },
        {
            "name": "Kis Dob\u00f3",
            "kind": "t\u00e9r",
            "post_code": 0
        },
        {
            "name": "Kis-Eged",
            "kind": "utca",
            "post_code": 0
        },
        {
            "name": "Kisfaludy S\u00e1ndor",
            "kind": "utca",
            "post_code": 0
        },
        {
            "name": "Kiskanda",
            "kind": "utca",
            "post_code": 0
        },
        {
            "name": "Kist\u00e1lyai",
            "kind": "\u00fat",
            "post_code": 0
        },
        {
            "name": "Kisv\u00f6lgy",
            "kind": "utca",
            "post_code": 0
        },
        {
            "name": "Klapka Gy\u00f6rgy",
            "kind": "utca",
            "post_code": 0
        },
        {
            "name": "Kn\u00e9zich K\u00e1roly",
            "kind": "utca",
            "post_code": 0
        },
        {
            "name": "Kocsis Bern\u00e1t",
            "kind": "utca",
            "post_code": 0
        },
        {
            "name": "Kod\u00e1ly Zolt\u00e1n",
            "kind": "utca",
            "post_code": 0
        },
        {
            "name": "Koh\u00e1ry Istv\u00e1n",
            "kind": "\u00fat",
            "post_code": 0
        },
        {
            "name": "K\u0151k\u00fat",
            "kind": "utca",
            "post_code": 0
        },
        {
            "name": "K\u00f6lcsey Ferenc",
            "kind": "t\u00e9r",
            "post_code": 0
        },
        {
            "name": "Kolozsv\u00e1ri",
            "kind": "utca",
            "post_code": 0
        },
        {
            "name": "K\u0151lyuktet\u0151i",
            "kind": "pincesor",
            "post_code": 0
        },
        {
            "name": "K\u0151lyuk",
            "kind": "\u00fat",
            "post_code": 0
        },
        {
            "name": "K\u00f6ny\u00f6k",
            "kind": "utca",
            "post_code": 0
        },
        {
            "name": "K\u0151poros",
            "kind": "t\u00e9r",
            "post_code": 0
        },
        {
            "name": "K\u00f6rm\u00f6cb\u00e1nyai",
            "kind": "utca",
            "post_code": 0
        },
        {
            "name": "Kossuth",
            "kind": "utca",
            "post_code": 0
        },
        {
            "name": "Koszor\u00fa",
            "kind": "utca",
            "post_code": 0
        },
        {
            "name": "K\u0151t\u0151",
            "kind": "utca",
            "post_code": 0
        },
        {
            "name": "K\u0151",
            "kind": "utca",
            "post_code": 0
        },
        {
            "name": "Kov\u00e1cs Jakab",
            "kind": "utca",
            "post_code": 0
        },
        {
            "name": "Kov\u00e1cs J\u00e1nos",
            "kind": "utca",
            "post_code": 0
        },
        {
            "name": "K\u0151v\u00e1g\u00f3",
            "kind": "t\u00e9r",
            "post_code": 0
        },
        {
            "name": "K\u00f6zt\u00e1rsas\u00e1g",
            "kind": "t\u00e9r",
            "post_code": 0
        },
        {
            "name": "Kracker J\u00e1nos",
            "kind": "utca",
            "post_code": 0
        },
        {
            "name": "Kracker",
            "kind": "udvar",
            "post_code": 0
        },
        {
            "name": "K\u00fcls\u0151sor",
            "kind": "utca",
            "post_code": 0
        },
        {
            "name": "L\u00e1gyas",
            "kind": "utca",
            "post_code": 0
        },
        {
            "name": "L\u00e1jer Dezs\u0151",
            "kind": "utca",
            "post_code": 0
        },
        {
            "name": "Lakatgy\u00e1r",
            "kind": "utca",
            "post_code": 0
        },
        {
            "name": "Laktanya",
            "kind": "utca",
            "post_code": 0
        },
        {
            "name": "Le\u00e1nyka",
            "kind": "utca",
            "post_code": 0
        },
        {
            "name": "Leg\u00e1nyi Ferenc",
            "kind": "utca",
            "post_code": 0
        },
        {
            "name": "Lejt\u0151",
            "kind": "utca",
            "post_code": 0
        },
        {
            "name": "Lenkei J\u00e1nos",
            "kind": "utca",
            "post_code": 0
        },
        {
            "name": "Liget",
            "kind": "utca",
            "post_code": 0
        },
        {
            "name": "Liszt Ferenc",
            "kind": "utca",
            "post_code": 0
        },
        {
            "name": "Litter\u00e1ti Tam\u00e1s",
            "kind": "utca",
            "post_code": 0
        },
        {
            "name": "L\u0151csei",
            "kind": "utca",
            "post_code": 0
        },
        {
            "name": "Losonczi",
            "kind": "v\u00f6lgy",
            "post_code": 0
        },
        {
            "name": "Lov\u00e1sz",
            "kind": "utca",
            "post_code": 0
        },
        {
            "name": "Lud\u00e1nyi Antal",
            "kind": "utca",
            "post_code": 0
        },
        {
            "name": "Maczky Val\u00e9r",
            "kind": "utca",
            "post_code": 0
        },
        {
            "name": "Mad\u00e1ch Imre",
            "kind": "utca",
            "post_code": 0
        },
        {
            "name": "Mad\u00e1rk\u00fat",
            "kind": "utca",
            "post_code": 0
        },
        {
            "name": "Makl\u00e1ri",
            "kind": "\u00fat",
            "post_code": 0
        },
        {
            "name": "Malom\u00e1rok",
            "kind": "utca",
            "post_code": 0
        },
        {
            "name": "Malom",
            "kind": "utca",
            "post_code": 0
        },
        {
            "name": "M\u00e1lyva",
            "kind": "utca",
            "post_code": 0
        },
        {
            "name": "M\u00e1ria",
            "kind": "utca",
            "post_code": 0
        },
        {
            "name": "Markhot Ferenc",
            "kind": "utca",
            "post_code": 0
        },
        {
            "name": "M\u00e1ty\u00e1s kir\u00e1ly",
            "kind": "\u00fat",
            "post_code": 0
        },
        {
            "name": "Mecset",
            "kind": "utca",
            "post_code": 0
        },
        {
            "name": "Meder",
            "kind": "utca",
            "post_code": 0
        },
        {
            "name": "Mekcsey Istv\u00e1n",
            "kind": "utca",
            "post_code": 0
        },
        {
            "name": "M\u00e9ly",
            "kind": "utca",
            "post_code": 0
        },
        {
            "name": "Menh\u00e1z",
            "kind": "utca",
            "post_code": 0
        },
        {
            "name": "Mereng\u0151",
            "kind": "utca",
            "post_code": 0
        },
        {
            "name": "Mester",
            "kind": "utca",
            "post_code": 0
        },
        {
            "name": "Mez\u0151hegyi",
            "kind": "\u00fat",
            "post_code": 0
        },
        {
            "name": "Mikes Kelemen",
            "kind": "utca",
            "post_code": 0
        },
        {
            "name": "Miksz\u00e1th K\u00e1lm\u00e1n",
            "kind": "utca",
            "post_code": 0
        },
        {
            "name": "Mlink\u00f3 M\u00e1ty\u00e1s",
            "kind": "",
            "post_code": 0
        },
        {
            "name": "Mocs\u00e1ry Lajos",
            "kind": "utca",
            "post_code": 0
        },
        {
            "name": "M\u00f3ricz Zsigmond",
            "kind": "",
            "post_code": 0
        },
        {
            "name": "Munk\u00e1csy Mih\u00e1ly",
            "kind": "utca",
            "post_code": 0
        },
        {
            "name": "Nagy-Eged",
            "kind": "utca",
            "post_code": 0
        },
        {
            "name": "Nagyk\u0151poros",
            "kind": "\u00fat",
            "post_code": 0
        },
        {
            "name": "Nagylapos",
            "kind": "utca",
            "post_code": 0
        },
        {
            "name": "Nagy L\u00e1szl\u00f3",
            "kind": "utca",
            "post_code": 0
        },
        {
            "name": "Nagyr\u00e9t",
            "kind": "utca",
            "post_code": 0
        },
        {
            "name": "Nagyv\u00e1radi",
            "kind": "utca",
            "post_code": 0
        },
        {
            "name": "Napsug\u00e1r",
            "kind": "k\u00f6z",
            "post_code": 0
        },
        {
            "name": "Napsug\u00e1r",
            "kind": "utca",
            "post_code": 0
        },
        {
            "name": "Nehezen j\u00e1rhat\u00f3!",
            "kind": "",
            "post_code": 0
        },
        {
            "name": "Neumayer",
            "kind": "utca",
            "post_code": 0
        },
        {
            "name": "Ny\u00edl",
            "kind": "utca",
            "post_code": 0
        },
        {
            "name": "Nyitrai",
            "kind": "utca",
            "post_code": 0
        },
        {
            "name": "Olasz",
            "kind": "utca",
            "post_code": 0
        },
        {
            "name": "Orgon\u00e1s",
            "kind": "t\u00e9r",
            "post_code": 0
        },
        {
            "name": "Ostorosi",
            "kind": "\u00fat",
            "post_code": 0
        },
        {
            "name": "Ostrom",
            "kind": "utca",
            "post_code": 0
        },
        {
            "name": "Pacsirta",
            "kind": "utca",
            "post_code": 0
        },
        {
            "name": "Pall\u00f3s",
            "kind": "utca",
            "post_code": 0
        },
        {
            "name": "Panor\u00e1ma",
            "kind": "t\u00e9r",
            "post_code": 0
        },
        {
            "name": "P\u00e1pay S\u00e1muel",
            "kind": "utca",
            "post_code": 0
        },
        {
            "name": "Paphegy",
            "kind": "utca",
            "post_code": 0
        },
        {
            "name": "Papkert",
            "kind": "utca",
            "post_code": 0
        },
        {
            "name": "Partos",
            "kind": "utca",
            "post_code": 0
        },
        {
            "name": "P\u00e1st",
            "kind": "utca",
            "post_code": 0
        },
        {
            "name": "P\u00e1sztorv\u00f6lgyi",
            "kind": "utca",
            "post_code": 0
        },
        {
            "name": "Patakpart",
            "kind": "utca",
            "post_code": 0
        },
        {
            "name": "P\u00e1zm\u00e1ny P\u00e9ter",
            "kind": "utca",
            "post_code": 0
        },
        {
            "name": "P\u00e1zsit",
            "kind": "utca",
            "post_code": 0
        },
        {
            "name": "Pet\u0151fi S\u00e1ndor",
            "kind": "t\u00e9r",
            "post_code": 0
        },
        {
            "name": "Pet\u0151fi S\u00e1ndor",
            "kind": "utca",
            "post_code": 0
        },
        {
            "name": "Pet\u0151 G\u00e1sp\u00e1r",
            "kind": "utca",
            "post_code": 0
        },
        {
            "name": "Piritty\u00f3",
            "kind": "utca",
            "post_code": 0
        },
        {
            "name": "Pori",
            "kind": "s\u00e9t\u00e1ny",
            "post_code": 0
        },
        {
            "name": "Posta",
            "kind": "k\u00f6z",
            "post_code": 0
        },
        {
            "name": "Pozsonyi",
            "kind": "utca",
            "post_code": 0
        },
        {
            "name": "Puky Mikl\u00f3s",
            "kind": "utca",
            "post_code": 0
        },
        {
            "name": "Pyrker",
            "kind": "t\u00e9r",
            "post_code": 0
        },
        {
            "name": "R\u00e1chegy",
            "kind": "utca",
            "post_code": 0
        },
        {
            "name": "R\u00e1ckapu",
            "kind": "t\u00e9r",
            "post_code": 0
        },
        {
            "name": "Radn\u00f3ti Mikl\u00f3s",
            "kind": "utca",
            "post_code": 0
        },
        {
            "name": "Rajner K\u00e1roly",
            "kind": "utca",
            "post_code": 0
        },
        {
            "name": "Rakt\u00e1r",
            "kind": "utca",
            "post_code": 0
        },
        {
            "name": "R\u00e9gi Cifrakapu",
            "kind": "utca",
            "post_code": 0
        },
        {
            "name": "Rem\u00e9nyi Ede",
            "kind": "t\u00e9r",
            "post_code": 0
        },
        {
            "name": "Remenyik Zsigmond",
            "kind": "utca",
            "post_code": 0
        },
        {
            "name": "Rezeda",
            "kind": "utca",
            "post_code": 0
        },
        {
            "name": "Rig\u00f3",
            "kind": "k\u00f6z",
            "post_code": 0
        },
        {
            "name": "R\u00f3kus",
            "kind": "k\u00f6z",
            "post_code": 0
        },
        {
            "name": "R\u00f3kus",
            "kind": "utca",
            "post_code": 0
        },
        {
            "name": "Rottenstein",
            "kind": "k\u00f6z",
            "post_code": 0
        },
        {
            "name": "R\u00f6vid",
            "kind": "utca",
            "post_code": 0
        },
        {
            "name": "Roz\u00e1lia",
            "kind": "k\u00f6z",
            "post_code": 0
        },
        {
            "name": "Roz\u00e1lia",
            "kind": "utca",
            "post_code": 0
        },
        {
            "name": "R\u00f3zsa K\u00e1roly",
            "kind": "utca",
            "post_code": 0
        },
        {
            "name": "R\u00f3zs\u00e1sd\u0171l\u0151",
            "kind": "utca",
            "post_code": 0
        },
        {
            "name": "R\u00f3zsa",
            "kind": "v\u00f6lgy",
            "post_code": 0
        },
        {
            "name": "Rozsny\u00f3i",
            "kind": "utca",
            "post_code": 0
        },
        {
            "name": "Rudiv\u00e1r",
            "kind": "utca",
            "post_code": 0
        },
        {
            "name": "S\u00e1ncalja",
            "kind": "utca",
            "post_code": 0
        },
        {
            "name": "S\u00e1nc",
            "kind": "k\u00f6z",
            "post_code": 0
        },
        {
            "name": "S\u00e1nc",
            "kind": "utca",
            "post_code": 0
        },
        {
            "name": "Sas",
            "kind": "utca",
            "post_code": 0
        },
        {
            "name": "Sasv\u00e1r",
            "kind": "utca",
            "post_code": 0
        },
        {
            "name": "Sertekapu",
            "kind": "utca",
            "post_code": 0
        },
        {
            "name": "S\u00edp",
            "kind": "k\u00f6z",
            "post_code": 0
        },
        {
            "name": "S\u00f3h\u00e1z",
            "kind": "utca",
            "post_code": 0
        },
        {
            "name": "S\u00f3lyom",
            "kind": "utca",
            "post_code": 0
        },
        {
            "name": "Stadion",
            "kind": "utca",
            "post_code": 0
        },
        {
            "name": "Sug\u00e1r Istv\u00e1n",
            "kind": "utca",
            "post_code": 0
        },
        {
            "name": "Szabadkai",
            "kind": "utca",
            "post_code": 0
        },
        {
            "name": "Szab\u00f3 Sebesty\u00e9n",
            "kind": "utca",
            "post_code": 0
        },
        {
            "name": "Szaicz Le\u00f3",
            "kind": "utca",
            "post_code": 0
        },
        {
            "name": "Szala",
            "kind": "k\u00f6z",
            "post_code": 0
        },
        {
            "name": "Szalapart",
            "kind": "utca",
            "post_code": 0
        },
        {
            "name": "Sz\u00e1lloda",
            "kind": "utca",
            "post_code": 0
        },
        {
            "name": "Szal\u00f3ki",
            "kind": "\u00fat",
            "post_code": 0
        },
        {
            "name": "Szarvas G\u00e1bor",
            "kind": "utca",
            "post_code": 0
        },
        {
            "name": "Szarvask\u0151i",
            "kind": "\u00fat",
            "post_code": 0
        },
        {
            "name": "Szarvas",
            "kind": "t\u00e9r",
            "post_code": 0
        },
        {
            "name": "Sz\u00e9chenyi Istv\u00e1n",
            "kind": "utca",
            "post_code": 0
        },
        {
            "name": "Szederk\u00e9nyi N\u00e1ndor",
            "kind": "utca",
            "post_code": 0
        },
        {
            "name": "Sz\u00e9kelyudvarhelyi",
            "kind": "utca",
            "post_code": 0
        },
        {
            "name": "Sz\u00e9lpart",
            "kind": "utca",
            "post_code": 0
        },
        {
            "name": "Sz\u00e9n\u00e1skert",
            "kind": "utca",
            "post_code": 0
        },
        {
            "name": "Sz\u00e9na",
            "kind": "t\u00e9r",
            "post_code": 0
        },
        {
            "name": "Szent J\u00e1nos",
            "kind": "utca",
            "post_code": 0
        },
        {
            "name": "Szent Mikl\u00f3s",
            "kind": "utca",
            "post_code": 0
        },
        {
            "name": "Sz\u00e9passzonyv\u00f6lgy",
            "kind": "utca",
            "post_code": 0
        },
        {
            "name": "Sz\u00e9r\u0171skert",
            "kind": "utca",
            "post_code": 0
        },
        {
            "name": "Szervita",
            "kind": "utca",
            "post_code": 0
        },
        {
            "name": "Szeszf\u0151zde",
            "kind": "utca",
            "post_code": 0
        },
        {
            "name": "Szkander b\u00e9g",
            "kind": "t\u00e9r",
            "post_code": 0
        },
        {
            "name": "Szol\u00e1rtsik S\u00e1ndor",
            "kind": "utca",
            "post_code": 0
        },
        {
            "name": "Sz\u0151l\u0151",
            "kind": "utca",
            "post_code": 0
        },
        {
            "name": "Sz\u0151l\u0151vir\u00e1g",
            "kind": "utca",
            "post_code": 0
        },
        {
            "name": "Sz\u00f6vetkezet",
            "kind": "utca",
            "post_code": 0
        },
        {
            "name": "Sz\u00fanyog",
            "kind": "k\u00f6z",
            "post_code": 0
        },
        {
            "name": "Sz\u00fcret",
            "kind": "utca",
            "post_code": 0
        },
        {
            "name": "Szvor\u00e9nyi",
            "kind": "utca",
            "post_code": 0
        },
        {
            "name": "Talizm\u00e1n",
            "kind": "utca",
            "post_code": 0
        },
        {
            "name": "T\u00e1ncsics Mih\u00e1ly",
            "kind": "s\u00e9t\u00e1ny",
            "post_code": 0
        },
        {
            "name": "T\u00e1rk\u00e1nyi B\u00e9la",
            "kind": "utca",
            "post_code": 0
        },
        {
            "name": "T\u00e1rk\u00e1nyi",
            "kind": "\u00fat",
            "post_code": 0
        },
        {
            "name": "T\u00e1tra",
            "kind": "utca",
            "post_code": 0
        },
        {
            "name": "Tavassy Antal",
            "kind": "utca",
            "post_code": 0
        },
        {
            "name": "Tavasz",
            "kind": "utca",
            "post_code": 0
        },
        {
            "name": "Telekessy Istv\u00e1n",
            "kind": "utca",
            "post_code": 0
        },
        {
            "name": "Telepi",
            "kind": "utca",
            "post_code": 0
        },
        {
            "name": "Temesv\u00e1ri",
            "kind": "utca",
            "post_code": 0
        },
        {
            "name": "Tetemv\u00e1r",
            "kind": "utca",
            "post_code": 0
        },
        {
            "name": "T\u00e9veszt\u0151",
            "kind": "k\u00f6z",
            "post_code": 0
        },
        {
            "name": "Tiba Istv\u00e1n",
            "kind": "utca",
            "post_code": 0
        },
        {
            "name": "Tibrik",
            "kind": "d\u0171l\u0151",
            "post_code": 0
        },
        {
            "name": "Tiham\u00e9ri",
            "kind": "\u00fat",
            "post_code": 0
        },
        {
            "name": "T\u00edm\u00e1r",
            "kind": "utca",
            "post_code": 0
        },
        {
            "name": "Tin\u00f3di Sebesty\u00e9n",
            "kind": "t\u00e9r",
            "post_code": 0
        },
        {
            "name": "Tin\u00f3di Sebesty\u00e9n",
            "kind": "utca",
            "post_code": 0
        },
        {
            "name": "Tittel P\u00e1l",
            "kind": "utca",
            "post_code": 0
        },
        {
            "name": "Tizeshonv\u00e9d",
            "kind": "utca",
            "post_code": 0
        },
        {
            "name": "T\u00f6lgy",
            "kind": "utca",
            "post_code": 0
        },
        {
            "name": "Tompa Mih\u00e1ly",
            "kind": "utca",
            "post_code": 0
        },
        {
            "name": "Tordai \u00c1nyos",
            "kind": "",
            "post_code": 0
        },
        {
            "name": "Torok",
            "kind": "k\u00f6z",
            "post_code": 0
        },
        {
            "name": "Torony",
            "kind": "utca",
            "post_code": 0
        },
        {
            "name": "T\u00f6rv\u00e9nyh\u00e1z",
            "kind": "\u00fat",
            "post_code": 0
        },
        {
            "name": "T\u00f6viskes",
            "kind": "t\u00e9r",
            "post_code": 0
        },
        {
            "name": "T\u00f6viskes",
            "kind": "utca",
            "post_code": 0
        },
        {
            "name": "Trinit\u00e1rius",
            "kind": "utca",
            "post_code": 0
        },
        {
            "name": "Tulip\u00e1nkert",
            "kind": "utca",
            "post_code": 0
        },
        {
            "name": "Tulip\u00e1n",
            "kind": "t\u00e9r",
            "post_code": 0
        },
        {
            "name": "T\u00fcnd\u00e9rpart",
            "kind": "utca",
            "post_code": 0
        },
        {
            "name": "T\u00fcrk Frigyes",
            "kind": "utca",
            "post_code": 0
        },
        {
            "name": "T\u0171zolt\u00f3",
            "kind": "t\u00e9r",
            "post_code": 0
        },
        {
            "name": "\u00dajsor",
            "kind": "utca",
            "post_code": 0
        },
        {
            "name": "V\u00e1ci Mih\u00e1ly",
            "kind": "utca",
            "post_code": 0
        },
        {
            "name": "Vadr\u00f3zsa",
            "kind": "utca",
            "post_code": 0
        },
        {
            "name": "Vajda J\u00e1nos",
            "kind": "utca",
            "post_code": 0
        },
        {
            "name": "Vak Botty\u00e1n",
            "kind": "utca",
            "post_code": 0
        },
        {
            "name": "Vallon",
            "kind": "utca",
            "post_code": 0
        },
        {
            "name": "V\u00e1mh\u00e1z",
            "kind": "utca",
            "post_code": 0
        },
        {
            "name": "V\u00e1rfal",
            "kind": "s\u00e9t\u00e1ny",
            "post_code": 0
        },
        {
            "name": "V\u00e1r",
            "kind": "k\u00f6z",
            "post_code": 0
        },
        {
            "name": "V\u00e1rosfal",
            "kind": "utca",
            "post_code": 0
        },
        {
            "name": "Vas\u00f6nt\u0151",
            "kind": "utca",
            "post_code": 0
        },
        {
            "name": "Vas\u00fat",
            "kind": "utca",
            "post_code": 0
        },
        {
            "name": "V\u00e9csey S\u00e1ndor",
            "kind": "utca",
            "post_code": 0
        },
        {
            "name": "V\u00e9csey-v\u00f6lgy",
            "kind": "utca",
            "post_code": 0
        },
        {
            "name": "V\u00e9cseyv\u00f6lgy",
            "kind": "utca",
            "post_code": 0
        },
        {
            "name": "Veres P\u00e9ter",
            "kind": "utca",
            "post_code": 0
        },
        {
            "name": "Ver\u0151szala",
            "kind": "utca",
            "post_code": 0
        },
        {
            "name": "Verseghy Ferenc",
            "kind": "utca",
            "post_code": 0
        },
        {
            "name": "Vincell\u00e9riskola",
            "kind": "utca",
            "post_code": 0
        },
        {
            "name": "Vitkovics Mih\u00e1ly",
            "kind": "utca",
            "post_code": 0
        },
        {
            "name": "V\u00edzimoln\u00e1r",
            "kind": "utca",
            "post_code": 0
        },
        {
            "name": "V\u00f6r\u00f6smarty Mih\u00e1ly",
            "kind": "\u00fat",
            "post_code": 0
        },
        {
            "name": "Zal\u00e1r J\u00f3zsef",
            "kind": "utca",
            "post_code": 0
        },
        {
            "name": "Zellerv\u00e1r",
            "kind": "utca",
            "post_code": 0
        },
        {
            "name": "Z\u00f6ldfa",
            "kind": "utca",
            "post_code": 0
        },
        {
            "name": "Zoltay Istv\u00e1n",
            "kind": "utca",
            "post_code": 0
        },
        {
            "name": "Z\u00f3lyomi",
            "kind": "utca",
            "post_code": 0
        },
        {
            "name": "Zombori",
            "kind": "utca",
            "post_code": 0
        },
        {
            "name": "Zseb",
            "kind": "k\u00f6z",
            "post_code": 0
        },
        {
            "name": "Z\u00fag\u00f3",
            "kind": "utca",
            "post_code": 0
        },
        {
            "name": "Dob\u00f3 Istv\u00e1n",
            "kind": "t\u00e9r",
            "post_code": 0
        },
        {
            "name": "G\u00e1rdonyi G\u00e9za",
            "kind": "t\u00e9r",
            "post_code": 0
        },
        {
            "name": "V\u00e9gv\u00e1ri vit\u00e9zek",
            "kind": "tere",
            "post_code": 0
        }
    ]
}