{
    "codes": {
        "9783": [
            "Egyh\u00e1zasr\u00e1d\u00f3c",
            null
        ]
    },
    "streets": [
        {
            "name": "B\u00e9ke",
            "kind": "utca",
            "post_code": 0
        },
        {
            "name": "G\u00e1bor \u00c1ron",
            "kind": "utca",
            "post_code": 0
        },
        {
            "name": "Hevesi \u00c1kos",
            "kind": "utca",
            "post_code": 0
        },
        {
            "name": "Kossuth Lajos",
            "kind": "utca",
            "post_code": 0
        },
        {
            "name": "M\u00e1t\u00e9fa",
            "kind": "utca",
            "post_code": 0
        },
        {
            "name": "Nefelejcs",
            "kind": "utca",
            "post_code": 0
        },
        {
            "name": "Pet\u0151fi S\u00e1ndor",
            "kind": "utca",
            "post_code": 0
        },
        {
            "name": "Szabads\u00e1g",
            "kind": "utca",
            "post_code": 0
        },
        {
            "name": "Szecs\u0151di",
            "kind": "utca",
            "post_code": 0
        },
        {
            "name": "Tan\u00e1rok",
            "kind": "utca",
            "post_code": 0
        },
        {
            "name": "Vash\u00eddmell\u00e9k",
            "kind": "utca",
            "post_code": 0
        }
    ]
}