{
    "codes": {
        "2500": [
            "Esztergom",
            " "
        ],
        "2508": [
            "Esztergom",
            "Pilisszentl\u00e9lek"
        ],
        "2509": [
            "Esztergom",
            "Kertv\u00e1ros"
        ]
    },
    "streets": [
        {
            "name": "48-as",
            "kind": "t\u00e9r",
            "post_code": 0
        },
        {
            "name": "\u00c1chim Andr\u00e1s",
            "kind": "utca",
            "post_code": 0
        },
        {
            "name": "Ady Endre",
            "kind": "utca",
            "post_code": 0
        },
        {
            "name": "\u00c1fony\u00e1s",
            "kind": "utca",
            "post_code": 0
        },
        {
            "name": "Ak\u00e1cos",
            "kind": "utca",
            "post_code": 0
        },
        {
            "name": "\u00c1kospalotai",
            "kind": "\u00fat",
            "post_code": 0
        },
        {
            "name": "Alig",
            "kind": "utca",
            "post_code": 0
        },
        {
            "name": "Almavir\u00e1g",
            "kind": "utca",
            "post_code": 0
        },
        {
            "name": "\u00c1lmos",
            "kind": "utca",
            "post_code": 0
        },
        {
            "name": "AMP",
            "kind": "\u00fat",
            "post_code": 0
        },
        {
            "name": "Andr\u00e1ssy",
            "kind": "utca",
            "post_code": 0
        },
        {
            "name": "Angyal",
            "kind": "utca",
            "post_code": 0
        },
        {
            "name": "Aradi v\u00e9rtan\u00fak",
            "kind": "tere",
            "post_code": 0
        },
        {
            "name": "Aranyes\u0151",
            "kind": "utca",
            "post_code": 0
        },
        {
            "name": "Aranyhalas",
            "kind": "utca",
            "post_code": 0
        },
        {
            "name": "Aranyhegyid\u0171l\u0151",
            "kind": "",
            "post_code": 0
        },
        {
            "name": "Aranyhegyi",
            "kind": "lak\u00f3park",
            "post_code": 0
        },
        {
            "name": "Aranyhegyi",
            "kind": "\u00fat",
            "post_code": 0
        },
        {
            "name": "Arany J\u00e1nos",
            "kind": "utca",
            "post_code": 0
        },
        {
            "name": "\u00c1rnyas",
            "kind": "utca",
            "post_code": 0
        },
        {
            "name": "\u00c1rok",
            "kind": "utca",
            "post_code": 0
        },
        {
            "name": "\u00c1rp\u00e1d",
            "kind": "utca",
            "post_code": 0
        },
        {
            "name": "\u00c1rvahegyi",
            "kind": "\u00fat",
            "post_code": 0
        },
        {
            "name": "\u00c1rv\u00edzv\u00e9delmi t\u00f6lt\u00e9s",
            "kind": "",
            "post_code": 0
        },
        {
            "name": "Attila",
            "kind": "utca",
            "post_code": 0
        },
        {
            "name": "Aulich Lajos",
            "kind": "utca",
            "post_code": 0
        },
        {
            "name": "Babits Mih\u00e1ly",
            "kind": "utca",
            "post_code": 0
        },
        {
            "name": "Bajcsy-Zsilinszky Endre",
            "kind": "\u00fat",
            "post_code": 0
        },
        {
            "name": "Bajnok",
            "kind": "utca",
            "post_code": 0
        },
        {
            "name": "Bajor \u00c1goston",
            "kind": "utca",
            "post_code": 0
        },
        {
            "name": "Baj\u00f3ti Simon",
            "kind": "utca",
            "post_code": 0
        },
        {
            "name": "Balassa B\u00e1lint",
            "kind": "utca",
            "post_code": 0
        },
        {
            "name": "Balassa",
            "kind": "k\u00f6z",
            "post_code": 0
        },
        {
            "name": "Bal\u00e1zs",
            "kind": "utca",
            "post_code": 0
        },
        {
            "name": "B\u00e1nfi Luk\u00e1cs",
            "kind": "\u00fat",
            "post_code": 0
        },
        {
            "name": "B\u00e1nomi",
            "kind": "d\u0171l\u0151",
            "post_code": 0
        },
        {
            "name": "B\u00e1nomi",
            "kind": "lak\u00f3telep",
            "post_code": 0
        },
        {
            "name": "B\u00e1nomi",
            "kind": "\u00fat",
            "post_code": 0
        },
        {
            "name": "B\u00e1nyai Korn\u00e9l",
            "kind": "utca",
            "post_code": 0
        },
        {
            "name": "Barackf\u00e1s",
            "kind": "utca",
            "post_code": 0
        },
        {
            "name": "Bar\u00e1tk\u00fat",
            "kind": "d\u0171l\u0151",
            "post_code": 0
        },
        {
            "name": "Bar\u00e1tki",
            "kind": "\u00fat",
            "post_code": 0
        },
        {
            "name": "Bark\u00f3czy Ferenc",
            "kind": "utca",
            "post_code": 0
        },
        {
            "name": "Baross G\u00e1bor",
            "kind": "\u00fat",
            "post_code": 0
        },
        {
            "name": "Bartik\u00fat",
            "kind": "d\u0171l\u0151",
            "post_code": 0
        },
        {
            "name": "Bart\u00f3k B\u00e9la",
            "kind": "utca",
            "post_code": 0
        },
        {
            "name": "Basa",
            "kind": "utca",
            "post_code": 0
        },
        {
            "name": "B\u00e1tori Schulcz B\u00f3dog",
            "kind": "utca",
            "post_code": 0
        },
        {
            "name": "Batthy\u00e1ny Lajos",
            "kind": "utca",
            "post_code": 0
        },
        {
            "name": "Beatrix kir\u00e1lyn\u00e9",
            "kind": "utca",
            "post_code": 0
        },
        {
            "name": "Becket Tam\u00e1s",
            "kind": "utca",
            "post_code": 0
        },
        {
            "name": "B\u00e9ke",
            "kind": "t\u00e9r",
            "post_code": 0
        },
        {
            "name": "Bem",
            "kind": "t\u00e9r",
            "post_code": 0
        },
        {
            "name": "Bercs\u00e9nyi",
            "kind": "sor",
            "post_code": 0
        },
        {
            "name": "Ber\u00e9nyi Zsigmond",
            "kind": "utca",
            "post_code": 0
        },
        {
            "name": "Besz\u00e9des S\u00e1ndor",
            "kind": "utca",
            "post_code": 0
        },
        {
            "name": "Besze J\u00e1nos",
            "kind": "utca",
            "post_code": 0
        },
        {
            "name": "B\u00edr\u00f3r\u00e9ti",
            "kind": "\u00fat",
            "post_code": 0
        },
        {
            "name": "Blaha Lujza",
            "kind": "utca",
            "post_code": 0
        },
        {
            "name": "Bocskai  \/ Patak",
            "kind": "sor",
            "post_code": 0
        },
        {
            "name": "Bocskoroski",
            "kind": "\u00fat",
            "post_code": 0
        },
        {
            "name": "Bokr\u00e9ta",
            "kind": "utca",
            "post_code": 0
        },
        {
            "name": "Boldog \u00d6zs\u00e9b",
            "kind": "utca",
            "post_code": 0
        },
        {
            "name": "Borosty\u00e1n",
            "kind": "k\u00f6z",
            "post_code": 0
        },
        {
            "name": "Borzhegy",
            "kind": "d\u0171l\u0151",
            "post_code": 0
        },
        {
            "name": "Botty\u00e1n h\u00edd",
            "kind": "",
            "post_code": 0
        },
        {
            "name": "Botty\u00e1n J\u00e1nos",
            "kind": "utca",
            "post_code": 0
        },
        {
            "name": "Budai Nagy Antal",
            "kind": "utca",
            "post_code": 0
        },
        {
            "name": "Budapesti",
            "kind": "utca",
            "post_code": 0
        },
        {
            "name": "B\u00fckkfa",
            "kind": "utca",
            "post_code": 0
        },
        {
            "name": "Cickafark",
            "kind": "utca",
            "post_code": 0
        },
        {
            "name": "Cinege",
            "kind": "utca",
            "post_code": 0
        },
        {
            "name": "Csajkavir\u00e1g",
            "kind": "utca",
            "post_code": 0
        },
        {
            "name": "Csatai Szab\u00f3 J\u00e1nos",
            "kind": "utca",
            "post_code": 0
        },
        {
            "name": "Csendes v\u00f6lgy",
            "kind": "utca",
            "post_code": 0
        },
        {
            "name": "Csenkei H\u00edd",
            "kind": "",
            "post_code": 0
        },
        {
            "name": "Csenkei H\u00edd",
            "kind": "d\u0171l\u0151",
            "post_code": 0
        },
        {
            "name": "Csenkei",
            "kind": "utca",
            "post_code": 0
        },
        {
            "name": "Csereszny\u00e9s",
            "kind": "utca",
            "post_code": 0
        },
        {
            "name": "Csillag",
            "kind": "t\u00e9r",
            "post_code": 0
        },
        {
            "name": "Csonka",
            "kind": "utca",
            "post_code": 0
        },
        {
            "name": "Czuczor Gergely",
            "kind": "utca",
            "post_code": 0
        },
        {
            "name": "Damjanich",
            "kind": "utca",
            "post_code": 0
        },
        {
            "name": "Dankhegy",
            "kind": "d\u0171l\u0151",
            "post_code": 0
        },
        {
            "name": "De\u00e1k Ferenc",
            "kind": "utca",
            "post_code": 0
        },
        {
            "name": "Dessewffy Arisztid",
            "kind": "utca",
            "post_code": 0
        },
        {
            "name": "Dobog\u00f3k\u0151i",
            "kind": "\u00fat",
            "post_code": 0
        },
        {
            "name": "Dobog\u00f3k\u0151i",
            "kind": "utca",
            "post_code": 0
        },
        {
            "name": "Dobog\u00f3k\u0151i v\u00f6lgyh\u00edd",
            "kind": "",
            "post_code": 0
        },
        {
            "name": "Dob\u00f3 Istv\u00e1n",
            "kind": "utca",
            "post_code": 0
        },
        {
            "name": "D\u00f6b\u00f6nk\u00fati",
            "kind": "d\u0171l\u0151",
            "post_code": 0
        },
        {
            "name": "D\u00f6b\u00f6nki",
            "kind": "\u00fat",
            "post_code": 0
        },
        {
            "name": "Dobozi Mih\u00e1ly",
            "kind": "utca",
            "post_code": 0
        },
        {
            "name": "Dolgoz\u00f3i",
            "kind": "parkol\u00f3",
            "post_code": 0
        },
        {
            "name": "Dorogi",
            "kind": "\u00fat",
            "post_code": 0
        },
        {
            "name": "D\u00f3zsa Gy\u00f6rgy",
            "kind": "k\u00f6z",
            "post_code": 0
        },
        {
            "name": "D\u00f3zsa Gy\u00f6rgy",
            "kind": "t\u00e9r",
            "post_code": 0
        },
        {
            "name": "Dr. B\u00e1dy Istv\u00e1n",
            "kind": "utca",
            "post_code": 0
        },
        {
            "name": "Dr. Niedermann Gyula",
            "kind": "utca",
            "post_code": 0
        },
        {
            "name": "Duna",
            "kind": "d\u0171l\u0151",
            "post_code": 0
        },
        {
            "name": "Dunak\u00f6z",
            "kind": "utca",
            "post_code": 0
        },
        {
            "name": "Duna",
            "kind": "utca",
            "post_code": 0
        },
        {
            "name": "Einczinger Ferenc",
            "kind": "k\u00f6z",
            "post_code": 0
        },
        {
            "name": "El\u0151hegy",
            "kind": "k\u00f6z",
            "post_code": 0
        },
        {
            "name": "E\u00f6tv\u00f6s J\u00f3zsef",
            "kind": "utca",
            "post_code": 0
        },
        {
            "name": "Eperjesi",
            "kind": "utca",
            "post_code": 0
        },
        {
            "name": "Eper",
            "kind": "utca",
            "post_code": 0
        },
        {
            "name": "Erkel Ferenc",
            "kind": "utca",
            "post_code": 0
        },
        {
            "name": "Erzs\u00e9bet kir\u00e1lyn\u00e9",
            "kind": "utca",
            "post_code": 0
        },
        {
            "name": "Esze Tam\u00e1s",
            "kind": "utca",
            "post_code": 0
        },
        {
            "name": "Eszperant\u00f3",
            "kind": "utca",
            "post_code": 0
        },
        {
            "name": "Etter Jen\u0151",
            "kind": "utca",
            "post_code": 0
        },
        {
            "name": "F\u00e1c\u00e1n",
            "kind": "utca",
            "post_code": 0
        },
        {
            "name": "Fakop\u00e1ncs",
            "kind": "utca",
            "post_code": 0
        },
        {
            "name": "F\u00e1riki",
            "kind": "\u00fat",
            "post_code": 0
        },
        {
            "name": "Fecske",
            "kind": "utca",
            "post_code": 0
        },
        {
            "name": "Feh\u00e9rl\u00f3",
            "kind": "",
            "post_code": 0
        },
        {
            "name": "F\u00e9ja G\u00e9za",
            "kind": "utca",
            "post_code": 0
        },
        {
            "name": "Fels\u0151-Kenderes",
            "kind": "d\u0171l\u0151",
            "post_code": 0
        },
        {
            "name": "Fenyves",
            "kind": "utca",
            "post_code": 0
        },
        {
            "name": "Ferenczy B\u00e9ni",
            "kind": "utca",
            "post_code": 0
        },
        {
            "name": "F\u0151ap\u00e1t",
            "kind": "utca",
            "post_code": 0
        },
        {
            "name": "F\u00f6ldm\u0171ves",
            "kind": "utca",
            "post_code": 0
        },
        {
            "name": "Fordul\u00f3",
            "kind": "",
            "post_code": 0
        },
        {
            "name": "Forr\u00e1s",
            "kind": "\u00fat",
            "post_code": 0
        },
        {
            "name": "F\u0171zfa",
            "kind": "utca",
            "post_code": 0
        },
        {
            "name": "G\u00e1bor \u00c1ron",
            "kind": "utca",
            "post_code": 0
        },
        {
            "name": "Galagony\u00e1s",
            "kind": "\u00fat",
            "post_code": 0
        },
        {
            "name": "Galamb",
            "kind": "utca",
            "post_code": 0
        },
        {
            "name": "Garam",
            "kind": "utca",
            "post_code": 0
        },
        {
            "name": "G\u00e1rdonyi G\u00e9za",
            "kind": "utca",
            "post_code": 0
        },
        {
            "name": "Gesztenye",
            "kind": "fasor",
            "post_code": 0
        },
        {
            "name": "Geszteny\u00e9s",
            "kind": "utca",
            "post_code": 0
        },
        {
            "name": "G\u00e9za fejedelem",
            "kind": "utca",
            "post_code": 0
        },
        {
            "name": "Gizella kir\u00e1lyn\u00e9",
            "kind": "utca",
            "post_code": 0
        },
        {
            "name": "G\u0151zhaj\u00f3",
            "kind": "utca",
            "post_code": 0
        },
        {
            "name": "Gyepmester",
            "kind": "telep",
            "post_code": 0
        },
        {
            "name": "Gyep",
            "kind": "utca",
            "post_code": 0
        },
        {
            "name": "Gyurgyalag",
            "kind": "d\u0171l\u0151",
            "post_code": 0
        },
        {
            "name": "Gyurgyalag",
            "kind": "utca",
            "post_code": 0
        },
        {
            "name": "Hajnal",
            "kind": "utca",
            "post_code": 0
        },
        {
            "name": "Halast\u00f3",
            "kind": "\u00fat",
            "post_code": 0
        },
        {
            "name": "Harangvir\u00e1g",
            "kind": "utca",
            "post_code": 0
        },
        {
            "name": "H\u00e1rsfa",
            "kind": "utca",
            "post_code": 0
        },
        {
            "name": "Hat\u00e1r",
            "kind": "\u00fat",
            "post_code": 0
        },
        {
            "name": "Hegyalja",
            "kind": "\u00fat",
            "post_code": 0
        },
        {
            "name": "Hegyalja",
            "kind": "utca",
            "post_code": 0
        },
        {
            "name": "Hegytet\u0151",
            "kind": "utca",
            "post_code": 0
        },
        {
            "name": "Hegy",
            "kind": "utca",
            "post_code": 0
        },
        {
            "name": "Helischer J\u00f3zsef",
            "kind": "utca",
            "post_code": 0
        },
        {
            "name": "Hell J\u00f3zsef K\u00e1roly",
            "kind": "utca",
            "post_code": 0
        },
        {
            "name": "H\u00e9t vez\u00e9r",
            "kind": "utca",
            "post_code": 0
        },
        {
            "name": "Hild J\u00f3zsef",
            "kind": "utca",
            "post_code": 0
        },
        {
            "name": "Holopk\u00fat",
            "kind": "d\u0171l\u0151",
            "post_code": 0
        },
        {
            "name": "Homok",
            "kind": "d\u0171l\u0151",
            "post_code": 0
        },
        {
            "name": "Homok",
            "kind": "utca",
            "post_code": 0
        },
        {
            "name": "Honv\u00e9dtemet\u0151",
            "kind": "utca",
            "post_code": 0
        },
        {
            "name": "Honv\u00e9d",
            "kind": "utca",
            "post_code": 0
        },
        {
            "name": "Horv\u00e1th G\u00e9za",
            "kind": "sor",
            "post_code": 0
        },
        {
            "name": "H\u0151s\u00f6k",
            "kind": "tere",
            "post_code": 0
        },
        {
            "name": "Hossz\u00fav\u00f6lgy",
            "kind": "utca",
            "post_code": 0
        },
        {
            "name": "H\u0151t\u00e1v",
            "kind": "utca",
            "post_code": 0
        },
        {
            "name": "Hunyadi J\u00e1nos",
            "kind": "utca",
            "post_code": 0
        },
        {
            "name": "Hunyadi",
            "kind": "k\u00f6z",
            "post_code": 0
        },
        {
            "name": "Ibolya",
            "kind": "utca",
            "post_code": 0
        },
        {
            "name": "III. B\u00e9la kir\u00e1ly",
            "kind": "utca",
            "post_code": 0
        },
        {
            "name": "Imah\u00e1z",
            "kind": "utca",
            "post_code": 0
        },
        {
            "name": "Ipolyi Arnold",
            "kind": "utca",
            "post_code": 0
        },
        {
            "name": "Ir\u00e1nyi D\u00e1niel",
            "kind": "utca",
            "post_code": 0
        },
        {
            "name": "Irinyi J\u00e1nos",
            "kind": "utca",
            "post_code": 0
        },
        {
            "name": "Iskola",
            "kind": "utca",
            "post_code": 0
        },
        {
            "name": "IV. B\u00e9la kir\u00e1ly",
            "kind": "utca",
            "post_code": 0
        },
        {
            "name": "J\u00e1noski",
            "kind": "\u00fat",
            "post_code": 0
        },
        {
            "name": "J\u00e1zmin",
            "kind": "utca",
            "post_code": 0
        },
        {
            "name": "J\u00f3kai M\u00f3r",
            "kind": "utca",
            "post_code": 0
        },
        {
            "name": "J\u00f3p\u00e1sztor",
            "kind": "utca",
            "post_code": 0
        },
        {
            "name": "J\u00f3sika",
            "kind": "utca",
            "post_code": 0
        },
        {
            "name": "J\u00f3zsef Attila",
            "kind": "t\u00e9r",
            "post_code": 0
        },
        {
            "name": "Julianus bar\u00e1t",
            "kind": "utca",
            "post_code": 0
        },
        {
            "name": "Ka\u00e1n",
            "kind": "\u00fat",
            "post_code": 0
        },
        {
            "name": "K\u00e1l\u00e1m forr\u00e1s",
            "kind": "k\u00f6z",
            "post_code": 0
        },
        {
            "name": "K\u00e1lv\u00e1ria",
            "kind": "",
            "post_code": 0
        },
        {
            "name": "K\u00e1lv\u00e1ria",
            "kind": "\u00fat",
            "post_code": 0
        },
        {
            "name": "K\u00e1polna",
            "kind": "utca",
            "post_code": 0
        },
        {
            "name": "Kapu",
            "kind": "k\u00f6z",
            "post_code": 0
        },
        {
            "name": "Kassai",
            "kind": "utca",
            "post_code": 0
        },
        {
            "name": "Katona Istv\u00e1n",
            "kind": "utca",
            "post_code": 0
        },
        {
            "name": "Kenderesi",
            "kind": "utca",
            "post_code": 0
        },
        {
            "name": "Keny\u00e9rmez\u0151",
            "kind": "utca",
            "post_code": 0
        },
        {
            "name": "Kert\u00e9sz",
            "kind": "utca",
            "post_code": 0
        },
        {
            "name": "Keszt\u00f6lci",
            "kind": "\u00fat",
            "post_code": 0
        },
        {
            "name": "K\u00e9t ember",
            "kind": "\u00fatja",
            "post_code": 0
        },
        {
            "name": "Kett\u0151spince",
            "kind": "sor",
            "post_code": 0
        },
        {
            "name": "Kincses patak",
            "kind": "utca",
            "post_code": 0
        },
        {
            "name": "Kincses",
            "kind": "utca",
            "post_code": 0
        },
        {
            "name": "Kinizsi P\u00e1l",
            "kind": "utca",
            "post_code": 0
        },
        {
            "name": "Kir\u00e1lysz\u00edve",
            "kind": "utca",
            "post_code": 0
        },
        {
            "name": "Kis-Duna",
            "kind": "s\u00e9t\u00e1ny",
            "post_code": 0
        },
        {
            "name": "Kiss Ern\u0151",
            "kind": "utca",
            "post_code": 0
        },
        {
            "name": "Kiss J\u00e1nos alt\u00e1bornagy",
            "kind": "\u00fat",
            "post_code": 0
        },
        {
            "name": "Kist\u00f3i",
            "kind": "utca",
            "post_code": 0
        },
        {
            "name": "Klapka Gy\u00f6rgy",
            "kind": "t\u00e9r",
            "post_code": 0
        },
        {
            "name": "Kn\u00e9zich K\u00e1roly",
            "kind": "utca",
            "post_code": 0
        },
        {
            "name": "Knorr J\u00e1nos",
            "kind": "utca",
            "post_code": 0
        },
        {
            "name": "K\u00f6k\u00e9nyes",
            "kind": "utca",
            "post_code": 0
        },
        {
            "name": "K\u00f6lcsey Ferenc",
            "kind": "utca",
            "post_code": 0
        },
        {
            "name": "Koll\u00e9gium",
            "kind": "k\u00f6z",
            "post_code": 0
        },
        {
            "name": "Kolozsv\u00e1ri",
            "kind": "utca",
            "post_code": 0
        },
        {
            "name": "K\u00f6ny\u00f6k",
            "kind": "utca",
            "post_code": 0
        },
        {
            "name": "Kop\u00e1csy J\u00f3zsef",
            "kind": "utca",
            "post_code": 0
        },
        {
            "name": "K\u0151r\u00f6si Csoma S\u00e1ndor",
            "kind": "utca",
            "post_code": 0
        },
        {
            "name": "K\u0151r\u00f6sy L\u00e1szl\u00f3",
            "kind": "utca",
            "post_code": 0
        },
        {
            "name": "K\u00f6rt\u00e9lyes",
            "kind": "utca",
            "post_code": 0
        },
        {
            "name": "Kosbor",
            "kind": "utca",
            "post_code": 0
        },
        {
            "name": "Kossuth h\u00edd",
            "kind": "",
            "post_code": 0
        },
        {
            "name": "Kossuth Lajos",
            "kind": "utca",
            "post_code": 0
        },
        {
            "name": "Kov\u00e1csi",
            "kind": "utca",
            "post_code": 0
        },
        {
            "name": "K\u00f6ves",
            "kind": "utca",
            "post_code": 0
        },
        {
            "name": "K\u00f6z",
            "kind": "",
            "post_code": 0
        },
        {
            "name": "K\u00fcls\u0151 B\u00e1nomi",
            "kind": "\u00fat",
            "post_code": 0
        },
        {
            "name": "Lahner Gy\u00f6rgy",
            "kind": "utca",
            "post_code": 0
        },
        {
            "name": "Lakatos Judit",
            "kind": "utca",
            "post_code": 0
        },
        {
            "name": "Lak\u00f3telep",
            "kind": "",
            "post_code": 0
        },
        {
            "name": "L\u00e1t\u00f3hegyi",
            "kind": "\u00fat",
            "post_code": 0
        },
        {
            "name": "L\u00e1z\u00e1r Vilmos",
            "kind": "utca",
            "post_code": 0
        },
        {
            "name": "Leiningen K\u00e1roly",
            "kind": "utca",
            "post_code": 0
        },
        {
            "name": "Len",
            "kind": "utca",
            "post_code": 0
        },
        {
            "name": "L\u00e9pcs\u0151",
            "kind": "utca",
            "post_code": 0
        },
        {
            "name": "Lippert J\u00f3zsef",
            "kind": "utca",
            "post_code": 0
        },
        {
            "name": "Liszt Ferenc",
            "kind": "utca",
            "post_code": 0
        },
        {
            "name": "L\u00f3gat\u00f3",
            "kind": "\u00fat",
            "post_code": 0
        },
        {
            "name": "Lombos",
            "kind": "utca",
            "post_code": 0
        },
        {
            "name": "L\u0151rinc",
            "kind": "utca",
            "post_code": 0
        },
        {
            "name": "L\u0151t\u00e9r",
            "kind": "utca",
            "post_code": 0
        },
        {
            "name": "Macskal\u00e9pcs\u0151",
            "kind": "",
            "post_code": 0
        },
        {
            "name": "Mad\u00e1ch Imre",
            "kind": "t\u00e9r",
            "post_code": 0
        },
        {
            "name": "Magyar",
            "kind": "utca",
            "post_code": 0
        },
        {
            "name": "Magyary L\u00e1szl\u00f3",
            "kind": "utca",
            "post_code": 0
        },
        {
            "name": "Majer Istv\u00e1n",
            "kind": "\u00fat",
            "post_code": 0
        },
        {
            "name": "Major",
            "kind": "",
            "post_code": 0
        },
        {
            "name": "Malom",
            "kind": "utca",
            "post_code": 0
        },
        {
            "name": "Malonyai",
            "kind": "utca",
            "post_code": 0
        },
        {
            "name": "Margar\u00e9ta",
            "kind": "utca",
            "post_code": 0
        },
        {
            "name": "M\u00e1ria Val\u00e9ria h\u00edd",
            "kind": "",
            "post_code": 0
        },
        {
            "name": "Martsa Alajos",
            "kind": "utca",
            "post_code": 0
        },
        {
            "name": "Mathy\u00e1sz J\u00e1nos",
            "kind": "utca",
            "post_code": 0
        },
        {
            "name": "M\u00e1ty\u00e1s Kir\u00e1ly",
            "kind": "\u00fat",
            "post_code": 0
        },
        {
            "name": "M\u00e1ty\u00e1s kir\u00e1ly",
            "kind": "utca",
            "post_code": 0
        },
        {
            "name": "Matyasovszky",
            "kind": "utca",
            "post_code": 0
        },
        {
            "name": "Meggyf\u00e1s",
            "kind": "\u00fat",
            "post_code": 0
        },
        {
            "name": "M\u00e9ly",
            "kind": "\u00fat",
            "post_code": 0
        },
        {
            "name": "M\u00e9nesv\u00f6lgyi",
            "kind": "utca",
            "post_code": 0
        },
        {
            "name": "Mesz\u00e9na",
            "kind": "utca",
            "post_code": 0
        },
        {
            "name": "Mikes Kelemen",
            "kind": "utca",
            "post_code": 0
        },
        {
            "name": "Miksz\u00e1th K\u00e1lm\u00e1n",
            "kind": "utca",
            "post_code": 0
        },
        {
            "name": "Mindszenty hercegpr\u00edm\u00e1s",
            "kind": "tere",
            "post_code": 0
        },
        {
            "name": "Moh\u00e1csy M\u00e1ty\u00e1s",
            "kind": "k\u00f6z",
            "post_code": 0
        },
        {
            "name": "Moln\u00e1r",
            "kind": "sor",
            "post_code": 0
        },
        {
            "name": "Monteverdi",
            "kind": "utca",
            "post_code": 0
        },
        {
            "name": "M\u00f3ricz Zsigmond",
            "kind": "utca",
            "post_code": 0
        },
        {
            "name": "Musk\u00e1tli",
            "kind": "utca",
            "post_code": 0
        },
        {
            "name": "Nagy Duna",
            "kind": "s\u00e9t\u00e1ny",
            "post_code": 0
        },
        {
            "name": "Nagy S\u00e1ndor J\u00f3zsef",
            "kind": "utca",
            "post_code": 0
        },
        {
            "name": "Nap",
            "kind": "utca",
            "post_code": 0
        },
        {
            "name": "Nefelejcs",
            "kind": "utca",
            "post_code": 0
        },
        {
            "name": "N\u00e9meth L\u00e1szl\u00f3",
            "kind": "utca",
            "post_code": 0
        },
        {
            "name": "N\u00e9pkert",
            "kind": "utca",
            "post_code": 0
        },
        {
            "name": "Nevesincs",
            "kind": "k\u00f6z",
            "post_code": 0
        },
        {
            "name": "Nyaktekercs",
            "kind": "utca",
            "post_code": 0
        },
        {
            "name": "Ny\u00e1rfa",
            "kind": "k\u00f6z",
            "post_code": 0
        },
        {
            "name": "Ny\u00edrfa",
            "kind": "k\u00f6z",
            "post_code": 0
        },
        {
            "name": "Nyitrai",
            "kind": "utca",
            "post_code": 0
        },
        {
            "name": "\u00d6k\u00f6rszem",
            "kind": "utca",
            "post_code": 0
        },
        {
            "name": "Olt\u00f3ssy P\u00e1l",
            "kind": "utca",
            "post_code": 0
        },
        {
            "name": "Orgona",
            "kind": "utca",
            "post_code": 0
        },
        {
            "name": "\u0150rtorony",
            "kind": "utca",
            "post_code": 0
        },
        {
            "name": "\u00d3voda",
            "kind": "",
            "post_code": 0
        },
        {
            "name": "Pala",
            "kind": "part",
            "post_code": 0
        },
        {
            "name": "Palkovics K\u00e1roly",
            "kind": "utca",
            "post_code": 0
        },
        {
            "name": "P\u00e1losok",
            "kind": "utc\u00e1ja",
            "post_code": 0
        },
        {
            "name": "Papnevelde",
            "kind": "utca",
            "post_code": 0
        },
        {
            "name": "P\u00e1rk\u00e1nyi",
            "kind": "utca",
            "post_code": 0
        },
        {
            "name": "Pataksor als\u00f3",
            "kind": "",
            "post_code": 0
        },
        {
            "name": "P\u00e1zm\u00e1ny P\u00e9ter",
            "kind": "utca",
            "post_code": 0
        },
        {
            "name": "Perc",
            "kind": "utca",
            "post_code": 0
        },
        {
            "name": "Pet\u0151fi S\u00e1ndor",
            "kind": "utca",
            "post_code": 0
        },
        {
            "name": "Petz testv\u00e9rek",
            "kind": "utca",
            "post_code": 0
        },
        {
            "name": "Pifk\u00f3 P\u00e9ter",
            "kind": "utca",
            "post_code": 0
        },
        {
            "name": "Pilismar\u00f3ti",
            "kind": "\u00fat",
            "post_code": 0
        },
        {
            "name": "Poeltenberg Ern\u0151",
            "kind": "utca",
            "post_code": 0
        },
        {
            "name": "P\u00f3r Antal",
            "kind": "t\u00e9r",
            "post_code": 0
        },
        {
            "name": "Post\u00e1s",
            "kind": "\u00fat",
            "post_code": 0
        },
        {
            "name": "Pozsonyi",
            "kind": "utca",
            "post_code": 0
        },
        {
            "name": "R\u00e1k\u00f3czi",
            "kind": "t\u00e9r",
            "post_code": 0
        },
        {
            "name": "Regiomontanus",
            "kind": "utca",
            "post_code": 0
        },
        {
            "name": "R\u00e9gi P+",
            "kind": "",
            "post_code": 0
        },
        {
            "name": "R\u00e9nyi Rezs\u0151",
            "kind": "utca",
            "post_code": 0
        },
        {
            "name": "Retek",
            "kind": "utca",
            "post_code": 0
        },
        {
            "name": "R\u00e9tkert",
            "kind": "utca",
            "post_code": 0
        },
        {
            "name": "R\u00e9v\u00e9sz B\u00e9la",
            "kind": "utca",
            "post_code": 0
        },
        {
            "name": "Rezeda",
            "kind": "utca",
            "post_code": 0
        },
        {
            "name": "Rimay J\u00e1nos",
            "kind": "utca",
            "post_code": 0
        },
        {
            "name": "R\u00f3mai",
            "kind": "\u00fat",
            "post_code": 0
        },
        {
            "name": "R\u00f6vid",
            "kind": "utca",
            "post_code": 0
        },
        {
            "name": "Roz\u00e1lia",
            "kind": "utca",
            "post_code": 0
        },
        {
            "name": "Rozetti L\u00e1z\u00e1r di\u00e1k",
            "kind": "utca",
            "post_code": 0
        },
        {
            "name": "R\u00f3zsa",
            "kind": "utca",
            "post_code": 0
        },
        {
            "name": "Rubik Ern\u0151",
            "kind": "t\u00e9r",
            "post_code": 0
        },
        {
            "name": "Rubik Ern\u0151",
            "kind": "utca",
            "post_code": 0
        },
        {
            "name": "Rudnai Moln\u00e1r Istv\u00e1n",
            "kind": "utca",
            "post_code": 0
        },
        {
            "name": "Rudnay S\u00e1ndor",
            "kind": "t\u00e9r",
            "post_code": 0
        },
        {
            "name": "S\u00e1gv\u00e1ri",
            "kind": "telep",
            "post_code": 0
        },
        {
            "name": "S\u00e1nc",
            "kind": "utca",
            "post_code": 0
        },
        {
            "name": "S\u00e1s",
            "kind": "utca",
            "post_code": 0
        },
        {
            "name": "S\u00e1tork\u0151i",
            "kind": "\u00fat",
            "post_code": 0
        },
        {
            "name": "Schalkh\u00e1z Ferenc",
            "kind": "utca",
            "post_code": 0
        },
        {
            "name": "Schleiffer M\u00e1ty\u00e1s",
            "kind": "utca",
            "post_code": 0
        },
        {
            "name": "Schweidel J\u00f3zsef",
            "kind": "utca",
            "post_code": 0
        },
        {
            "name": "Semmelweis",
            "kind": "utca",
            "post_code": 0
        },
        {
            "name": "Simor J\u00e1nos",
            "kind": "utca",
            "post_code": 0
        },
        {
            "name": "Sissay",
            "kind": "k\u00f6z",
            "post_code": 0
        },
        {
            "name": "Siszler",
            "kind": "utca",
            "post_code": 0
        },
        {
            "name": "Sobieski",
            "kind": "s\u00e9t\u00e1ny",
            "post_code": 0
        },
        {
            "name": "S\u00f6t\u00e9tkapu",
            "kind": "",
            "post_code": 0
        },
        {
            "name": "Spar",
            "kind": "parkol\u00f3",
            "post_code": 0
        },
        {
            "name": "Sport",
            "kind": "utca",
            "post_code": 0
        },
        {
            "name": "Str\u00e1zsa",
            "kind": "\u00fat",
            "post_code": 0
        },
        {
            "name": "Sug\u00e1r",
            "kind": "\u00fat",
            "post_code": 0
        },
        {
            "name": "Szab\u00f3 Erna",
            "kind": "utca",
            "post_code": 0
        },
        {
            "name": "Szal\u00e9zi",
            "kind": "utca",
            "post_code": 0
        },
        {
            "name": "Szam\u00e1rhegyi",
            "kind": "\u00fat",
            "post_code": 0
        },
        {
            "name": "Szarvask\u0151i",
            "kind": "\u00fat",
            "post_code": 0
        },
        {
            "name": "Sz\u00e1zszorsz\u00e9p",
            "kind": "utca",
            "post_code": 0
        },
        {
            "name": "Sz\u00e9chy D\u00e9nes",
            "kind": "utca",
            "post_code": 0
        },
        {
            "name": "Szedres",
            "kind": "utca",
            "post_code": 0
        },
        {
            "name": "Szegf\u0171",
            "kind": "utca",
            "post_code": 0
        },
        {
            "name": "Sz\u00e9kely Mih\u00e1ly",
            "kind": "utca",
            "post_code": 0
        },
        {
            "name": "Szent Erzs\u00e9bet h\u00edd",
            "kind": "",
            "post_code": 0
        },
        {
            "name": "Szent Gy\u00f6rgy",
            "kind": "\u00e1rok",
            "post_code": 0
        },
        {
            "name": "Szent Gy\u00f6rgy",
            "kind": "utca",
            "post_code": 0
        },
        {
            "name": "Szent Istv\u00e1n",
            "kind": "l\u00e9pcs\u0151",
            "post_code": 0
        },
        {
            "name": "Szent Istv\u00e1n",
            "kind": "t\u00e9r",
            "post_code": 0
        },
        {
            "name": "Szent J\u00e1nos",
            "kind": "k\u00f6z",
            "post_code": 0
        },
        {
            "name": "Szent J\u00e1nosk\u00fat",
            "kind": "d\u0171l\u0151",
            "post_code": 0
        },
        {
            "name": "Szent J\u00e1nos-ki",
            "kind": "\u00fat",
            "post_code": 0
        },
        {
            "name": "Szent Kinga",
            "kind": "utca",
            "post_code": 0
        },
        {
            "name": "Szentkir\u00e1ly",
            "kind": "d\u0171l\u0151",
            "post_code": 0
        },
        {
            "name": "Szentkir\u00e1lyi",
            "kind": "utca",
            "post_code": 0
        },
        {
            "name": "Szent Margit",
            "kind": "utca",
            "post_code": 0
        },
        {
            "name": "Szent Mikl\u00f3s h\u00edd",
            "kind": "",
            "post_code": 0
        },
        {
            "name": "Szentp\u00e1l",
            "kind": "utca",
            "post_code": 0
        },
        {
            "name": "Szent Tam\u00e1s k\u00e1lv\u00e1ria",
            "kind": "l\u00e9pcs\u0151",
            "post_code": 0
        },
        {
            "name": "Szent Tam\u00e1s",
            "kind": "utca",
            "post_code": 0
        },
        {
            "name": "Sz\u00e9r\u0171skert",
            "kind": "utca",
            "post_code": 0
        },
        {
            "name": "Szilvaf\u00e1s",
            "kind": "utca",
            "post_code": 0
        },
        {
            "name": "Sz\u0151l\u0151hegy",
            "kind": "utca",
            "post_code": 0
        },
        {
            "name": "Szontagh Ott\u00f3",
            "kind": "\u00fatja",
            "post_code": 0
        },
        {
            "name": "T\u00e1bornok",
            "kind": "utca",
            "post_code": 0
        },
        {
            "name": "T\u00e1ncsics Mih\u00e1ly",
            "kind": "utca",
            "post_code": 0
        },
        {
            "name": "Tartsay Vilmos",
            "kind": "utca",
            "post_code": 0
        },
        {
            "name": "Tas",
            "kind": "utca",
            "post_code": 0
        },
        {
            "name": "T\u00e1ti",
            "kind": "\u00fat",
            "post_code": 0
        },
        {
            "name": "Technikum",
            "kind": "k\u00f6z",
            "post_code": 0
        },
        {
            "name": "T\u00e9glah\u00e1z",
            "kind": "utca",
            "post_code": 0
        },
        {
            "name": "Telegdy Csan\u00e1d",
            "kind": "utca",
            "post_code": 0
        },
        {
            "name": "Temesv\u00e1ri",
            "kind": "\u00fat",
            "post_code": 0
        },
        {
            "name": "Temet\u0151",
            "kind": "\u00fat",
            "post_code": 0
        },
        {
            "name": "Ter\u00e9zia",
            "kind": "utca",
            "post_code": 0
        },
        {
            "name": "Tesco",
            "kind": "",
            "post_code": 0
        },
        {
            "name": "T\u00f3g\u00e1t",
            "kind": "utca",
            "post_code": 0
        },
        {
            "name": "T\u00f6lgyesi",
            "kind": "\u00fat",
            "post_code": 0
        },
        {
            "name": "T\u00f6lt\u00e9s",
            "kind": "utca",
            "post_code": 0
        },
        {
            "name": "Tompa Mih\u00e1ly",
            "kind": "utca",
            "post_code": 0
        },
        {
            "name": "T\u00f3part",
            "kind": "utca",
            "post_code": 0
        },
        {
            "name": "T\u00f6r\u00f6k Ign\u00e1c",
            "kind": "utca",
            "post_code": 0
        },
        {
            "name": "T\u00fcnd\u00e9rkert",
            "kind": "utca",
            "post_code": 0
        },
        {
            "name": "\u00dajf\u00f6ldek",
            "kind": "d\u0171l\u0151",
            "post_code": 0
        },
        {
            "name": "\u00daj",
            "kind": "utca",
            "post_code": 0
        },
        {
            "name": "Unifer",
            "kind": "",
            "post_code": 0
        },
        {
            "name": "Vadl\u00fad",
            "kind": "utca",
            "post_code": 0
        },
        {
            "name": "Vadr\u00f3zsa",
            "kind": "utca",
            "post_code": 0
        },
        {
            "name": "Vadvir\u00e1g",
            "kind": "k\u00f6z",
            "post_code": 0
        },
        {
            "name": "Vadvir\u00e1g",
            "kind": "utca",
            "post_code": 0
        },
        {
            "name": "V\u00e1g\u00e1ny",
            "kind": "k\u00f6z",
            "post_code": 0
        },
        {
            "name": "V\u00e1rfok",
            "kind": "utca",
            "post_code": 0
        },
        {
            "name": "V\u00e1r",
            "kind": "k\u00f6z",
            "post_code": 0
        },
        {
            "name": "V\u00e1rosi d\u00f6gk\u00fat",
            "kind": "",
            "post_code": 0
        },
        {
            "name": "V\u00e1r",
            "kind": "utca",
            "post_code": 0
        },
        {
            "name": "Vasas",
            "kind": "utca",
            "post_code": 0
        },
        {
            "name": "Vaskapui",
            "kind": "\u00fat",
            "post_code": 0
        },
        {
            "name": "Vas\u00fat",
            "kind": "sor",
            "post_code": 0
        },
        {
            "name": "Vasv\u00e1ri P\u00e1l",
            "kind": "utca",
            "post_code": 0
        },
        {
            "name": "V\u00e9csey K\u00e1roly",
            "kind": "utca",
            "post_code": 0
        },
        {
            "name": "V\u00e9cs Ott\u00f3",
            "kind": "k\u00f6z",
            "post_code": 0
        },
        {
            "name": "Venyige",
            "kind": "utca",
            "post_code": 0
        },
        {
            "name": "Verseghy Ferenc",
            "kind": "utca",
            "post_code": 0
        },
        {
            "name": "Verseghy P\u00e1l",
            "kind": "utca",
            "post_code": 0
        },
        {
            "name": "Vil\u00e1goshegy",
            "kind": "d\u0171l\u0151",
            "post_code": 0
        },
        {
            "name": "Vir\u00e1gos",
            "kind": "utca",
            "post_code": 0
        },
        {
            "name": "Visegr\u00e1di",
            "kind": "\u00fat",
            "post_code": 0
        },
        {
            "name": "Vit\u00e9z J\u00e1nos",
            "kind": "utca",
            "post_code": 0
        },
        {
            "name": "V\u00edzimalom",
            "kind": "utca",
            "post_code": 0
        },
        {
            "name": "V\u00edzm\u0171 \u00fczemi ter\u00fclet",
            "kind": "",
            "post_code": 0
        },
        {
            "name": "V\u00edzt\u00e1rol\u00f3",
            "kind": "utca",
            "post_code": 0
        },
        {
            "name": "V\u00edztorony",
            "kind": "utca",
            "post_code": 0
        },
        {
            "name": "V\u00f6lgy",
            "kind": "utca",
            "post_code": 0
        },
        {
            "name": "V\u00f6r\u00f6sk\u0151i",
            "kind": "utca",
            "post_code": 0
        },
        {
            "name": "V\u00f6r\u00f6smarty",
            "kind": "utca",
            "post_code": 0
        },
        {
            "name": "V\u00f6r\u00f6st\u00f6lgy",
            "kind": "utca",
            "post_code": 0
        },
        {
            "name": "Wessel\u00e9nyi Mikl\u00f3s",
            "kind": "utca",
            "post_code": 0
        },
        {
            "name": "Zam\u00e1rd",
            "kind": "utca",
            "post_code": 0
        },
        {
            "name": "Zan\u00f3t",
            "kind": "utca",
            "post_code": 0
        },
        {
            "name": "Zs\u00e1k",
            "kind": "utca",
            "post_code": 0
        },
        {
            "name": "Zsell\u00e9r-d\u0171l\u0151",
            "kind": "",
            "post_code": 0
        },
        {
            "name": "Zsilip",
            "kind": "\u00fat",
            "post_code": 0
        },
        {
            "name": "Zsolt N\u00e1ndor",
            "kind": "utca",
            "post_code": 0
        },
        {
            "name": "Sz\u00e9chenyi",
            "kind": "t\u00e9r",
            "post_code": 0
        }
    ]
}