{
    "codes": {
        "5213": [
            "Fegyvernek",
            "Szap\u00e1rfalu"
        ],
        "5231": [
            "Fegyvernek",
            null
        ]
    },
    "streets": [
        {
            "name": "Angolkert",
            "kind": "\u00fat",
            "post_code": 0
        },
        {
            "name": "Arany J\u00e1nos",
            "kind": "\u00fat",
            "post_code": 0
        },
        {
            "name": "\u00c1rp\u00e1d",
            "kind": "\u00fat",
            "post_code": 0
        },
        {
            "name": "\u00c1rv\u00e1cska",
            "kind": "\u00fat",
            "post_code": 0
        },
        {
            "name": "Asztalos Ferenc",
            "kind": "\u00fat",
            "post_code": 0
        },
        {
            "name": "Bacs\u00f3 B\u00e9la",
            "kind": "\u00fat",
            "post_code": 0
        },
        {
            "name": "Bajcsy-Zsilinszky",
            "kind": "\u00fat",
            "post_code": 0
        },
        {
            "name": "Bart\u00f3k B\u00e9la",
            "kind": "\u00fat",
            "post_code": 0
        },
        {
            "name": "B\u00e9ke",
            "kind": "\u00fat",
            "post_code": 0
        },
        {
            "name": "Bem J\u00f3zsef",
            "kind": "\u00fat",
            "post_code": 0
        },
        {
            "name": "Ber\u00e9nyi",
            "kind": "\u00fat",
            "post_code": 0
        },
        {
            "name": "Bocskai Istv\u00e1n",
            "kind": "\u00fat",
            "post_code": 0
        },
        {
            "name": "Bor\u00f3ka",
            "kind": "\u00fat",
            "post_code": 0
        },
        {
            "name": "Brig\u00e1d",
            "kind": "\u00fat",
            "post_code": 0
        },
        {
            "name": "Csillag",
            "kind": "\u00fat",
            "post_code": 0
        },
        {
            "name": "Damjanich J\u00e1nos",
            "kind": "\u00fat",
            "post_code": 0
        },
        {
            "name": "Dank\u00f3",
            "kind": "\u00fat",
            "post_code": 0
        },
        {
            "name": "De\u00e1k Ferenc",
            "kind": "\u00fat",
            "post_code": 0
        },
        {
            "name": "Dob\u00f3 Istv\u00e1n",
            "kind": "\u00fat",
            "post_code": 0
        },
        {
            "name": "D\u00f3zsa Gy\u00f6rgy",
            "kind": "\u00fat",
            "post_code": 0
        },
        {
            "name": "El\u0151re",
            "kind": "\u00fat",
            "post_code": 0
        },
        {
            "name": "Engles",
            "kind": "\u00fat",
            "post_code": 0
        },
        {
            "name": "F\u0151",
            "kind": "\u00fat",
            "post_code": 0
        },
        {
            "name": "Frankel Le\u00f3",
            "kind": "\u00fat",
            "post_code": 0
        },
        {
            "name": "G\u00e1rdonyi G\u00e9za",
            "kind": "\u00fat",
            "post_code": 0
        },
        {
            "name": "G\u00e1t",
            "kind": "\u00fat",
            "post_code": 0
        },
        {
            "name": "Gy\u00f6ngyvir\u00e1g",
            "kind": "\u00fat",
            "post_code": 0
        },
        {
            "name": "Gy\u00f3ni G\u00e9za",
            "kind": "\u00fat",
            "post_code": 0
        },
        {
            "name": "H\u00e1rsfa",
            "kind": "\u00fat",
            "post_code": 0
        },
        {
            "name": "H\u00e1y Mih\u00e1ly",
            "kind": "\u00fat",
            "post_code": 0
        },
        {
            "name": "Hunyadi J\u00e1nos",
            "kind": "\u00fat",
            "post_code": 0
        },
        {
            "name": "J\u00e1vorka S\u00e1ndor",
            "kind": "\u00fat",
            "post_code": 0
        },
        {
            "name": "J\u00f3zsef Attila",
            "kind": "\u00fat",
            "post_code": 0
        },
        {
            "name": "K\u00e1polna",
            "kind": "\u00fat",
            "post_code": 0
        },
        {
            "name": "Kast\u00e9ly",
            "kind": "k\u00f6z",
            "post_code": 0
        },
        {
            "name": "Katona Istv\u00e1n",
            "kind": "\u00fat",
            "post_code": 0
        },
        {
            "name": "Kili\u00e1n Gy\u00f6rgy",
            "kind": "\u00fat",
            "post_code": 0
        },
        {
            "name": "Kiserd\u0151",
            "kind": "k\u00f6z",
            "post_code": 0
        },
        {
            "name": "Kiss J\u00e1nos alt\u00e1bornagy",
            "kind": "\u00fat",
            "post_code": 0
        },
        {
            "name": "Kod\u00e1ly Zolt\u00e1n",
            "kind": "\u00fat",
            "post_code": 0
        },
        {
            "name": "Kossuth Lajos",
            "kind": "\u00fat",
            "post_code": 0
        },
        {
            "name": "Lelovich Gy\u00f6rgy",
            "kind": "\u00fat",
            "post_code": 0
        },
        {
            "name": "Liszt Ferenc",
            "kind": "\u00fat",
            "post_code": 0
        },
        {
            "name": "Martinovics Ign\u00e1c",
            "kind": "\u00fat",
            "post_code": 0
        },
        {
            "name": "Marx K\u00e1roly",
            "kind": "\u00fat",
            "post_code": 0
        },
        {
            "name": "M\u00f3ricz Zsigmond",
            "kind": "\u00fat",
            "post_code": 0
        },
        {
            "name": "Munk\u00e1csy Mih\u00e1ly",
            "kind": "\u00fat",
            "post_code": 0
        },
        {
            "name": "Nefelejcs",
            "kind": "\u00fat",
            "post_code": 0
        },
        {
            "name": "Nyiszper M\u00e1rton",
            "kind": "\u00fat",
            "post_code": 0
        },
        {
            "name": "Orgona",
            "kind": "\u00fat",
            "post_code": 0
        },
        {
            "name": "Pet\u0151fi S\u00e1ndor",
            "kind": "\u00fat",
            "post_code": 0
        },
        {
            "name": "Plat\u00e1n",
            "kind": "\u00fat",
            "post_code": 0
        },
        {
            "name": "R\u00e1k\u00f3czi Ferenc",
            "kind": "\u00fat",
            "post_code": 0
        },
        {
            "name": "Rezeda",
            "kind": "\u00fat",
            "post_code": 0
        },
        {
            "name": "Rozmaring",
            "kind": "\u00fat",
            "post_code": 0
        },
        {
            "name": "R\u00f3zsa",
            "kind": "\u00fat",
            "post_code": 0
        },
        {
            "name": "Sch\u00f6nherz Zolt\u00e1n",
            "kind": "\u00fat",
            "post_code": 0
        },
        {
            "name": "Sz\u00e1nt\u00f3 Kov\u00e1cs J\u00e1nos",
            "kind": "\u00fat",
            "post_code": 0
        },
        {
            "name": "Szegf\u0171",
            "kind": "\u00fat",
            "post_code": 0
        },
        {
            "name": "Szent Erzs\u00e9bet",
            "kind": "\u00fat",
            "post_code": 0
        },
        {
            "name": "Szent Imre",
            "kind": "t\u00e9r",
            "post_code": 0
        },
        {
            "name": "Szent Vendel",
            "kind": "\u00fat",
            "post_code": 0
        },
        {
            "name": "Sziv\u00e1rv\u00e1ny",
            "kind": "\u00fat",
            "post_code": 0
        },
        {
            "name": "T\u00e1ncsics Mih\u00e1ly",
            "kind": "\u00fat",
            "post_code": 0
        },
        {
            "name": "Temet\u0151",
            "kind": "\u00fat",
            "post_code": 0
        },
        {
            "name": "T\u00f3part",
            "kind": "\u00fat",
            "post_code": 0
        },
        {
            "name": "Torony",
            "kind": "\u00fat",
            "post_code": 0
        },
        {
            "name": "Vajda J\u00e1nos",
            "kind": "\u00fat",
            "post_code": 0
        },
        {
            "name": "Verseny",
            "kind": "\u00fat",
            "post_code": 0
        },
        {
            "name": "Viola",
            "kind": "\u00fat",
            "post_code": 0
        },
        {
            "name": "V\u00edztorony",
            "kind": "\u00fat",
            "post_code": 0
        },
        {
            "name": "V\u00f6r\u00f6smarty Mih\u00e1ly",
            "kind": "\u00fat",
            "post_code": 0
        },
        {
            "name": "Zagyi Istv\u00e1n",
            "kind": "\u00fat",
            "post_code": 0
        },
        {
            "name": "Z\u00e1rtkert",
            "kind": "\u00fat",
            "post_code": 0
        },
        {
            "name": "Zr\u00ednyi Mikl\u00f3s",
            "kind": "\u00fat",
            "post_code": 0
        }
    ]
}