{
    "codes": {
        "8640": [
            "Fony\u00f3d",
            null
        ]
    },
    "streets": [
        {
            "name": "Ady Endre",
            "kind": "utca",
            "post_code": 0
        },
        {
            "name": "Agancs",
            "kind": "utca",
            "post_code": 0
        },
        {
            "name": "Ak\u00e1cfa",
            "kind": "utca",
            "post_code": 0
        },
        {
            "name": "Ak\u00e1cos",
            "kind": "utca",
            "post_code": 0
        },
        {
            "name": "\u00c1lmos",
            "kind": "utca",
            "post_code": 0
        },
        {
            "name": "Aradi v\u00e9rtan\u00fak",
            "kind": "\u00fatja",
            "post_code": 0
        },
        {
            "name": "Aranyh\u00edd",
            "kind": "utca",
            "post_code": 0
        },
        {
            "name": "Arany J\u00e1nos",
            "kind": "k\u00f6z",
            "post_code": 0
        },
        {
            "name": "Arany J\u00e1nos",
            "kind": "utca",
            "post_code": 0
        },
        {
            "name": "\u00c1rok",
            "kind": "utca",
            "post_code": 0
        },
        {
            "name": "\u00c1rp\u00e1d",
            "kind": "part",
            "post_code": 0
        },
        {
            "name": "\u00c1rp\u00e1d",
            "kind": "utca",
            "post_code": 0
        },
        {
            "name": "\u00c1rvai",
            "kind": "utca",
            "post_code": 0
        },
        {
            "name": "Attila",
            "kind": "utca",
            "post_code": 0
        },
        {
            "name": "Bacs\u00e1k Gy\u00f6rgy",
            "kind": "t\u00e9r",
            "post_code": 0
        },
        {
            "name": "Bacs\u00e1k",
            "kind": "utca",
            "post_code": 0
        },
        {
            "name": "Badacsony",
            "kind": "utca",
            "post_code": 0
        },
        {
            "name": "Baglas",
            "kind": "k\u00f6z",
            "post_code": 0
        },
        {
            "name": "Bajcsy-Zsilinszky Endre",
            "kind": "utca",
            "post_code": 0
        },
        {
            "name": "Balassi B\u00e1lint",
            "kind": "utca",
            "post_code": 0
        },
        {
            "name": "Balaton",
            "kind": "utca",
            "post_code": 0
        },
        {
            "name": "Baross",
            "kind": "utca",
            "post_code": 0
        },
        {
            "name": "Bart\u00f3k B\u00e9la",
            "kind": "utca",
            "post_code": 0
        },
        {
            "name": "B\u00e1stya",
            "kind": "utca",
            "post_code": 0
        },
        {
            "name": "B\u00e1thori",
            "kind": "utca",
            "post_code": 0
        },
        {
            "name": "Batthy\u00e1ny",
            "kind": "utca",
            "post_code": 0
        },
        {
            "name": "B\u00e9ke",
            "kind": "utca",
            "post_code": 0
        },
        {
            "name": "B\u00e9la kir\u00e1ly",
            "kind": "utca",
            "post_code": 0
        },
        {
            "name": "Bereg",
            "kind": "utca",
            "post_code": 0
        },
        {
            "name": "Bessenyei",
            "kind": "k\u00f6z",
            "post_code": 0
        },
        {
            "name": "Bessenyei",
            "kind": "utca",
            "post_code": 0
        },
        {
            "name": "B\u00e9zsenyi",
            "kind": "utca",
            "post_code": 0
        },
        {
            "name": "Birka",
            "kind": "l\u00e9pcs\u0151",
            "post_code": 0
        },
        {
            "name": "Blaha Lujza",
            "kind": "utca",
            "post_code": 0
        },
        {
            "name": "Bogl\u00e1ri",
            "kind": "utca",
            "post_code": 0
        },
        {
            "name": "Bolyai Farkas",
            "kind": "utca",
            "post_code": 0
        },
        {
            "name": "Borsz\u00e9k",
            "kind": "utca",
            "post_code": 0
        },
        {
            "name": "Botond",
            "kind": "utca",
            "post_code": 0
        },
        {
            "name": "Csap",
            "kind": "utca",
            "post_code": 0
        },
        {
            "name": "Csend",
            "kind": "utca",
            "post_code": 0
        },
        {
            "name": "Cs\u00e9nyi Istv\u00e1n",
            "kind": "utca",
            "post_code": 0
        },
        {
            "name": "Csisztai",
            "kind": "\u00fat",
            "post_code": 0
        },
        {
            "name": "Csutor\u00e1s F. L\u00e1szl\u00f3",
            "kind": "utca",
            "post_code": 0
        },
        {
            "name": "Damjanich",
            "kind": "utca",
            "post_code": 0
        },
        {
            "name": "D\u00e1rdai",
            "kind": "k\u00f6z",
            "post_code": 0
        },
        {
            "name": "De\u00e1k Ferenc",
            "kind": "utca",
            "post_code": 0
        },
        {
            "name": "Debreceni",
            "kind": "utca",
            "post_code": 0
        },
        {
            "name": "Dembinszky",
            "kind": "utca",
            "post_code": 0
        },
        {
            "name": "Derkovits",
            "kind": "utca",
            "post_code": 0
        },
        {
            "name": "Di\u00f3shegyi",
            "kind": "utca",
            "post_code": 0
        },
        {
            "name": "Dob\u00f3 Istv\u00e1n",
            "kind": "utca",
            "post_code": 0
        },
        {
            "name": "Dombh\u00e1t",
            "kind": "utca",
            "post_code": 0
        },
        {
            "name": "Domb",
            "kind": "utca",
            "post_code": 0
        },
        {
            "name": "D\u00f3zsa Gy\u00f6rgy",
            "kind": "utca",
            "post_code": 0
        },
        {
            "name": "Dr. Szalay Elem\u00e9r",
            "kind": "utca",
            "post_code": 0
        },
        {
            "name": "Duna",
            "kind": "utca",
            "post_code": 0
        },
        {
            "name": "Edison",
            "kind": "utca",
            "post_code": 0
        },
        {
            "name": "Egresi",
            "kind": "utca",
            "post_code": 0
        },
        {
            "name": "Egri",
            "kind": "utca",
            "post_code": 0
        },
        {
            "name": "Endresz Gy\u00f6rgy",
            "kind": "utca",
            "post_code": 0
        },
        {
            "name": "Erd\u0151sor",
            "kind": "utca",
            "post_code": 0
        },
        {
            "name": "Erkel Ferenc",
            "kind": "utca",
            "post_code": 0
        },
        {
            "name": "\u00c9rsek\u00fajv\u00e1r",
            "kind": "utca",
            "post_code": 0
        },
        {
            "name": "Ezred\u00e9v",
            "kind": "utca",
            "post_code": 0
        },
        {
            "name": "Ez\u00fcsth\u00edd",
            "kind": "utca",
            "post_code": 0
        },
        {
            "name": "Faludi",
            "kind": "k\u00f6z",
            "post_code": 0
        },
        {
            "name": "F\u00e1y Andr\u00e1s",
            "kind": "utca",
            "post_code": 0
        },
        {
            "name": "Fecske",
            "kind": "utca",
            "post_code": 0
        },
        {
            "name": "Fekete Istv\u00e1n",
            "kind": "utca",
            "post_code": 0
        },
        {
            "name": "Fiumei",
            "kind": "utca",
            "post_code": 0
        },
        {
            "name": "F\u0151",
            "kind": "utca",
            "post_code": 0
        },
        {
            "name": "F\u00fcrd\u0151",
            "kind": "utca",
            "post_code": 0
        },
        {
            "name": "G\u00e1bor \u00c1ron",
            "kind": "utca",
            "post_code": 0
        },
        {
            "name": "Garam",
            "kind": "utca",
            "post_code": 0
        },
        {
            "name": "G\u00e1rdonyi G\u00e9za",
            "kind": "utca",
            "post_code": 0
        },
        {
            "name": "G\u00e1rdonyi",
            "kind": "t\u00e9r",
            "post_code": 0
        },
        {
            "name": "G\u00e1z",
            "kind": "utca",
            "post_code": 0
        },
        {
            "name": "G\u00e9za",
            "kind": "utca",
            "post_code": 0
        },
        {
            "name": "Gokartp\u00e1lya",
            "kind": "",
            "post_code": 0
        },
        {
            "name": "G\u00f3lya",
            "kind": "utca",
            "post_code": 0
        },
        {
            "name": "Gy\u00f6ngy",
            "kind": "utca",
            "post_code": 0
        },
        {
            "name": "Gy\u00f6ngyvir\u00e1g",
            "kind": "utca",
            "post_code": 0
        },
        {
            "name": "Gy\u0151z\u0151",
            "kind": "utca",
            "post_code": 0
        },
        {
            "name": "Haj\u00f3s",
            "kind": "k\u00f6z",
            "post_code": 0
        },
        {
            "name": "Hal\u00e1sz",
            "kind": "utca",
            "post_code": 0
        },
        {
            "name": "Hang\u00e1r",
            "kind": "utca",
            "post_code": 0
        },
        {
            "name": "Harmat",
            "kind": "k\u00f6z",
            "post_code": 0
        },
        {
            "name": "Harmatos",
            "kind": "utca",
            "post_code": 0
        },
        {
            "name": "H\u00e1rsfa",
            "kind": "utca",
            "post_code": 0
        },
        {
            "name": "H\u00e1tszegi",
            "kind": "utca",
            "post_code": 0
        },
        {
            "name": "Hegyalja",
            "kind": "utca",
            "post_code": 0
        },
        {
            "name": "Hegyh\u00e1t",
            "kind": "utca",
            "post_code": 0
        },
        {
            "name": "H\u00f3vir\u00e1g",
            "kind": "utca",
            "post_code": 0
        },
        {
            "name": "Hun",
            "kind": "utca",
            "post_code": 0
        },
        {
            "name": "Hunyadi J\u00e1nos",
            "kind": "utca",
            "post_code": 0
        },
        {
            "name": "Hunyadi L\u00e1szl\u00f3",
            "kind": "utca",
            "post_code": 0
        },
        {
            "name": "Husz\u00e1r",
            "kind": "utca",
            "post_code": 0
        },
        {
            "name": "Huszka Jen\u0151",
            "kind": "utca",
            "post_code": 0
        },
        {
            "name": "Ibolya",
            "kind": "utca",
            "post_code": 0
        },
        {
            "name": "Ifj\u00fas\u00e1g",
            "kind": "utca",
            "post_code": 0
        },
        {
            "name": "Ir\u00e1nyi D\u00e1niel",
            "kind": "utca",
            "post_code": 0
        },
        {
            "name": "Istv\u00e1n kir\u00e1ly",
            "kind": "utca",
            "post_code": 0
        },
        {
            "name": "Istv\u00e1n",
            "kind": "utca",
            "post_code": 0
        },
        {
            "name": "J\u00e1cint",
            "kind": "utca",
            "post_code": 0
        },
        {
            "name": "J\u00e1szai Mari",
            "kind": "utca",
            "post_code": 0
        },
        {
            "name": "Jegenye",
            "kind": "utca",
            "post_code": 0
        },
        {
            "name": "J\u00f3kai M\u00f3r",
            "kind": "utca",
            "post_code": 0
        },
        {
            "name": "J\u00f3zsef Attila",
            "kind": "utca",
            "post_code": 0
        },
        {
            "name": "J\u00f3zsef",
            "kind": "utca",
            "post_code": 0
        },
        {
            "name": "K\u00e1lm\u00e1n",
            "kind": "utca",
            "post_code": 0
        },
        {
            "name": "K\u00e1lv\u00e1ria",
            "kind": "utca",
            "post_code": 0
        },
        {
            "name": "K\u00e1polna",
            "kind": "t\u00e9r",
            "post_code": 0
        },
        {
            "name": "Kar\u00e1csony S\u00e1ndor",
            "kind": "utca",
            "post_code": 0
        },
        {
            "name": "K\u00e1r\u00e1sz",
            "kind": "utca",
            "post_code": 0
        },
        {
            "name": "K\u00e1rolyi",
            "kind": "utca",
            "post_code": 0
        },
        {
            "name": "Kassai",
            "kind": "utca",
            "post_code": 0
        },
        {
            "name": "Kazinczy",
            "kind": "utca",
            "post_code": 0
        },
        {
            "name": "Kem\u00e9ny Zsigmond",
            "kind": "utca",
            "post_code": 0
        },
        {
            "name": "Kil\u00e1t\u00f3",
            "kind": "utca",
            "post_code": 0
        },
        {
            "name": "Kisfaludy",
            "kind": "k\u00f6z",
            "post_code": 0
        },
        {
            "name": "Kisfaludy",
            "kind": "utca",
            "post_code": 0
        },
        {
            "name": "Kiss",
            "kind": "utca",
            "post_code": 0
        },
        {
            "name": "Klapka",
            "kind": "utca",
            "post_code": 0
        },
        {
            "name": "Klauz\u00e1l G\u00e1bor",
            "kind": "utca",
            "post_code": 0
        },
        {
            "name": "Kod\u00e1ly Zolt\u00e1n",
            "kind": "utca",
            "post_code": 0
        },
        {
            "name": "Kodol\u00e1nyi",
            "kind": "utca",
            "post_code": 0
        },
        {
            "name": "K\u00f6lcsey Ferenc",
            "kind": "utca",
            "post_code": 0
        },
        {
            "name": "Kolozsv\u00e1ri",
            "kind": "utca",
            "post_code": 0
        },
        {
            "name": "Koml\u00f3i",
            "kind": "utca",
            "post_code": 0
        },
        {
            "name": "K\u00f6r\u00f6s",
            "kind": "utca",
            "post_code": 0
        },
        {
            "name": "Kossuth",
            "kind": "t\u00e9r",
            "post_code": 0
        },
        {
            "name": "K\u00f6ves",
            "kind": "k\u00f6z",
            "post_code": 0
        },
        {
            "name": "K\u00f6zt\u00e1rsas\u00e1g",
            "kind": "utca",
            "post_code": 0
        },
        {
            "name": "Kupa vez\u00e9r",
            "kind": "utca",
            "post_code": 0
        },
        {
            "name": "L\u00e1nyi Antal",
            "kind": "utca",
            "post_code": 0
        },
        {
            "name": "Lengyelt\u00f3ti",
            "kind": "utca",
            "post_code": 0
        },
        {
            "name": "Lengyel",
            "kind": "utca",
            "post_code": 0
        },
        {
            "name": "Lenke",
            "kind": "utca",
            "post_code": 0
        },
        {
            "name": "Liget",
            "kind": "utca",
            "post_code": 0
        },
        {
            "name": "Liliom",
            "kind": "utca",
            "post_code": 0
        },
        {
            "name": "Liszt Ferenc",
            "kind": "utca",
            "post_code": 0
        },
        {
            "name": "L\u0151csei",
            "kind": "k\u00f6z",
            "post_code": 0
        },
        {
            "name": "L\u0151csei",
            "kind": "utca",
            "post_code": 0
        },
        {
            "name": "Magay",
            "kind": "utca",
            "post_code": 0
        },
        {
            "name": "Magyar B\u00e1lint",
            "kind": "utca",
            "post_code": 0
        },
        {
            "name": "Major",
            "kind": "k\u00f6z",
            "post_code": 0
        },
        {
            "name": "M\u00e1jus 1.",
            "kind": "utca",
            "post_code": 0
        },
        {
            "name": "Makai",
            "kind": "utca",
            "post_code": 0
        },
        {
            "name": "Mandul\u00e1s",
            "kind": "utca",
            "post_code": 0
        },
        {
            "name": "M\u00e1rffy",
            "kind": "t\u00e9r",
            "post_code": 0
        },
        {
            "name": "M\u00e1ty\u00e1s kir\u00e1ly",
            "kind": "utca",
            "post_code": 0
        },
        {
            "name": "Mecsek",
            "kind": "utca",
            "post_code": 0
        },
        {
            "name": "Meredek",
            "kind": "utca",
            "post_code": 0
        },
        {
            "name": "Mez\u0151",
            "kind": "utca",
            "post_code": 0
        },
        {
            "name": "Mikes Kelemen",
            "kind": "utca",
            "post_code": 0
        },
        {
            "name": "M\u0171hely",
            "kind": "utca",
            "post_code": 0
        },
        {
            "name": "N\u00e1dor",
            "kind": "utca",
            "post_code": 0
        },
        {
            "name": "Nagyenyedi",
            "kind": "utca",
            "post_code": 0
        },
        {
            "name": "Nagy Imre",
            "kind": "utca",
            "post_code": 0
        },
        {
            "name": "Napsug\u00e1r",
            "kind": "utca",
            "post_code": 0
        },
        {
            "name": "Nap",
            "kind": "utca",
            "post_code": 0
        },
        {
            "name": "Nefelejcs",
            "kind": "utca",
            "post_code": 0
        },
        {
            "name": "Niklai",
            "kind": "utca",
            "post_code": 0
        },
        {
            "name": "Ny\u00e1r",
            "kind": "utca",
            "post_code": 0
        },
        {
            "name": "Ordas",
            "kind": "k\u00f6z",
            "post_code": 0
        },
        {
            "name": "Orgona",
            "kind": "utca",
            "post_code": 0
        },
        {
            "name": "Panor\u00e1ma",
            "kind": "s\u00e9t\u00e1ny",
            "post_code": 0
        },
        {
            "name": "P\u00e9csi",
            "kind": "utca",
            "post_code": 0
        },
        {
            "name": "Pet\u0151fi S\u00e1ndor",
            "kind": "utca",
            "post_code": 0
        },
        {
            "name": "R\u00e1k\u00f3czi Ferenc",
            "kind": "utca",
            "post_code": 0
        },
        {
            "name": "R\u00e9vai",
            "kind": "utca",
            "post_code": 0
        },
        {
            "name": "Reviczky",
            "kind": "utca",
            "post_code": 0
        },
        {
            "name": "Rezeda",
            "kind": "utca",
            "post_code": 0
        },
        {
            "name": "Ripka Ferenc",
            "kind": "s\u00e9t\u00e1ny",
            "post_code": 0
        },
        {
            "name": "Ritter",
            "kind": "utca",
            "post_code": 0
        },
        {
            "name": "Rozgonyi",
            "kind": "utca",
            "post_code": 0
        },
        {
            "name": "R\u00f3zsadomb",
            "kind": "utca",
            "post_code": 0
        },
        {
            "name": "R\u00f3zsa",
            "kind": "utca",
            "post_code": 0
        },
        {
            "name": "S\u00e1nc",
            "kind": "utca",
            "post_code": 0
        },
        {
            "name": "S\u00e1ndor",
            "kind": "utca",
            "post_code": 0
        },
        {
            "name": "S\u00e1s",
            "kind": "utca",
            "post_code": 0
        },
        {
            "name": "Schneider doktor",
            "kind": "utca",
            "post_code": 0
        },
        {
            "name": "Sereg\u00e9ly",
            "kind": "utca",
            "post_code": 0
        },
        {
            "name": "Sir\u00e1ly",
            "kind": "k\u00f6z",
            "post_code": 0
        },
        {
            "name": "Sir\u00e1ly",
            "kind": "utca",
            "post_code": 0
        },
        {
            "name": "S\u00f3lyom",
            "kind": "utca",
            "post_code": 0
        },
        {
            "name": "Soml\u00f3",
            "kind": "utca",
            "post_code": 0
        },
        {
            "name": "Sport",
            "kind": "utca",
            "post_code": 0
        },
        {
            "name": "Strand",
            "kind": "utca",
            "post_code": 0
        },
        {
            "name": "S\u00fcll\u0151",
            "kind": "utca",
            "post_code": 0
        },
        {
            "name": "Szabads\u00e1g",
            "kind": "utca",
            "post_code": 0
        },
        {
            "name": "Szab\u00f3 Ferenc",
            "kind": "utca",
            "post_code": 0
        },
        {
            "name": "Szab\u00f3 L\u0151rinc",
            "kind": "utca",
            "post_code": 0
        },
        {
            "name": "Szaplonczay",
            "kind": "s\u00e9t\u00e1ny",
            "post_code": 0
        },
        {
            "name": "Sz\u00e9chenyi",
            "kind": "utca",
            "post_code": 0
        },
        {
            "name": "Szegedi",
            "kind": "utca",
            "post_code": 0
        },
        {
            "name": "Szegf\u0171",
            "kind": "utca",
            "post_code": 0
        },
        {
            "name": "Sz\u00e9l",
            "kind": "utca",
            "post_code": 0
        },
        {
            "name": "Szemere",
            "kind": "utca",
            "post_code": 0
        },
        {
            "name": "Szent Istv\u00e1n",
            "kind": "t\u00e9r",
            "post_code": 0
        },
        {
            "name": "Szent Istv\u00e1n",
            "kind": "utca",
            "post_code": 0
        },
        {
            "name": "Szent L\u00e1szl\u00f3",
            "kind": "utca",
            "post_code": 0
        },
        {
            "name": "Szigetv\u00e1ri",
            "kind": "utca",
            "post_code": 0
        },
        {
            "name": "Szigligeti",
            "kind": "utca",
            "post_code": 0
        },
        {
            "name": "Szil\u00e1gyi Erzs\u00e9bet",
            "kind": "utca",
            "post_code": 0
        },
        {
            "name": "Sziv\u00e1rv\u00e1ny",
            "kind": "utca",
            "post_code": 0
        },
        {
            "name": "Sz\u00edv",
            "kind": "utca",
            "post_code": 0
        },
        {
            "name": "Tab\u00e1n",
            "kind": "utca",
            "post_code": 0
        },
        {
            "name": "Temet\u0151",
            "kind": "utca",
            "post_code": 0
        },
        {
            "name": "Templom",
            "kind": "utca",
            "post_code": 0
        },
        {
            "name": "Th\u00f6k\u00f6ly",
            "kind": "utca",
            "post_code": 0
        },
        {
            "name": "Tiborc",
            "kind": "utca",
            "post_code": 0
        },
        {
            "name": "Tisza",
            "kind": "utca",
            "post_code": 0
        },
        {
            "name": "Toboz",
            "kind": "utca",
            "post_code": 0
        },
        {
            "name": "Toldi Mikl\u00f3s",
            "kind": "utca",
            "post_code": 0
        },
        {
            "name": "Tompa Mih\u00e1ly",
            "kind": "k\u00f6z",
            "post_code": 0
        },
        {
            "name": "Tompa Mih\u00e1ly",
            "kind": "utca",
            "post_code": 0
        },
        {
            "name": "T\u00f3part",
            "kind": "utca",
            "post_code": 0
        },
        {
            "name": "T\u00f6r\u00f6k B\u00e1lint",
            "kind": "utca",
            "post_code": 0
        },
        {
            "name": "T\u00f6r\u00f6k Ign\u00e1c",
            "kind": "utca",
            "post_code": 0
        },
        {
            "name": "Trombit\u00e1s",
            "kind": "utca",
            "post_code": 0
        },
        {
            "name": "Tulip\u00e1n",
            "kind": "utca",
            "post_code": 0
        },
        {
            "name": "Tur\u00e1n",
            "kind": "utca",
            "post_code": 0
        },
        {
            "name": "Turul",
            "kind": "utca",
            "post_code": 0
        },
        {
            "name": "T\u00fcz\u00e9r",
            "kind": "utca",
            "post_code": 0
        },
        {
            "name": "V\u00e1g\u00f3h\u00edd",
            "kind": "k\u00f6z",
            "post_code": 0
        },
        {
            "name": "V\u00e1g\u00f3h\u00edd",
            "kind": "utca",
            "post_code": 0
        },
        {
            "name": "V\u00e1radi",
            "kind": "utca",
            "post_code": 0
        },
        {
            "name": "V\u00e1ralja",
            "kind": "utca",
            "post_code": 0
        },
        {
            "name": "V\u00e1rfal",
            "kind": "utca",
            "post_code": 0
        },
        {
            "name": "V\u00e1rhegy",
            "kind": "k\u00f6z",
            "post_code": 0
        },
        {
            "name": "V\u00e1rhegy",
            "kind": "utca",
            "post_code": 0
        },
        {
            "name": "Vasas",
            "kind": "utca",
            "post_code": 0
        },
        {
            "name": "Vasv\u00e1ri P\u00e1l",
            "kind": "utca",
            "post_code": 0
        },
        {
            "name": "Vir\u00e1gos",
            "kind": "utca",
            "post_code": 0
        },
        {
            "name": "Vir\u00e1g",
            "kind": "utca",
            "post_code": 0
        },
        {
            "name": "Vitorl\u00e1s",
            "kind": "utca",
            "post_code": 0
        },
        {
            "name": "Vizm\u0171",
            "kind": "utca",
            "post_code": 0
        },
        {
            "name": "V\u00f6r\u00f6smarty",
            "kind": "utca",
            "post_code": 0
        },
        {
            "name": "Wekerle",
            "kind": "utca",
            "post_code": 0
        },
        {
            "name": "Wessel\u00e9nyi",
            "kind": "utca",
            "post_code": 0
        },
        {
            "name": "Zichy Mih\u00e1ly",
            "kind": "utca",
            "post_code": 0
        },
        {
            "name": "Zolt\u00e1n",
            "kind": "utca",
            "post_code": 0
        },
        {
            "name": "Zr\u00ednyi Mikl\u00f3s",
            "kind": "utca",
            "post_code": 0
        }
    ]
}