{
    "codes": {
        "5525": [
            "F\u00fczesgyarmat",
            null
        ]
    },
    "streets": [
        {
            "name": "4225",
            "kind": "",
            "post_code": 0
        },
        {
            "name": "\u00c1chim Andr\u00e1s",
            "kind": "utca",
            "post_code": 0
        },
        {
            "name": "Ady Endre",
            "kind": "utca",
            "post_code": 0
        },
        {
            "name": "Ak\u00e1cfa",
            "kind": "utca",
            "post_code": 0
        },
        {
            "name": "Arany J\u00e1nos",
            "kind": "utca",
            "post_code": 0
        },
        {
            "name": "\u00c1rp\u00e1d",
            "kind": "utca",
            "post_code": 0
        },
        {
            "name": "Attila",
            "kind": "utca",
            "post_code": 0
        },
        {
            "name": "Bacs\u00f3 B\u00e9la",
            "kind": "utca",
            "post_code": 0
        },
        {
            "name": "Bajcsy-Zsilinszky",
            "kind": "utca",
            "post_code": 0
        },
        {
            "name": "Bajza",
            "kind": "utca",
            "post_code": 0
        },
        {
            "name": "Baross",
            "kind": "utca",
            "post_code": 0
        },
        {
            "name": "B\u00e1thori",
            "kind": "utca",
            "post_code": 0
        },
        {
            "name": "Batthy\u00e1ny",
            "kind": "utca",
            "post_code": 0
        },
        {
            "name": "B\u00e9ke",
            "kind": "utca",
            "post_code": 0
        },
        {
            "name": "Bem",
            "kind": "utca",
            "post_code": 0
        },
        {
            "name": "Berzsenyi",
            "kind": "utca",
            "post_code": 0
        },
        {
            "name": "Bethlen",
            "kind": "utca",
            "post_code": 0
        },
        {
            "name": "Bocskai",
            "kind": "utca",
            "post_code": 0
        },
        {
            "name": "Botond",
            "kind": "",
            "post_code": 0
        },
        {
            "name": "Brass\u00f3i",
            "kind": "utca",
            "post_code": 0
        },
        {
            "name": "Cs\u00e1nky Dezs\u0151",
            "kind": "utca",
            "post_code": 0
        },
        {
            "name": "Csokonai",
            "kind": "utca",
            "post_code": 0
        },
        {
            "name": "Damjanich",
            "kind": "utca",
            "post_code": 0
        },
        {
            "name": "Dob\u00f3",
            "kind": "utca",
            "post_code": 0
        },
        {
            "name": "D\u00f3zsa Gy\u00f6rgy",
            "kind": "utca",
            "post_code": 0
        },
        {
            "name": "Dugonics",
            "kind": "utca",
            "post_code": 0
        },
        {
            "name": "Erd\u0151s",
            "kind": "utca",
            "post_code": 0
        },
        {
            "name": "Erkel Ferenc",
            "kind": "utca",
            "post_code": 0
        },
        {
            "name": "Gacs\u00e1ri Istv\u00e1n",
            "kind": "utca",
            "post_code": 0
        },
        {
            "name": "Garai",
            "kind": "t\u00e9r",
            "post_code": 0
        },
        {
            "name": "Garai",
            "kind": "utca",
            "post_code": 0
        },
        {
            "name": "Garalapos",
            "kind": "utca",
            "post_code": 0
        },
        {
            "name": "Hegyesi J\u00e1nos",
            "kind": "utca",
            "post_code": 0
        },
        {
            "name": "Hunyadi",
            "kind": "utca",
            "post_code": 0
        },
        {
            "name": "J\u00f3kai",
            "kind": "utca",
            "post_code": 0
        },
        {
            "name": "J\u00f3zsef Attila",
            "kind": "utca",
            "post_code": 0
        },
        {
            "name": "Kert\u00e9sz",
            "kind": "utca",
            "post_code": 0
        },
        {
            "name": "Kiss Ern\u0151",
            "kind": "utca",
            "post_code": 0
        },
        {
            "name": "Klapka",
            "kind": "utca",
            "post_code": 0
        },
        {
            "name": "Kolozsv\u00e1ri",
            "kind": "utca",
            "post_code": 0
        },
        {
            "name": "Kont",
            "kind": "utca",
            "post_code": 0
        },
        {
            "name": "K\u0151r\u00f6si Csoma S\u00e1ndor",
            "kind": "utca",
            "post_code": 0
        },
        {
            "name": "Kossuth",
            "kind": "utca",
            "post_code": 0
        },
        {
            "name": "Lehel",
            "kind": "utca",
            "post_code": 0
        },
        {
            "name": "Lenkei",
            "kind": "utca",
            "post_code": 0
        },
        {
            "name": "Lev\u00e9l",
            "kind": "utca",
            "post_code": 0
        },
        {
            "name": "L\u0151csei",
            "kind": "utca",
            "post_code": 0
        },
        {
            "name": "M\u00e1jus 1.",
            "kind": "utca",
            "post_code": 0
        },
        {
            "name": "M\u00e1ty\u00e1s",
            "kind": "utca",
            "post_code": 0
        },
        {
            "name": "Mikes Kelemen",
            "kind": "utca",
            "post_code": 0
        },
        {
            "name": "Miksz\u00e1th K\u00e1lm\u00e1n",
            "kind": "utca",
            "post_code": 0
        },
        {
            "name": "Nagyat\u00e1di",
            "kind": "utca",
            "post_code": 0
        },
        {
            "name": "Orgona",
            "kind": "utca",
            "post_code": 0
        },
        {
            "name": "Pet\u0151fi",
            "kind": "t\u00e9r",
            "post_code": 0
        },
        {
            "name": "Pet\u0151fi",
            "kind": "utca",
            "post_code": 0
        },
        {
            "name": "Pozsonyi",
            "kind": "utca",
            "post_code": 0
        },
        {
            "name": "R\u00e1k\u00f3czi",
            "kind": "utca",
            "post_code": 0
        },
        {
            "name": "R\u00e9ti",
            "kind": "utca",
            "post_code": 0
        },
        {
            "name": "S\u00e1rr\u00e9t",
            "kind": "utca",
            "post_code": 0
        },
        {
            "name": "Sas",
            "kind": "utca",
            "post_code": 0
        },
        {
            "name": "Simonyi",
            "kind": "utca",
            "post_code": 0
        },
        {
            "name": "Somogyi B\u00e9la",
            "kind": "utca",
            "post_code": 0
        },
        {
            "name": "Sport",
            "kind": "utca",
            "post_code": 0
        },
        {
            "name": "Szabadkai",
            "kind": "utca",
            "post_code": 0
        },
        {
            "name": "Szabolcska Mih\u00e1ly",
            "kind": "utca",
            "post_code": 0
        },
        {
            "name": "Szabolcs",
            "kind": "utca",
            "post_code": 0
        },
        {
            "name": "Szebeni",
            "kind": "utca",
            "post_code": 0
        },
        {
            "name": "Sz\u00e9chenyi",
            "kind": "utca",
            "post_code": 0
        },
        {
            "name": "Szigligeti",
            "kind": "utca",
            "post_code": 0
        },
        {
            "name": "Sz\u00edv",
            "kind": "utca",
            "post_code": 0
        },
        {
            "name": "T\u00e1ncsics",
            "kind": "utca",
            "post_code": 0
        },
        {
            "name": "Temet\u0151",
            "kind": "utca",
            "post_code": 0
        },
        {
            "name": "Toldi",
            "kind": "utca",
            "post_code": 0
        },
        {
            "name": "T\u00f3",
            "kind": "utca",
            "post_code": 0
        },
        {
            "name": "V\u00e9csey",
            "kind": "utca",
            "post_code": 0
        },
        {
            "name": "Veres P\u00e9ter",
            "kind": "utca",
            "post_code": 0
        },
        {
            "name": "V\u00f6r\u00f6smarty",
            "kind": "utca",
            "post_code": 0
        },
        {
            "name": "Z\u00f6ldfa",
            "kind": "utca",
            "post_code": 0
        },
        {
            "name": "Zr\u00ednyi",
            "kind": "utca",
            "post_code": 0
        }
    ]
}