{
    "codes": {
        "3200": [
            "Gy\u00f6ngy\u00f6s",
            null
        ],
        "3221": [
            "Gy\u00f6ngy\u00f6s",
            "K\u00e9kestet\u0151"
        ],
        "3232": [
            "Gy\u00f6ngy\u00f6s",
            "M\u00e1traf\u00fcred"
        ],
        "3233": [
            "Gy\u00f6ngy\u00f6s",
            "M\u00e1trah\u00e1za"
        ]
    },
    "streets": [
        {
            "name": "Abas\u00e1ri",
            "kind": "\u00fat",
            "post_code": 0
        },
        {
            "name": "Abas\u00e1ri",
            "kind": "utca",
            "post_code": 0
        },
        {
            "name": "Aba",
            "kind": "\u00fat",
            "post_code": 0
        },
        {
            "name": "\u00c1chim Andr\u00e1s",
            "kind": "utca",
            "post_code": 0
        },
        {
            "name": "Ad\u00e1csi",
            "kind": "utca",
            "post_code": 0
        },
        {
            "name": "Ady Endre",
            "kind": "t\u00e9r",
            "post_code": 0
        },
        {
            "name": "Ady Endre",
            "kind": "utca",
            "post_code": 0
        },
        {
            "name": "Akad\u00e9mia",
            "kind": "utca",
            "post_code": 0
        },
        {
            "name": "Akaszka",
            "kind": "utca",
            "post_code": 0
        },
        {
            "name": "Akn\u00e1sz",
            "kind": "utca",
            "post_code": 0
        },
        {
            "name": "Alkony",
            "kind": "utca",
            "post_code": 0
        },
        {
            "name": "Alkotm\u00e1ny",
            "kind": "utca",
            "post_code": 0
        },
        {
            "name": "Alm\u00e1sy P\u00e1l",
            "kind": "utca",
            "post_code": 0
        },
        {
            "name": "Alm\u00e1sy",
            "kind": "udvar",
            "post_code": 0
        },
        {
            "name": "\u00c1lmos",
            "kind": "utca",
            "post_code": 0
        },
        {
            "name": "Als\u00f3 Pince",
            "kind": "\u00fat",
            "post_code": 0
        },
        {
            "name": "Angyal",
            "kind": "utca",
            "post_code": 0
        },
        {
            "name": "Arany J\u00e1nos",
            "kind": "utca",
            "post_code": 0
        },
        {
            "name": "Aranysas",
            "kind": "utca",
            "post_code": 0
        },
        {
            "name": "\u00c1rnyas",
            "kind": "utca",
            "post_code": 0
        },
        {
            "name": "\u00c1rp\u00e1d",
            "kind": "t\u00e9r",
            "post_code": 0
        },
        {
            "name": "\u00c1rp\u00e1d",
            "kind": "utca",
            "post_code": 0
        },
        {
            "name": "\u00c1rvai",
            "kind": "utca",
            "post_code": 0
        },
        {
            "name": "Atk\u00e1ri",
            "kind": "\u00fat",
            "post_code": 0
        },
        {
            "name": "\u00c1trium",
            "kind": "sor",
            "post_code": 0
        },
        {
            "name": "Attila",
            "kind": "utca",
            "post_code": 0
        },
        {
            "name": "Avar",
            "kind": "utca",
            "post_code": 0
        },
        {
            "name": "Bagoly",
            "kind": "k\u00f6z",
            "post_code": 0
        },
        {
            "name": "Bajcsy-Zsilinszky Endre",
            "kind": "k\u00f6r\u00fat",
            "post_code": 0
        },
        {
            "name": "Bajza J\u00f3zsef",
            "kind": "utca",
            "post_code": 0
        },
        {
            "name": "B\u00e1ny\u00e1sz",
            "kind": "utca",
            "post_code": 0
        },
        {
            "name": "Bar\u00e1tok",
            "kind": "tere",
            "post_code": 0
        },
        {
            "name": "Baross G\u00e1bor",
            "kind": "utca",
            "post_code": 0
        },
        {
            "name": "Bart\u00f3k B\u00e9la",
            "kind": "utca",
            "post_code": 0
        },
        {
            "name": "B\u00e1stya",
            "kind": "utca",
            "post_code": 0
        },
        {
            "name": "B\u00e1thory Istv\u00e1n",
            "kind": "utca",
            "post_code": 0
        },
        {
            "name": "Bats\u00e1nyi J\u00e1nos",
            "kind": "utca",
            "post_code": 0
        },
        {
            "name": "Batthi\u00e1ny lajos",
            "kind": "utca",
            "post_code": 0
        },
        {
            "name": "Batthy\u00e1ny Lajos",
            "kind": "t\u00e9r",
            "post_code": 0
        },
        {
            "name": "B\u00e9ke",
            "kind": "utca",
            "post_code": 0
        },
        {
            "name": "B\u00e9la",
            "kind": "utca",
            "post_code": 0
        },
        {
            "name": "Belv\u00e1ros",
            "kind": "t\u00e9r",
            "post_code": 0
        },
        {
            "name": "Bem ap\u00f3",
            "kind": "utca",
            "post_code": 0
        },
        {
            "name": "Benelapos",
            "kind": "utca",
            "post_code": 0
        },
        {
            "name": "Benev\u00e1r-b\u00e9rc",
            "kind": "",
            "post_code": 0
        },
        {
            "name": "Bene vez\u00e9r",
            "kind": "t\u00e9r",
            "post_code": 0
        },
        {
            "name": "Ber\u00e9nyi",
            "kind": "utca",
            "post_code": 0
        },
        {
            "name": "Berta J\u00e1nos",
            "kind": "utca",
            "post_code": 0
        },
        {
            "name": "Berze Nagy J\u00e1nos",
            "kind": "utca",
            "post_code": 0
        },
        {
            "name": "Berzsenyi D\u00e1niel",
            "kind": "t\u00e9r",
            "post_code": 0
        },
        {
            "name": "Bethlen G\u00e1bor",
            "kind": "utca",
            "post_code": 0
        },
        {
            "name": "Bethlen G\u00e1bor utca - parkol\u00f3k",
            "kind": "",
            "post_code": 0
        },
        {
            "name": "Bihari J\u00e1nos",
            "kind": "utca",
            "post_code": 0
        },
        {
            "name": "Bocskai Istv\u00e1n",
            "kind": "utca",
            "post_code": 0
        },
        {
            "name": "Bornemissza Gergely",
            "kind": "utca",
            "post_code": 0
        },
        {
            "name": "Botanikus tan\u00f6sv\u00e9ny",
            "kind": "",
            "post_code": 0
        },
        {
            "name": "Botond",
            "kind": "utca",
            "post_code": 0
        },
        {
            "name": "Brass\u00f3i",
            "kind": "utca",
            "post_code": 0
        },
        {
            "name": "Budai Nagy Antal",
            "kind": "t\u00e9r",
            "post_code": 0
        },
        {
            "name": "Bug\u00e1t P\u00e1l",
            "kind": "t\u00e9r",
            "post_code": 0
        },
        {
            "name": "B\u00fav\u00f3",
            "kind": "utca",
            "post_code": 0
        },
        {
            "name": "B\u00faza",
            "kind": "utca",
            "post_code": 0
        },
        {
            "name": "Cinke",
            "kind": "k\u00f6z",
            "post_code": 0
        },
        {
            "name": "Csalog\u00e1ny",
            "kind": "utca",
            "post_code": 0
        },
        {
            "name": "Csap\u00f3",
            "kind": "utca",
            "post_code": 0
        },
        {
            "name": "Cs\u00e1rda",
            "kind": "utca",
            "post_code": 0
        },
        {
            "name": "Csatorna-v\u00f6lgy",
            "kind": "",
            "post_code": 0
        },
        {
            "name": "Csend",
            "kind": "utca",
            "post_code": 0
        },
        {
            "name": "Cs\u00edki",
            "kind": "utca",
            "post_code": 0
        },
        {
            "name": "Csillag",
            "kind": "utca",
            "post_code": 0
        },
        {
            "name": "Csill\u00e9s",
            "kind": "utca",
            "post_code": 0
        },
        {
            "name": "Csob\u00e1nka",
            "kind": "utca",
            "post_code": 0
        },
        {
            "name": "Csokonai Vit\u00e9z Mih\u00e1ly",
            "kind": "utca",
            "post_code": 0
        },
        {
            "name": "Csomor K\u00e1lm\u00e1n",
            "kind": "utca",
            "post_code": 0
        },
        {
            "name": "Csonka J\u00e1nos",
            "kind": "utca",
            "post_code": 0
        },
        {
            "name": "Damjanich J\u00e1nos",
            "kind": "utca",
            "post_code": 0
        },
        {
            "name": "De\u00e1k Ferenc",
            "kind": "utca",
            "post_code": 0
        },
        {
            "name": "D\u00e9li K\u00fclhat\u00e1r",
            "kind": "utca",
            "post_code": 0
        },
        {
            "name": "Dembinszky",
            "kind": "utca",
            "post_code": 0
        },
        {
            "name": "D\u00e9vai S\u00e1ndor",
            "kind": "utca",
            "post_code": 0
        },
        {
            "name": "Di\u00f3fa",
            "kind": "utca",
            "post_code": 0
        },
        {
            "name": "Di\u00f3smalom",
            "kind": "utca",
            "post_code": 0
        },
        {
            "name": "Dob\u00f3 Istv\u00e1n",
            "kind": "utca",
            "post_code": 0
        },
        {
            "name": "Doktor Puky \u00c1rp\u00e1d",
            "kind": "utca",
            "post_code": 0
        },
        {
            "name": "D\u00f3zsa Gy\u00f6rgy",
            "kind": "utca",
            "post_code": 0
        },
        {
            "name": "Dr. Harrer Ferenc",
            "kind": "utca",
            "post_code": 0
        },
        {
            "name": "Egri",
            "kind": "\u00fat",
            "post_code": 0
        },
        {
            "name": "Encsi",
            "kind": "utca",
            "post_code": 0
        },
        {
            "name": "Enyedi",
            "kind": "utca",
            "post_code": 0
        },
        {
            "name": "E\u00f6tv\u00f6s Lor\u00e1nd",
            "kind": "t\u00e9r",
            "post_code": 0
        },
        {
            "name": "Epreskert",
            "kind": "utca",
            "post_code": 0
        },
        {
            "name": "Erdei tornap\u00e1lya",
            "kind": "",
            "post_code": 0
        },
        {
            "name": "Erd\u00e9lyi",
            "kind": "t\u00e9r",
            "post_code": 0
        },
        {
            "name": "Erd\u00e9sz",
            "kind": "utca",
            "post_code": 0
        },
        {
            "name": "Er\u0151m\u0171",
            "kind": "utca",
            "post_code": 0
        },
        {
            "name": "Erzs\u00e9bet kir\u00e1lyn\u00e9",
            "kind": "\u00fat",
            "post_code": 0
        },
        {
            "name": "Esthajnal",
            "kind": "utca",
            "post_code": 0
        },
        {
            "name": "\u00c9szaki k\u00fclhat\u00e1r",
            "kind": "utca",
            "post_code": 0
        },
        {
            "name": "Esze Tam\u00e1s",
            "kind": "utca",
            "post_code": 0
        },
        {
            "name": "Eszperant\u00f3",
            "kind": "utca",
            "post_code": 0
        },
        {
            "name": "Farkasm\u00e1ly",
            "kind": "utca",
            "post_code": 0
        },
        {
            "name": "Farkas Mih\u00e1ly",
            "kind": "utca",
            "post_code": 0
        },
        {
            "name": "Farkas Tam\u00e1s",
            "kind": "utca",
            "post_code": 0
        },
        {
            "name": "Farkas",
            "kind": "utca",
            "post_code": 0
        },
        {
            "name": "Fecske",
            "kind": "utca",
            "post_code": 0
        },
        {
            "name": "Fels\u0151h\u00edd",
            "kind": "utca",
            "post_code": 0
        },
        {
            "name": "Fels\u0151patak",
            "kind": "utca",
            "post_code": 0
        },
        {
            "name": "Fels\u0151 pince",
            "kind": "\u00fat",
            "post_code": 0
        },
        {
            "name": "Fels\u0151-\u00dajv\u00e1rosi",
            "kind": "utca",
            "post_code": 0
        },
        {
            "name": "Fenyves",
            "kind": "utca",
            "post_code": 0
        },
        {
            "name": "Fogarasi",
            "kind": "utca",
            "post_code": 0
        },
        {
            "name": "Forg\u00e1cs",
            "kind": "utca",
            "post_code": 0
        },
        {
            "name": "Forr\u00e1s",
            "kind": "utca",
            "post_code": 0
        },
        {
            "name": "F\u00fcrd\u0151",
            "kind": "utca",
            "post_code": 0
        },
        {
            "name": "Fuvaros",
            "kind": "utca",
            "post_code": 0
        },
        {
            "name": "G\u00e1bor \u00c1ron",
            "kind": "utca",
            "post_code": 0
        },
        {
            "name": "G\u00e1bor D\u00e9nes",
            "kind": "utca",
            "post_code": 0
        },
        {
            "name": "Galamb",
            "kind": "utca",
            "post_code": 0
        },
        {
            "name": "Gar\u00e1zs",
            "kind": "sor",
            "post_code": 0
        },
        {
            "name": "G\u00e1rdonyi G\u00e9za",
            "kind": "utca",
            "post_code": 0
        },
        {
            "name": "G\u00e1sp\u00e1r Zsigmond",
            "kind": "utca",
            "post_code": 0
        },
        {
            "name": "Gazd\u00e1sz",
            "kind": "utca",
            "post_code": 0
        },
        {
            "name": "G\u00f3lya",
            "kind": "utca",
            "post_code": 0
        },
        {
            "name": "G\u00f6rg\u0151i",
            "kind": "\u00fat",
            "post_code": 0
        },
        {
            "name": "Gotth\u00e1rd",
            "kind": "utca",
            "post_code": 0
        },
        {
            "name": "G\u0151zf\u00fcrd\u0151",
            "kind": "utca",
            "post_code": 0
        },
        {
            "name": "Grassalkovich",
            "kind": "udvar",
            "post_code": 0
        },
        {
            "name": "Gyalogi",
            "kind": "utca",
            "post_code": 0
        },
        {
            "name": "Gy\u00e1r",
            "kind": "utca",
            "post_code": 0
        },
        {
            "name": "Gyergy\u00f3i",
            "kind": "utca",
            "post_code": 0
        },
        {
            "name": "Gy\u00f6ngy\u00f6spatak",
            "kind": "utca",
            "post_code": 0
        },
        {
            "name": "Gy\u00f6ngyvir\u00e1g",
            "kind": "\u00fat",
            "post_code": 0
        },
        {
            "name": "Gyop\u00e1r",
            "kind": "k\u00f6z",
            "post_code": 0
        },
        {
            "name": "Gyulai P\u00e1l",
            "kind": "utca",
            "post_code": 0
        },
        {
            "name": "Gy\u00fcm\u00f6lcs\u00f6s",
            "kind": "utca",
            "post_code": 0
        },
        {
            "name": "Hadnagy",
            "kind": "utca",
            "post_code": 0
        },
        {
            "name": "Hajl\u00e9k",
            "kind": "utca",
            "post_code": 0
        },
        {
            "name": "Hajnal",
            "kind": "utca",
            "post_code": 0
        },
        {
            "name": "Halast\u00f3",
            "kind": "utca",
            "post_code": 0
        },
        {
            "name": "Hal\u00e1szi",
            "kind": "utca",
            "post_code": 0
        },
        {
            "name": "Han\u00e1k Kolos",
            "kind": "t\u00e9r",
            "post_code": 0
        },
        {
            "name": "Han\u00e1k",
            "kind": "udvar",
            "post_code": 0
        },
        {
            "name": "H\u00e1rsfa",
            "kind": "utca",
            "post_code": 0
        },
        {
            "name": "Hat\u00e1r",
            "kind": "utca",
            "post_code": 0
        },
        {
            "name": "Hatty\u00fa",
            "kind": "t\u00e9r",
            "post_code": 0
        },
        {
            "name": "Hegyalja",
            "kind": "utca",
            "post_code": 0
        },
        {
            "name": "Hertelendy G\u00e1bor",
            "kind": "utca",
            "post_code": 0
        },
        {
            "name": "Hevesi",
            "kind": "utca",
            "post_code": 0
        },
        {
            "name": "Hold",
            "kind": "utca",
            "post_code": 0
        },
        {
            "name": "Honv\u00e9d",
            "kind": "utca",
            "post_code": 0
        },
        {
            "name": "Ho Shi Minh \u00f6sv\u00e9ny",
            "kind": "",
            "post_code": 0
        },
        {
            "name": "H\u00f3vir\u00e1g",
            "kind": "utca",
            "post_code": 0
        },
        {
            "name": "Hunyadi J\u00e1nos",
            "kind": "utca",
            "post_code": 0
        },
        {
            "name": "Husz\u00e1r",
            "kind": "utca",
            "post_code": 0
        },
        {
            "name": "Ifj\u00fas\u00e1g",
            "kind": "utca",
            "post_code": 0
        },
        {
            "name": "Igl\u00f3i",
            "kind": "utca",
            "post_code": 0
        },
        {
            "name": "II. R\u00e1k\u00f3czi Ferenc",
            "kind": "utca",
            "post_code": 0
        },
        {
            "name": "Ipar",
            "kind": "utca",
            "post_code": 0
        },
        {
            "name": "Iskola",
            "kind": "utca",
            "post_code": 0
        },
        {
            "name": "J\u00e1szk\u00fcrt",
            "kind": "utca",
            "post_code": 0
        },
        {
            "name": "J\u00e1szs\u00e1gi",
            "kind": "utca",
            "post_code": 0
        },
        {
            "name": "Jedlik \u00c1nyos",
            "kind": "utca",
            "post_code": 0
        },
        {
            "name": "Jeruzs\u00e1lem",
            "kind": "utca",
            "post_code": 0
        },
        {
            "name": "J\u00f3kai M\u00f3r",
            "kind": "utca",
            "post_code": 0
        },
        {
            "name": "J\u00f3 szerencs\u00e9t",
            "kind": "utca",
            "post_code": 0
        },
        {
            "name": "J\u00f3zsef Attila",
            "kind": "utca",
            "post_code": 0
        },
        {
            "name": "Juh\u00e1sz Gyula",
            "kind": "utca",
            "post_code": 0
        },
        {
            "name": "Kakast\u00e1nc",
            "kind": "utca",
            "post_code": 0
        },
        {
            "name": "Kall\u00f3",
            "kind": "utca",
            "post_code": 0
        },
        {
            "name": "Kalpka Gy\u00f6rgy",
            "kind": "utca",
            "post_code": 0
        },
        {
            "name": "K\u00e1lv\u00e1ria",
            "kind": "utca",
            "post_code": 0
        },
        {
            "name": "K\u00e1lvin",
            "kind": "utca",
            "post_code": 0
        },
        {
            "name": "Kand\u00f3 K\u00e1lm\u00e1n",
            "kind": "utca",
            "post_code": 0
        },
        {
            "name": "Kar\u00e1csondi",
            "kind": "k\u00f6z",
            "post_code": 0
        },
        {
            "name": "Kar\u00e1csondi",
            "kind": "\u00fat",
            "post_code": 0
        },
        {
            "name": "K\u00e1rm\u00e1n J\u00f3zsef",
            "kind": "utca",
            "post_code": 0
        },
        {
            "name": "Kassai",
            "kind": "\u00fat",
            "post_code": 0
        },
        {
            "name": "Katona J\u00f3zsef",
            "kind": "utca",
            "post_code": 0
        },
        {
            "name": "kazinczy Ferenc",
            "kind": "utca",
            "post_code": 0
        },
        {
            "name": "K\u00e9kesi",
            "kind": "utca",
            "post_code": 0
        },
        {
            "name": "K\u00e9kes",
            "kind": "t\u00e9r",
            "post_code": 0
        },
        {
            "name": "K\u00e9kestet\u0151i-\u00fat",
            "kind": "",
            "post_code": 0
        },
        {
            "name": "Keleti Kar\u00e1csondi",
            "kind": "k\u00f6z",
            "post_code": 0
        },
        {
            "name": "Kem\u00e9ny J\u00e1nos",
            "kind": "utca",
            "post_code": 0
        },
        {
            "name": "Keny\u00e9rgy\u00e1r",
            "kind": "utca",
            "post_code": 0
        },
        {
            "name": "Keri",
            "kind": "t\u00e9r",
            "post_code": 0
        },
        {
            "name": "Kert\u00e9sz",
            "kind": "k\u00f6z",
            "post_code": 0
        },
        {
            "name": "Kert\u00e9sz",
            "kind": "utca",
            "post_code": 0
        },
        {
            "name": "K\u00e9sm\u00e1rki",
            "kind": "utca",
            "post_code": 0
        },
        {
            "name": "Kil\u00e1t\u00f3",
            "kind": "utca",
            "post_code": 0
        },
        {
            "name": "Kinizsi P\u00e1l",
            "kind": "t\u00e9r",
            "post_code": 0
        },
        {
            "name": "Kisfaludy K\u00e1roly",
            "kind": "utca",
            "post_code": 0
        },
        {
            "name": "Kism\u00e9rges",
            "kind": "utca",
            "post_code": 0
        },
        {
            "name": "K\u00f3csag",
            "kind": "utca",
            "post_code": 0
        },
        {
            "name": "K\u0151csei",
            "kind": "utca",
            "post_code": 0
        },
        {
            "name": "Kod\u00e1ly Zolt\u00e1n",
            "kind": "utca",
            "post_code": 0
        },
        {
            "name": "Koh\u00e1ry",
            "kind": "\u00fat",
            "post_code": 0
        },
        {
            "name": "K\u0151k",
            "kind": "\u00fat",
            "post_code": 0
        },
        {
            "name": "K\u00f6lcsey Ferenc",
            "kind": "utca",
            "post_code": 0
        },
        {
            "name": "Kolozsv\u00e1ri",
            "kind": "utca",
            "post_code": 0
        },
        {
            "name": "Kont b\u00edr\u00f3",
            "kind": "utca",
            "post_code": 0
        },
        {
            "name": "K\u00f6nyves K\u00e1lm\u00e1n",
            "kind": "t\u00e9r",
            "post_code": 0
        },
        {
            "name": "Korcsoly\u00e1s Tam\u00e1s",
            "kind": "utca",
            "post_code": 0
        },
        {
            "name": "K\u0151r\u00f6si Csoma S\u00e1ndor",
            "kind": "utca",
            "post_code": 0
        },
        {
            "name": "Kossuth Lajos",
            "kind": "utca",
            "post_code": 0
        },
        {
            "name": "Kov\u00e1cs",
            "kind": "utca",
            "post_code": 0
        },
        {
            "name": "Kozm\u00e1ry",
            "kind": "utca",
            "post_code": 0
        },
        {
            "name": "K\u00f6zt\u00e1rsas\u00e1g",
            "kind": "t\u00e9r",
            "post_code": 0
        },
        {
            "name": "Laktanya",
            "kind": "utca",
            "post_code": 0
        },
        {
            "name": "Legenda",
            "kind": "utca",
            "post_code": 0
        },
        {
            "name": "Lehel",
            "kind": "utca",
            "post_code": 0
        },
        {
            "name": "L\u00e9pcs\u0151",
            "kind": "",
            "post_code": 0
        },
        {
            "name": "Lignit",
            "kind": "utca",
            "post_code": 0
        },
        {
            "name": "Lokodi J\u00e1nos",
            "kind": "utca",
            "post_code": 0
        },
        {
            "name": "Lomb",
            "kind": "utca",
            "post_code": 0
        },
        {
            "name": "Mad\u00e1ch imre",
            "kind": "utca",
            "post_code": 0
        },
        {
            "name": "Magyar",
            "kind": "utca",
            "post_code": 0
        },
        {
            "name": "M\u00e1jus 1.",
            "kind": "l\u00e9pcs\u0151",
            "post_code": 0
        },
        {
            "name": "Malom",
            "kind": "utca",
            "post_code": 0
        },
        {
            "name": "M\u00e1ri\u00e1ssy B\u00e9la",
            "kind": "utca",
            "post_code": 0
        },
        {
            "name": "Martinovics Ign\u00e1c",
            "kind": "utca",
            "post_code": 0
        },
        {
            "name": "M\u00e1trai",
            "kind": "\u00fat",
            "post_code": 0
        },
        {
            "name": "M\u00e1ty\u00e1s kir\u00e1ly",
            "kind": "utca",
            "post_code": 0
        },
        {
            "name": "Menh\u00e1z",
            "kind": "utca",
            "post_code": 0
        },
        {
            "name": "M\u00e9rges",
            "kind": "\u00fat",
            "post_code": 0
        },
        {
            "name": "Mez\u0151",
            "kind": "utca",
            "post_code": 0
        },
        {
            "name": "Mikes Kelemen",
            "kind": "utca",
            "post_code": 0
        },
        {
            "name": "Miksz\u00e1th K\u00e1lm\u00e1n",
            "kind": "utca",
            "post_code": 0
        },
        {
            "name": "M\u00f3ricz Zsigmond",
            "kind": "utca",
            "post_code": 0
        },
        {
            "name": "Muzsla",
            "kind": "utca",
            "post_code": 0
        },
        {
            "name": "N\u00e1dor",
            "kind": "utca",
            "post_code": 0
        },
        {
            "name": "Napkelte",
            "kind": "utca",
            "post_code": 0
        },
        {
            "name": "Napnyugta",
            "kind": "utca",
            "post_code": 0
        },
        {
            "name": "Napsug\u00e1r",
            "kind": "utca",
            "post_code": 0
        },
        {
            "name": "Nap",
            "kind": "utca",
            "post_code": 0
        },
        {
            "name": "Nincs \u00f6sv\u00e9ny!",
            "kind": "",
            "post_code": 0
        },
        {
            "name": "Nyulm\u00e1ly",
            "kind": "utca",
            "post_code": 0
        },
        {
            "name": "Olimpia",
            "kind": "utca",
            "post_code": 0
        },
        {
            "name": "\u0150r\u00e1ll\u00f3",
            "kind": "utca",
            "post_code": 0
        },
        {
            "name": "Orczy",
            "kind": "utca",
            "post_code": 0
        },
        {
            "name": "Orsz\u00e1g\u00fat",
            "kind": "utca",
            "post_code": 0
        },
        {
            "name": "\u00d3voda",
            "kind": "utca",
            "post_code": 0
        },
        {
            "name": "Pal\u00f3c",
            "kind": "utca",
            "post_code": 0
        },
        {
            "name": "P\u00e1losv\u00f6r\u00f6smarti",
            "kind": "\u00fat",
            "post_code": 0
        },
        {
            "name": "P\u00e1nc\u00e9los",
            "kind": "utca",
            "post_code": 0
        },
        {
            "name": "Panor\u00e1ma",
            "kind": "l\u00e9pcs\u0151",
            "post_code": 0
        },
        {
            "name": "Papf\u00f6ldi",
            "kind": "utca",
            "post_code": 0
        },
        {
            "name": "Par\u00e1di",
            "kind": "\u00fat",
            "post_code": 0
        },
        {
            "name": "Parti",
            "kind": "s\u00e9t\u00e1ny",
            "post_code": 0
        },
        {
            "name": "P\u00e1ter Kiss Szal\u00e9z",
            "kind": "utca",
            "post_code": 0
        },
        {
            "name": "Pesti",
            "kind": "\u00fat",
            "post_code": 0
        },
        {
            "name": "Pet\u0151fi S\u00e1ndor",
            "kind": "utca",
            "post_code": 0
        },
        {
            "name": "Pillang\u00f3",
            "kind": "utca",
            "post_code": 0
        },
        {
            "name": "Plat\u00e1n",
            "kind": "utca",
            "post_code": 0
        },
        {
            "name": "Poczik Ferenc",
            "kind": "utca",
            "post_code": 0
        },
        {
            "name": "Posta",
            "kind": "park",
            "post_code": 0
        },
        {
            "name": "Pozsonyi",
            "kind": "utca",
            "post_code": 0
        },
        {
            "name": "Puskin",
            "kind": "utca",
            "post_code": 0
        },
        {
            "name": "P\u00fcsp\u00f6ki",
            "kind": "utca",
            "post_code": 0
        },
        {
            "name": "Radn\u00f3ti Mikl\u00f3s",
            "kind": "utca",
            "post_code": 0
        },
        {
            "name": "R\u00e1k\u00f3czi",
            "kind": "udvar",
            "post_code": 0
        },
        {
            "name": "Recski",
            "kind": "utca",
            "post_code": 0
        },
        {
            "name": "R\u00e9dei",
            "kind": "\u00fat",
            "post_code": 0
        },
        {
            "name": "Rig\u00f3",
            "kind": "utca",
            "post_code": 0
        },
        {
            "name": "Ringsted",
            "kind": "utca",
            "post_code": 0
        },
        {
            "name": "R\u00f3bert K\u00e1roly",
            "kind": "\u00fat",
            "post_code": 0
        },
        {
            "name": "Rollerp\u00e1lya",
            "kind": "",
            "post_code": 0
        },
        {
            "name": "Rozgonyi",
            "kind": "utca",
            "post_code": 0
        },
        {
            "name": "R\u00f3zsa",
            "kind": "utca",
            "post_code": 0
        },
        {
            "name": "S\u00e1rhegy",
            "kind": "utca",
            "post_code": 0
        },
        {
            "name": "S\u00e1rosi Gyula",
            "kind": "utca",
            "post_code": 0
        },
        {
            "name": "Sas",
            "kind": "utca",
            "post_code": 0
        },
        {
            "name": "Sereg\u00e9ly",
            "kind": "utca",
            "post_code": 0
        },
        {
            "name": "S\u00edfut\u00f3",
            "kind": "\u00fat",
            "post_code": 0
        },
        {
            "name": "S\u00f3h\u00e1z",
            "kind": "t\u00e9r",
            "post_code": 0
        },
        {
            "name": "S\u00f3h\u00e1z",
            "kind": "utca",
            "post_code": 0
        },
        {
            "name": "Solymosi K\u00fclhat\u00e1r",
            "kind": "utca",
            "post_code": 0
        },
        {
            "name": "Solymos",
            "kind": "utca",
            "post_code": 0
        },
        {
            "name": "Sport",
            "kind": "utca",
            "post_code": 0
        },
        {
            "name": "Szabads\u00e1g",
            "kind": "\u00fat",
            "post_code": 0
        },
        {
            "name": "Szabads\u00e1g",
            "kind": "utca",
            "post_code": 0
        },
        {
            "name": "Sz\u00e1nk\u00f3p\u00e1lya",
            "kind": "",
            "post_code": 0
        },
        {
            "name": "Sz\u00e9chenyi Istv\u00e1n",
            "kind": "utca",
            "post_code": 0
        },
        {
            "name": "Szegf\u0171",
            "kind": "\u00fat",
            "post_code": 0
        },
        {
            "name": "Sz\u00e9ky Istv\u00e1n",
            "kind": "\u00fat",
            "post_code": 0
        },
        {
            "name": "Sz\u00e9na",
            "kind": "utca",
            "post_code": 0
        },
        {
            "name": "Szent Bertalan",
            "kind": "utca",
            "post_code": 0
        },
        {
            "name": "Szent Gell\u00e9rt",
            "kind": "utca",
            "post_code": 0
        },
        {
            "name": "Szent Imre",
            "kind": "utca",
            "post_code": 0
        },
        {
            "name": "Szent Istv\u00e1n",
            "kind": "utca",
            "post_code": 0
        },
        {
            "name": "Szent L\u00e1szl\u00f3",
            "kind": "utca",
            "post_code": 0
        },
        {
            "name": "Sz\u00e9p",
            "kind": "utca",
            "post_code": 0
        },
        {
            "name": "Sziget",
            "kind": "utca",
            "post_code": 0
        },
        {
            "name": "Sz\u00edv",
            "kind": "utca",
            "post_code": 0
        },
        {
            "name": "Sz\u0151l\u0151skert",
            "kind": "utca",
            "post_code": 0
        },
        {
            "name": "Sz\u00f6vetkezet",
            "kind": "utca",
            "post_code": 0
        },
        {
            "name": "Szpetyk\u00f3 G\u00e1sp\u00e1r",
            "kind": "utca",
            "post_code": 0
        },
        {
            "name": "Szurdokpart",
            "kind": "\u00fat",
            "post_code": 0
        },
        {
            "name": "T\u00e1ncsics Mih\u00e1ly",
            "kind": "utca",
            "post_code": 0
        },
        {
            "name": "T\u00e1rna",
            "kind": "utca",
            "post_code": 0
        },
        {
            "name": "T\u00e1tra",
            "kind": "utca",
            "post_code": 0
        },
        {
            "name": "Tavasz",
            "kind": "utca",
            "post_code": 0
        },
        {
            "name": "T\u00e9glagy\u00e1r",
            "kind": "utca",
            "post_code": 0
        },
        {
            "name": "Temesv\u00e1ri",
            "kind": "utca",
            "post_code": 0
        },
        {
            "name": "Th\u00e1n K\u00e1roly",
            "kind": "utca",
            "post_code": 0
        },
        {
            "name": "Th\u00f6k\u00f6ly Imre",
            "kind": "utca",
            "post_code": 0
        },
        {
            "name": "Toka",
            "kind": "utca",
            "post_code": 0
        },
        {
            "name": "T\u00f6r\u00f6k Ign\u00e1c",
            "kind": "utca",
            "post_code": 0
        },
        {
            "name": "Tulip\u00e1n",
            "kind": "utca",
            "post_code": 0
        },
        {
            "name": "Turista",
            "kind": "\u00fat",
            "post_code": 0
        },
        {
            "name": "T\u00fcz\u00e9r",
            "kind": "\u00fat",
            "post_code": 0
        },
        {
            "name": "T\u0171zolt\u00f3",
            "kind": "utca",
            "post_code": 0
        },
        {
            "name": "T\u0171z",
            "kind": "utca",
            "post_code": 0
        },
        {
            "name": "\u00dcd\u00fcl\u0151sor",
            "kind": "utca",
            "post_code": 0
        },
        {
            "name": "Vachott S\u00e1ndor",
            "kind": "utca",
            "post_code": 0
        },
        {
            "name": "Vaddiszn\u00f3",
            "kind": "k\u00f6z",
            "post_code": 0
        },
        {
            "name": "Vadvir\u00e1g",
            "kind": "utca",
            "post_code": 0
        },
        {
            "name": "Vahot Imre",
            "kind": "utca",
            "post_code": 0
        },
        {
            "name": "V\u00e1j\u00e1r",
            "kind": "utca",
            "post_code": 0
        },
        {
            "name": "Vajda J\u00e1nos",
            "kind": "utca",
            "post_code": 0
        },
        {
            "name": "Vak Botty\u00e1n",
            "kind": "utca",
            "post_code": 0
        },
        {
            "name": "Varg\u00e1k",
            "kind": "tere",
            "post_code": 0
        },
        {
            "name": "V\u00e1rmegyeh\u00e1z",
            "kind": "t\u00e9r",
            "post_code": 0
        },
        {
            "name": "V\u00e1roskert",
            "kind": "utca",
            "post_code": 0
        },
        {
            "name": "V\u00e1s\u00e1r",
            "kind": "utca",
            "post_code": 0
        },
        {
            "name": "Vas\u00f6nt\u0151",
            "kind": "utca",
            "post_code": 0
        },
        {
            "name": "Vasutas",
            "kind": "utca",
            "post_code": 0
        },
        {
            "name": "Vas\u00fat",
            "kind": "utca",
            "post_code": 0
        },
        {
            "name": "Ver\u0151",
            "kind": "utca",
            "post_code": 0
        },
        {
            "name": "Verseghy Ferenc",
            "kind": "utca",
            "post_code": 0
        },
        {
            "name": "Verseny",
            "kind": "utca",
            "post_code": 0
        },
        {
            "name": "V\u00e9rtan\u00fa",
            "kind": "utca",
            "post_code": 0
        },
        {
            "name": "Vezek\u00e9nyi",
            "kind": "utca",
            "post_code": 0
        },
        {
            "name": "V\u00edg",
            "kind": "utca",
            "post_code": 0
        },
        {
            "name": "Vir\u00e1g",
            "kind": "utca",
            "post_code": 0
        },
        {
            "name": "Visonta",
            "kind": "utca",
            "post_code": 0
        },
        {
            "name": "V\u00edztorony",
            "kind": "utca",
            "post_code": 0
        },
        {
            "name": "V\u00f6r\u00f6smarty Mih\u00e1ly",
            "kind": "utca",
            "post_code": 0
        },
        {
            "name": "Warga L\u00e1szl\u00f3",
            "kind": "utca",
            "post_code": 0
        },
        {
            "name": "Zal\u00e1r j\u00f3zsef",
            "kind": "utca",
            "post_code": 0
        },
        {
            "name": "Zal\u00e1r J\u00f3zsef",
            "kind": "utca",
            "post_code": 0
        },
        {
            "name": "Z\u00e1por",
            "kind": "utca",
            "post_code": 0
        },
        {
            "name": "Z\u00f6ldfa",
            "kind": "utca",
            "post_code": 0
        },
        {
            "name": "Z\u00f6ldh\u00edd",
            "kind": "utca",
            "post_code": 0
        },
        {
            "name": "Z\u00f6ldkert",
            "kind": "utca",
            "post_code": 0
        },
        {
            "name": "Z\u00f3lyomi",
            "kind": "utca",
            "post_code": 0
        },
        {
            "name": "Zr\u00ednyi",
            "kind": "utca",
            "post_code": 0
        },
        {
            "name": "Zsobr\u00e1k",
            "kind": "utca",
            "post_code": 0
        },
        {
            "name": "F\u0151",
            "kind": "t\u00e9r",
            "post_code": 0
        }
    ]
}