{
    "codes": {
        "3211": [
            "Gy\u00f6ngy\u00f6soroszi",
            null
        ]
    },
    "streets": [
        {
            "name": "Ady Endre",
            "kind": "\u00fat",
            "post_code": 0
        },
        {
            "name": "Arany J\u00e1nos",
            "kind": "\u00fat",
            "post_code": 0
        },
        {
            "name": "J\u00f3kai M\u00f3r",
            "kind": "\u00fat",
            "post_code": 0
        },
        {
            "name": "Kossuth",
            "kind": "\u00fat",
            "post_code": 0
        },
        {
            "name": "M\u00f3ricz Zs.",
            "kind": "\u00fat",
            "post_code": 0
        },
        {
            "name": "Pet\u0151fi",
            "kind": "\u00fat",
            "post_code": 0
        },
        {
            "name": "Szentk\u00fati b\u00facs\u00fasok",
            "kind": "\u00fatja",
            "post_code": 0
        },
        {
            "name": "T\u00e1ncsics M.",
            "kind": "\u00fat",
            "post_code": 0
        },
        {
            "name": "Vir\u00e1g",
            "kind": "\u00fat",
            "post_code": 0
        },
        {
            "name": "Volt b\u00e1nyavas\u00fat nyomvonala",
            "kind": "",
            "post_code": 0
        },
        {
            "name": "V\u00f6r\u00f6smarty M.",
            "kind": "\u00fat",
            "post_code": 0
        }
    ]
}