{
    "codes": {
        "3231": [
            "Gy\u00f6ngy\u00f6ssolymos",
            null
        ]
    },
    "streets": [
        {
            "name": "Ady Endre",
            "kind": "\u00fat",
            "post_code": 0
        },
        {
            "name": "B\u00e1ny\u00e1sz",
            "kind": "\u00fat",
            "post_code": 0
        },
        {
            "name": "Bart\u00f3k B\u00e9la",
            "kind": "\u00fat",
            "post_code": 0
        },
        {
            "name": "Bem",
            "kind": "t\u00e9r",
            "post_code": 0
        },
        {
            "name": "Cs\u00e1kk\u0151i",
            "kind": "\u00fat",
            "post_code": 0
        },
        {
            "name": "Csehek",
            "kind": "\u00fatja",
            "post_code": 0
        },
        {
            "name": "Di\u00f3smalom",
            "kind": "utca",
            "post_code": 0
        },
        {
            "name": "D\u00f3zsa Gy\u00f6rgy",
            "kind": "\u00fat",
            "post_code": 0
        },
        {
            "name": "Dr. Nagy Gyula",
            "kind": "utca",
            "post_code": 0
        },
        {
            "name": "Fecske",
            "kind": "\u00fat",
            "post_code": 0
        },
        {
            "name": "Fels\u0151-\u00dajv\u00e1rosi",
            "kind": "utca",
            "post_code": 0
        },
        {
            "name": "F\u0151",
            "kind": "t\u00e9r",
            "post_code": 0
        },
        {
            "name": "G\u00e1rdonyi G\u00e9za",
            "kind": "\u00fat",
            "post_code": 0
        },
        {
            "name": "G\u00f6rg\u0151i",
            "kind": "\u00fat",
            "post_code": 0
        },
        {
            "name": "Hat\u00e1r",
            "kind": "\u00fat",
            "post_code": 0
        },
        {
            "name": "Hunyadi",
            "kind": "\u00fat",
            "post_code": 0
        },
        {
            "name": "J\u00f3kai",
            "kind": "\u00fat",
            "post_code": 0
        },
        {
            "name": "J\u00f3zsef Attila",
            "kind": "utca",
            "post_code": 0
        },
        {
            "name": "Kishegyi",
            "kind": "\u00fat",
            "post_code": 0
        },
        {
            "name": "Kiss Ign\u00e1c",
            "kind": "\u00fat",
            "post_code": 0
        },
        {
            "name": "Kossuth",
            "kind": "\u00fat",
            "post_code": 0
        },
        {
            "name": "Malom",
            "kind": "\u00fat",
            "post_code": 0
        },
        {
            "name": "Mandul\u00e1s",
            "kind": "\u00fat",
            "post_code": 0
        },
        {
            "name": "M\u00e1trai",
            "kind": "\u00fat",
            "post_code": 0
        },
        {
            "name": "M\u00e9rgespatak",
            "kind": "\u00fat",
            "post_code": 0
        },
        {
            "name": "Papsz\u00e1ll\u00e1s-l\u00e1pa",
            "kind": "",
            "post_code": 0
        },
        {
            "name": "Pet\u0151fi",
            "kind": "\u00fat",
            "post_code": 0
        },
        {
            "name": "R\u00e1k\u00f3czi",
            "kind": "\u00fat",
            "post_code": 0
        },
        {
            "name": "Rakott",
            "kind": "\u00fat",
            "post_code": 0
        },
        {
            "name": "R\u00e9gi vas\u00fat",
            "kind": "",
            "post_code": 0
        },
        {
            "name": "Rudolftanyai-\u00fat",
            "kind": "",
            "post_code": 0
        },
        {
            "name": "Solymosi K\u00fclhat\u00e1r",
            "kind": "utca",
            "post_code": 0
        },
        {
            "name": "Szabads\u00e1g",
            "kind": "\u00fat",
            "post_code": 0
        },
        {
            "name": "Sz\u00e1nk\u00f3p\u00e1lya",
            "kind": "",
            "post_code": 0
        },
        {
            "name": "Sz\u00e9chenyi",
            "kind": "\u00fat",
            "post_code": 0
        },
        {
            "name": "Tihanyi",
            "kind": "\u00fat",
            "post_code": 0
        },
        {
            "name": "T\u00f6lgyes",
            "kind": "utca",
            "post_code": 0
        },
        {
            "name": "Vir\u00e1g",
            "kind": "\u00fat",
            "post_code": 0
        },
        {
            "name": "Z\u00f6ldkert",
            "kind": "\u00fat",
            "post_code": 0
        },
        {
            "name": "Szalajkah\u00e1z vas\u00fat",
            "kind": "\u00e1llom\u00e1s",
            "post_code": 0
        }
    ]
}