{
    "codes": {
        "2464": [
            "Gy\u00far\u00f3",
            null
        ]
    },
    "streets": [
        {
            "name": "Ak\u00e1cfa",
            "kind": "utca",
            "post_code": 0
        },
        {
            "name": "Bercs\u00e9nyi Mikl\u00f3s",
            "kind": "utca",
            "post_code": 0
        },
        {
            "name": "Bicskei",
            "kind": "\u00fat",
            "post_code": 0
        },
        {
            "name": "Bocskai Istv\u00e1n",
            "kind": "utca",
            "post_code": 0
        },
        {
            "name": "G\u00e1t",
            "kind": "k\u00f6z",
            "post_code": 0
        },
        {
            "name": "Kossuth Lajos",
            "kind": "utca",
            "post_code": 0
        },
        {
            "name": "Pet\u0151fi S\u00e1ndor",
            "kind": "utca",
            "post_code": 0
        },
        {
            "name": "R\u00e1k\u00f3czi Ferenc",
            "kind": "utca",
            "post_code": 0
        },
        {
            "name": "R\u00f3zsav\u00f6lgy",
            "kind": "utca",
            "post_code": 0
        },
        {
            "name": "Sport",
            "kind": "utca",
            "post_code": 0
        },
        {
            "name": "Sz\u00e9chenyi Istv\u00e1n",
            "kind": "utca",
            "post_code": 0
        },
        {
            "name": "Sz\u00e9chenyi",
            "kind": "k\u00f6z",
            "post_code": 0
        },
        {
            "name": "Szeder",
            "kind": "\u00fat",
            "post_code": 0
        },
        {
            "name": "Sz\u0151l\u0151hegyi",
            "kind": "\u00fat",
            "post_code": 0
        },
        {
            "name": "Temet\u0151",
            "kind": "utca",
            "post_code": 0
        },
        {
            "name": "Templom",
            "kind": "t\u00e9r",
            "post_code": 0
        },
        {
            "name": "Th\u00f6k\u00f6ly Imre",
            "kind": "utca",
            "post_code": 0
        }
    ]
}