{
    "streets": [
        {
            "name": "\u00c1rp\u00e1d",
            "kind": "utca",
            "post_code": 0
        },
        {
            "name": "B\u00e9ke",
            "kind": "utca",
            "post_code": 0
        },
        {
            "name": "Bessenyei Gy\u00f6rgy",
            "kind": "utca",
            "post_code": 0
        },
        {
            "name": "Dob\u00f3 Istv\u00e1n",
            "kind": "utca",
            "post_code": 0
        },
        {
            "name": "Gemzsei",
            "kind": "utca",
            "post_code": 0
        },
        {
            "name": "Pet\u0151fi S\u00e1ndor",
            "kind": "utca",
            "post_code": 0
        },
        {
            "name": "Szabads\u00e1g",
            "kind": "utca",
            "post_code": 0
        },
        {
            "name": "Vas\u00fat",
            "kind": "utca",
            "post_code": 0
        },
        {
            "name": "V\u00f6r\u00f6smarty Mih\u00e1ly",
            "kind": "utca",
            "post_code": 0
        },
        {
            "name": "Zr\u00ednyi Ilona",
            "kind": "utca",
            "post_code": 0
        }
    ]
}