{
    "codes": {
        "4074": [
            "Hajd\u00fab\u00f6sz\u00f6rm\u00e9ny",
            "Nagypr\u00f3d"
        ],
        "4086": [
            "Hajd\u00fab\u00f6sz\u00f6rm\u00e9ny",
            "Hajd\u00favid"
        ],
        "4220": [
            "Hajd\u00fab\u00f6sz\u00f6rm\u00e9ny",
            " "
        ],
        "4224": [
            "Hajd\u00fab\u00f6sz\u00f6rm\u00e9ny",
            "Bodasz\u0151l\u0151"
        ]
    },
    "streets": [
        {
            "name": "35",
            "kind": "",
            "post_code": 0
        },
        {
            "name": "\u00c1chim Andr\u00e1s",
            "kind": "utca",
            "post_code": 0
        },
        {
            "name": "Ady Endre",
            "kind": "t\u00e9r",
            "post_code": 0
        },
        {
            "name": "\u00c1g",
            "kind": "utca",
            "post_code": 0
        },
        {
            "name": "Alf\u00f6ld",
            "kind": "utca",
            "post_code": 0
        },
        {
            "name": "Alm\u00e1ssy M\u00e1rton",
            "kind": "utca",
            "post_code": 0
        },
        {
            "name": "Apafi Mih\u00e1ly",
            "kind": "utca",
            "post_code": 0
        },
        {
            "name": "Apponyi Albert",
            "kind": "utca",
            "post_code": 0
        },
        {
            "name": "Arad",
            "kind": "utca",
            "post_code": 0
        },
        {
            "name": "Arany J\u00e1nos",
            "kind": "utca",
            "post_code": 0
        },
        {
            "name": "\u00c1rp\u00e1d",
            "kind": "utca",
            "post_code": 0
        },
        {
            "name": "Attila",
            "kind": "utca",
            "post_code": 0
        },
        {
            "name": "Avar",
            "kind": "utca",
            "post_code": 0
        },
        {
            "name": "Bajcsy-Zsilinszky Endre",
            "kind": "utca",
            "post_code": 0
        },
        {
            "name": "Baktay Ervin",
            "kind": "utca",
            "post_code": 0
        },
        {
            "name": "Balassi B\u00e1lint",
            "kind": "utca",
            "post_code": 0
        },
        {
            "name": "Balthaz\u00e1r Dezs\u0151",
            "kind": "utca",
            "post_code": 0
        },
        {
            "name": "B\u00e1ns\u00e1g",
            "kind": "t\u00e9r",
            "post_code": 0
        },
        {
            "name": "Baross G\u00e1bor",
            "kind": "t\u00e9r",
            "post_code": 0
        },
        {
            "name": "Bart\u00f3k B\u00e9la",
            "kind": "utca",
            "post_code": 0
        },
        {
            "name": "B\u00e1thory G\u00e1bor",
            "kind": "k\u00f6r\u00fat",
            "post_code": 0
        },
        {
            "name": "Batthy\u00e1ny Lajos",
            "kind": "utca",
            "post_code": 0
        },
        {
            "name": "Beke Antal",
            "kind": "utca",
            "post_code": 0
        },
        {
            "name": "B\u00e9l M\u00e1ty\u00e1s",
            "kind": "utca",
            "post_code": 0
        },
        {
            "name": "Bem J\u00f3zsef",
            "kind": "utca",
            "post_code": 0
        },
        {
            "name": "Benedek J\u00e1nos",
            "kind": "utca",
            "post_code": 0
        },
        {
            "name": "Bercs\u00e9nyi Mikl\u00f3s",
            "kind": "utca",
            "post_code": 0
        },
        {
            "name": "Beseny\u0151",
            "kind": "utca",
            "post_code": 0
        },
        {
            "name": "Bethlen G\u00e1bor",
            "kind": "utca",
            "post_code": 0
        },
        {
            "name": "B\u00edr\u00f3 Lajos",
            "kind": "utca",
            "post_code": 0
        },
        {
            "name": "B\u00edr\u00f3 P\u00e9ter",
            "kind": "utca",
            "post_code": 0
        },
        {
            "name": "Bocskai Istv\u00e1n",
            "kind": "t\u00e9r",
            "post_code": 0
        },
        {
            "name": "Bolyai J\u00e1nos",
            "kind": "utca",
            "post_code": 0
        },
        {
            "name": "Botty\u00e1n J\u00e1nos",
            "kind": "utca",
            "post_code": 0
        },
        {
            "name": "Budai Nagy Antal",
            "kind": "utca",
            "post_code": 0
        },
        {
            "name": "Bulcs\u00fa",
            "kind": "utca",
            "post_code": 0
        },
        {
            "name": "Corvin J\u00e1nos",
            "kind": "k\u00f6r\u00fat",
            "post_code": 0
        },
        {
            "name": "Csaba kir\u00e1lyfi",
            "kind": "utca",
            "post_code": 0
        },
        {
            "name": "Csan\u00e1dy S\u00e1muel",
            "kind": "utca",
            "post_code": 0
        },
        {
            "name": "Cs\u00e1ng\u00f3",
            "kind": "utca",
            "post_code": 0
        },
        {
            "name": "Csat\u00e1r Istv\u00e1n",
            "kind": "utca",
            "post_code": 0
        },
        {
            "name": "Cserna",
            "kind": "utca",
            "post_code": 0
        },
        {
            "name": "Csiha Antal",
            "kind": "utca",
            "post_code": 0
        },
        {
            "name": "Csokonai Vit\u00e9z Mih\u00e1ly",
            "kind": "utca",
            "post_code": 0
        },
        {
            "name": "Csomak\u00f6zy Andr\u00e1s",
            "kind": "utca",
            "post_code": 0
        },
        {
            "name": "Csonkatorony",
            "kind": "utca",
            "post_code": 0
        },
        {
            "name": "Damjanich J\u00e1nos",
            "kind": "utca",
            "post_code": 0
        },
        {
            "name": "De\u00e1k Ferenc",
            "kind": "utca",
            "post_code": 0
        },
        {
            "name": "Debreceni",
            "kind": "utca",
            "post_code": 0
        },
        {
            "name": "D\u00e9s\u00e1ny Istv\u00e1n",
            "kind": "utca",
            "post_code": 0
        },
        {
            "name": "Di\u00f3szegi S\u00e1muel",
            "kind": "utca",
            "post_code": 0
        },
        {
            "name": "Dobay K\u00e1roly",
            "kind": "utca",
            "post_code": 0
        },
        {
            "name": "Dob\u00f3 Istv\u00e1n",
            "kind": "utca",
            "post_code": 0
        },
        {
            "name": "Doktor Moln\u00e1r Istv\u00e1n",
            "kind": "utca",
            "post_code": 0
        },
        {
            "name": "Domb",
            "kind": "utca",
            "post_code": 0
        },
        {
            "name": "Dorogi",
            "kind": "utca",
            "post_code": 0
        },
        {
            "name": "D\u00f3zsa Gy\u00f6rgy",
            "kind": "k\u00f6r\u00fat",
            "post_code": 0
        },
        {
            "name": "Egyh\u00e1z",
            "kind": "utca",
            "post_code": 0
        },
        {
            "name": "Elek J\u00e1nos",
            "kind": "utca",
            "post_code": 0
        },
        {
            "name": "Elfenbein Bertalan",
            "kind": "utca",
            "post_code": 0
        },
        {
            "name": "Enyingi T\u00f6r\u00f6k B\u00e1lint",
            "kind": "utca",
            "post_code": 0
        },
        {
            "name": "E\u00f6tv\u00f6s J\u00f3zsef",
            "kind": "utca",
            "post_code": 0
        },
        {
            "name": "Erd\u00e9ly",
            "kind": "utca",
            "post_code": 0
        },
        {
            "name": "Erd\u0151",
            "kind": "utca",
            "post_code": 0
        },
        {
            "name": "Erkel Ferenc",
            "kind": "utca",
            "post_code": 0
        },
        {
            "name": "Esze Tam\u00e1s",
            "kind": "utca",
            "post_code": 0
        },
        {
            "name": "Fazekas G\u00e1bor",
            "kind": "k\u00f6r\u00fat",
            "post_code": 0
        },
        {
            "name": "F\u00fcrd\u0151",
            "kind": "utca",
            "post_code": 0
        },
        {
            "name": "G\u00e1bor \u00c1ron",
            "kind": "utca",
            "post_code": 0
        },
        {
            "name": "G\u00e1t",
            "kind": "tanya",
            "post_code": 0
        },
        {
            "name": "G\u00e9za fejedelem",
            "kind": "utca",
            "post_code": 0
        },
        {
            "name": "Gombos Andr\u00e1s",
            "kind": "utca",
            "post_code": 0
        },
        {
            "name": "G\u00f6nczy P\u00e1l",
            "kind": "utca",
            "post_code": 0
        },
        {
            "name": "G\u00f6rgey Art\u00far",
            "kind": "utca",
            "post_code": 0
        },
        {
            "name": "Guh\u00e9r",
            "kind": "utca",
            "post_code": 0
        },
        {
            "name": "Gy\u00f6ngyvir\u00e1g",
            "kind": "utca",
            "post_code": 0
        },
        {
            "name": "Gy\u00f6rffy Istv\u00e1n",
            "kind": "utca",
            "post_code": 0
        },
        {
            "name": "Gy\u0151r\u00f6ssy",
            "kind": "kert",
            "post_code": 0
        },
        {
            "name": "Hadh\u00e1zi",
            "kind": "utca",
            "post_code": 0
        },
        {
            "name": "Hajd\u00faker\u00fclet",
            "kind": "utca",
            "post_code": 0
        },
        {
            "name": "Hargita",
            "kind": "utca",
            "post_code": 0
        },
        {
            "name": "Harmat",
            "kind": "utca",
            "post_code": 0
        },
        {
            "name": "H\u00e9t vez\u00e9r",
            "kind": "utca",
            "post_code": 0
        },
        {
            "name": "H\u00e9tvez\u00e9r",
            "kind": "utca",
            "post_code": 0
        },
        {
            "name": "H. Fekete P\u00e9ter",
            "kind": "utca",
            "post_code": 0
        },
        {
            "name": "Honv\u00e9d",
            "kind": "utca",
            "post_code": 0
        },
        {
            "name": "Hortob\u00e1gy",
            "kind": "utca",
            "post_code": 0
        },
        {
            "name": "Horv\u00e1th Mih\u00e1ly",
            "kind": "utca",
            "post_code": 0
        },
        {
            "name": "H\u0151s\u00f6k",
            "kind": "utca",
            "post_code": 0
        },
        {
            "name": "Hunyadi J\u00e1nos",
            "kind": "k\u00f6r\u00fat",
            "post_code": 0
        },
        {
            "name": "Husz\u00e1r",
            "kind": "utca",
            "post_code": 0
        },
        {
            "name": "Ifj. Major Gyula",
            "kind": "utca",
            "post_code": 0
        },
        {
            "name": "II. R\u00e1k\u00f3czi Ferenc",
            "kind": "utca",
            "post_code": 0
        },
        {
            "name": "Ipartelepi",
            "kind": "\u00fat",
            "post_code": 0
        },
        {
            "name": "Iskola",
            "kind": "utca",
            "post_code": 0
        },
        {
            "name": "J\u00e1szkun",
            "kind": "utca",
            "post_code": 0
        },
        {
            "name": "J\u00f3kai M\u00f3r",
            "kind": "utca",
            "post_code": 0
        },
        {
            "name": "J\u00f3zsef Attila",
            "kind": "utca",
            "post_code": 0
        },
        {
            "name": "Juh\u00e1sz Gyula",
            "kind": "utca",
            "post_code": 0
        },
        {
            "name": "K\u00e1lvineum",
            "kind": "utca",
            "post_code": 0
        },
        {
            "name": "K\u00e1lvin",
            "kind": "t\u00e9r",
            "post_code": 0
        },
        {
            "name": "Kand\u00f3 K\u00e1lm\u00e1n",
            "kind": "utca",
            "post_code": 0
        },
        {
            "name": "K\u00e1pl\u00e1r Mikl\u00f3s",
            "kind": "utca",
            "post_code": 0
        },
        {
            "name": "Karap Ferenc",
            "kind": "utca",
            "post_code": 0
        },
        {
            "name": "K\u00e1rolyi G\u00e1sp\u00e1r",
            "kind": "utca",
            "post_code": 0
        },
        {
            "name": "K\u00e1rolyi Mih\u00e1ly",
            "kind": "utca",
            "post_code": 0
        },
        {
            "name": "Kassa",
            "kind": "utca",
            "post_code": 0
        },
        {
            "name": "Katona J\u00f3zsef",
            "kind": "utca",
            "post_code": 0
        },
        {
            "name": "Kem\u00e9ny J\u00e1nos",
            "kind": "k\u00f6r\u00fat",
            "post_code": 0
        },
        {
            "name": "Keresztesi J\u00f3zsef",
            "kind": "utca",
            "post_code": 0
        },
        {
            "name": "Kert\u00e9sz L\u00e1szl\u00f3",
            "kind": "utca",
            "post_code": 0
        },
        {
            "name": "Kert",
            "kind": "utca",
            "post_code": 0
        },
        {
            "name": "Kinizsi P\u00e1l",
            "kind": "utca",
            "post_code": 0
        },
        {
            "name": "Kir\u00e1lyh\u00e1g\u00f3",
            "kind": "utca",
            "post_code": 0
        },
        {
            "name": "Kir\u00e1ly Jen\u0151",
            "kind": "t\u00e9r",
            "post_code": 0
        },
        {
            "name": "Kisb\u00f6sz\u00f6rm\u00e9ny",
            "kind": "utca",
            "post_code": 0
        },
        {
            "name": "Kisfaludy S\u00e1ndor",
            "kind": "utca",
            "post_code": 0
        },
        {
            "name": "Klapka Gy\u00f6rgy",
            "kind": "utca",
            "post_code": 0
        },
        {
            "name": "Kod\u00e1ly Zolt\u00e1n",
            "kind": "utca",
            "post_code": 0
        },
        {
            "name": "K\u00f6lcsey Ferenc",
            "kind": "utca",
            "post_code": 0
        },
        {
            "name": "Kolozsv\u00e1r",
            "kind": "utca",
            "post_code": 0
        },
        {
            "name": "Kom\u00e1rom",
            "kind": "utca",
            "post_code": 0
        },
        {
            "name": "Kopp\u00e1ny",
            "kind": "utca",
            "post_code": 0
        },
        {
            "name": "Kor\u00e1nyi Frigyes",
            "kind": "utca",
            "post_code": 0
        },
        {
            "name": "K\u00f3rh\u00e1z",
            "kind": "t\u00e9r",
            "post_code": 0
        },
        {
            "name": "K\u0151r\u00f6si Csoma S\u00e1ndor",
            "kind": "utca",
            "post_code": 0
        },
        {
            "name": "Korpona",
            "kind": "utca",
            "post_code": 0
        },
        {
            "name": "Kossuth Lajos",
            "kind": "utca",
            "post_code": 0
        },
        {
            "name": "Kov\u00e1cs Albert",
            "kind": "utca",
            "post_code": 0
        },
        {
            "name": "K\u00f6v\u00e9r Gy\u00f6rgy",
            "kind": "utca",
            "post_code": 0
        },
        {
            "name": "K\u00f6vi Mikl\u00f3s",
            "kind": "utca",
            "post_code": 0
        },
        {
            "name": "K\u00f6z\u00e9pkert",
            "kind": "utca",
            "post_code": 0
        },
        {
            "name": "Kr\u00fady Gyula",
            "kind": "utca",
            "post_code": 0
        },
        {
            "name": "K\u00fcls\u0151-Debreceni",
            "kind": "utca",
            "post_code": 0
        },
        {
            "name": "K\u00fcls\u0151-Dorogi",
            "kind": "utca",
            "post_code": 0
        },
        {
            "name": "K\u00fcls\u0151-Hadh\u00e1zi",
            "kind": "utca",
            "post_code": 0
        },
        {
            "name": "K\u00fcls\u0151-N\u00e1n\u00e1si",
            "kind": "utca",
            "post_code": 0
        },
        {
            "name": "K\u00fcls\u0151 Szoboszl\u00f3i",
            "kind": "\u00fat",
            "post_code": 0
        },
        {
            "name": "K\u00fcls\u0151-\u00dajfeh\u00e9rt\u00f3i",
            "kind": "utca",
            "post_code": 0
        },
        {
            "name": "K\u00fcls\u0151 \u00dajv\u00e1rosi",
            "kind": "utca",
            "post_code": 0
        },
        {
            "name": "Kuruc",
            "kind": "utca",
            "post_code": 0
        },
        {
            "name": "Laborfalvi R\u00f3za",
            "kind": "utca",
            "post_code": 0
        },
        {
            "name": "L\u00e9vay M\u00e1rton",
            "kind": "utca",
            "post_code": 0
        },
        {
            "name": "Liszt Ferenc",
            "kind": "utca",
            "post_code": 0
        },
        {
            "name": "Lor\u00e1ntffy Zsuzsanna",
            "kind": "utca",
            "post_code": 0
        },
        {
            "name": "Losonczy Istv\u00e1n",
            "kind": "utca",
            "post_code": 0
        },
        {
            "name": "Lucern\u00e1s",
            "kind": "utca",
            "post_code": 0
        },
        {
            "name": "Luther M\u00e1rton",
            "kind": "utca",
            "post_code": 0
        },
        {
            "name": "Mad\u00e1ch Imre",
            "kind": "utca",
            "post_code": 0
        },
        {
            "name": "Madar\u00e1sz Viktor",
            "kind": "utca",
            "post_code": 0
        },
        {
            "name": "M\u00e1rcius 15.",
            "kind": "utca",
            "post_code": 0
        },
        {
            "name": "Maros",
            "kind": "utca",
            "post_code": 0
        },
        {
            "name": "Martinovics Ign\u00e1c",
            "kind": "utca",
            "post_code": 0
        },
        {
            "name": "M\u00e1ty\u00e1s kir\u00e1ly",
            "kind": "k\u00f6r\u00fat",
            "post_code": 0
        },
        {
            "name": "M\u00c1V-\u00e1llom\u00e1s",
            "kind": "",
            "post_code": 0
        },
        {
            "name": "Megyeri K\u00e1roly",
            "kind": "utca",
            "post_code": 0
        },
        {
            "name": "M\u00e9liusz P\u00e9ter",
            "kind": "utca",
            "post_code": 0
        },
        {
            "name": "Messzil\u00e1t\u00f3",
            "kind": "utca",
            "post_code": 0
        },
        {
            "name": "Mester",
            "kind": "utca",
            "post_code": 0
        },
        {
            "name": "M\u00e9sz\u00e1ros L\u0151rinc",
            "kind": "utca",
            "post_code": 0
        },
        {
            "name": "M\u00f3ra Ferenc",
            "kind": "utca",
            "post_code": 0
        },
        {
            "name": "M\u00f3ricz Zsigmond",
            "kind": "utca",
            "post_code": 0
        },
        {
            "name": "Munk\u00e1csy Mih\u00e1ly",
            "kind": "utca",
            "post_code": 0
        },
        {
            "name": "Murak\u00f6z",
            "kind": "t\u00e9r",
            "post_code": 0
        },
        {
            "name": "Nagy Andr\u00e1s",
            "kind": "utca",
            "post_code": 0
        },
        {
            "name": "Nagyat\u00e1di Szab\u00f3 Istv\u00e1n",
            "kind": "utca",
            "post_code": 0
        },
        {
            "name": "Nagy Imre",
            "kind": "utca",
            "post_code": 0
        },
        {
            "name": "Nagy Istv\u00e1n",
            "kind": "utca",
            "post_code": 0
        },
        {
            "name": "Nagy S\u00e1ndor J\u00f3zsef",
            "kind": "utca",
            "post_code": 0
        },
        {
            "name": "N\u00e1n\u00e1si",
            "kind": "utca",
            "post_code": 0
        },
        {
            "name": "Nap",
            "kind": "utca",
            "post_code": 0
        },
        {
            "name": "Nefelejcs",
            "kind": "utca",
            "post_code": 0
        },
        {
            "name": "Nemzet\u0151r",
            "kind": "utca",
            "post_code": 0
        },
        {
            "name": "Ny\u00e1r",
            "kind": "utca",
            "post_code": 0
        },
        {
            "name": "Ol\u00e1h Ferenc",
            "kind": "utca",
            "post_code": 0
        },
        {
            "name": "Olaj\u00fct\u0151",
            "kind": "utca",
            "post_code": 0
        },
        {
            "name": "\u00d3voda",
            "kind": "utca",
            "post_code": 0
        },
        {
            "name": "Pacsirta",
            "kind": "utca",
            "post_code": 0
        },
        {
            "name": "P\u00e1lnagy Zsigmond",
            "kind": "utca",
            "post_code": 0
        },
        {
            "name": "P\u00e1sztor",
            "kind": "utca",
            "post_code": 0
        },
        {
            "name": "P\u00e9chi Simon",
            "kind": "utca",
            "post_code": 0
        },
        {
            "name": "P\u00e9li G\u00e1bor",
            "kind": "utca",
            "post_code": 0
        },
        {
            "name": "Perczel M\u00f3r",
            "kind": "utca",
            "post_code": 0
        },
        {
            "name": "Petneh\u00e1zy D\u00e1vid",
            "kind": "utca",
            "post_code": 0
        },
        {
            "name": "Pet\u0151fi S\u00e1ndor",
            "kind": "utca",
            "post_code": 0
        },
        {
            "name": "Polg\u00e1ri",
            "kind": "utca",
            "post_code": 0
        },
        {
            "name": "Po\u00f3r Antal",
            "kind": "utca",
            "post_code": 0
        },
        {
            "name": "Porcsalmy Gyula",
            "kind": "utca",
            "post_code": 0
        },
        {
            "name": "Pusk\u00e1s Tivadar",
            "kind": "utca",
            "post_code": 0
        },
        {
            "name": "Pusztaszer",
            "kind": "utca",
            "post_code": 0
        },
        {
            "name": "R\u00e1c",
            "kind": "utca",
            "post_code": 0
        },
        {
            "name": "Radn\u00f3ti Mikl\u00f3s",
            "kind": "utca",
            "post_code": 0
        },
        {
            "name": "Rh\u00e9dey Ferenc",
            "kind": "utca",
            "post_code": 0
        },
        {
            "name": "Salg\u00f3tarj\u00e1n",
            "kind": "utca",
            "post_code": 0
        },
        {
            "name": "Semmelweis Ign\u00e1c",
            "kind": "utca",
            "post_code": 0
        },
        {
            "name": "Sillye G\u00e1bor",
            "kind": "utca",
            "post_code": 0
        },
        {
            "name": "Somossy B\u00e9la",
            "kind": "utca",
            "post_code": 0
        },
        {
            "name": "Stromfeld Aur\u00e9l",
            "kind": "utca",
            "post_code": 0
        },
        {
            "name": "Szabadhajd\u00fa",
            "kind": "utca",
            "post_code": 0
        },
        {
            "name": "Szab\u00f3 Antal",
            "kind": "utca",
            "post_code": 0
        },
        {
            "name": "Szabolcs",
            "kind": "utca",
            "post_code": 0
        },
        {
            "name": "Szakiskola",
            "kind": "utca",
            "post_code": 0
        },
        {
            "name": "Sz\u00e1mad\u00f3",
            "kind": "utca",
            "post_code": 0
        },
        {
            "name": "Sz\u00e1razmalom",
            "kind": "utca",
            "post_code": 0
        },
        {
            "name": "Sz\u00e9kely",
            "kind": "utca",
            "post_code": 0
        },
        {
            "name": "Sz\u00e9n\u00e1ssy M\u00e1ty\u00e1s",
            "kind": "utca",
            "post_code": 0
        },
        {
            "name": "Szente B\u00e1lint",
            "kind": "utca",
            "post_code": 0
        },
        {
            "name": "Szent Istv\u00e1n",
            "kind": "t\u00e9r",
            "post_code": 0
        },
        {
            "name": "Szil\u00e1gyi Erzs\u00e9bet",
            "kind": "k\u00f6r\u00fat",
            "post_code": 0
        },
        {
            "name": "Szilassy J\u00e1nos",
            "kind": "utca",
            "post_code": 0
        },
        {
            "name": "Szoboszl\u00f3i",
            "kind": "utca",
            "post_code": 0
        },
        {
            "name": "Szondi Gy\u00f6rgy",
            "kind": "utca",
            "post_code": 0
        },
        {
            "name": "T\u00e1ltos",
            "kind": "utca",
            "post_code": 0
        },
        {
            "name": "T\u00e1ncsics Mih\u00e1ly",
            "kind": "k\u00f6r\u00fat",
            "post_code": 0
        },
        {
            "name": "T\u00e1tra",
            "kind": "utca",
            "post_code": 0
        },
        {
            "name": "Tavasz",
            "kind": "utca",
            "post_code": 0
        },
        {
            "name": "T\u00e9glagy\u00e1r",
            "kind": "utca",
            "post_code": 0
        },
        {
            "name": "T\u00e9gl\u00e1si",
            "kind": "utca",
            "post_code": 0
        },
        {
            "name": "Temet\u0151",
            "kind": "t\u00e9r",
            "post_code": 0
        },
        {
            "name": "Tessedik S\u00e1muel",
            "kind": "utca",
            "post_code": 0
        },
        {
            "name": "Th\u00f6k\u00f6ly Imre",
            "kind": "utca",
            "post_code": 0
        },
        {
            "name": "Tizenh\u00e1rom v\u00e9rtan\u00fa",
            "kind": "utca",
            "post_code": 0
        },
        {
            "name": "Toldi Mikl\u00f3s",
            "kind": "utca",
            "post_code": 0
        },
        {
            "name": "T\u00f3th \u00c1rp\u00e1d",
            "kind": "utca",
            "post_code": 0
        },
        {
            "name": "Tur\u00e1n",
            "kind": "utca",
            "post_code": 0
        },
        {
            "name": "\u00dajfeh\u00e9rt\u00f3i",
            "kind": "\u00fat",
            "post_code": 0
        },
        {
            "name": "\u00dajfeh\u00e9rt\u00f3i",
            "kind": "utca",
            "post_code": 0
        },
        {
            "name": "\u00dajv\u00e1rosi",
            "kind": "utca",
            "post_code": 0
        },
        {
            "name": "Ungv\u00e1r",
            "kind": "utca",
            "post_code": 0
        },
        {
            "name": "Uzsok",
            "kind": "t\u00e9r",
            "post_code": 0
        },
        {
            "name": "V\u00e1ci Mih\u00e1ly",
            "kind": "utca",
            "post_code": 0
        },
        {
            "name": "Vajda J\u00e1nos",
            "kind": "utca",
            "post_code": 0
        },
        {
            "name": "V\u00e1k\u00e1ncsos",
            "kind": "utca",
            "post_code": 0
        },
        {
            "name": "V\u00e1roskert",
            "kind": "utca",
            "post_code": 0
        },
        {
            "name": "V\u00e1r",
            "kind": "utca",
            "post_code": 0
        },
        {
            "name": "V\u00e1s\u00e1r",
            "kind": "t\u00e9r",
            "post_code": 0
        },
        {
            "name": "Vas\u00fat",
            "kind": "utca",
            "post_code": 0
        },
        {
            "name": "Vasv\u00e1ri P\u00e1l",
            "kind": "utca",
            "post_code": 0
        },
        {
            "name": "Veress G\u00e9za",
            "kind": "utca",
            "post_code": 0
        },
        {
            "name": "Veress P\u00e9ter",
            "kind": "utca",
            "post_code": 0
        },
        {
            "name": "Vidtelke",
            "kind": "utca",
            "post_code": 0
        },
        {
            "name": "V\u00edg",
            "kind": "utca",
            "post_code": 0
        },
        {
            "name": "Vit\u00e9z",
            "kind": "utca",
            "post_code": 0
        },
        {
            "name": "V\u00f6r\u00f6smarty Mih\u00e1ly",
            "kind": "utca",
            "post_code": 0
        },
        {
            "name": "Weszpr\u00e9my G\u00e1sp\u00e1r",
            "kind": "utca",
            "post_code": 0
        },
        {
            "name": "Zelem\u00e9r",
            "kind": "utca",
            "post_code": 0
        },
        {
            "name": "Zombor",
            "kind": "utca",
            "post_code": 0
        },
        {
            "name": "Zr\u00ednyi Mikl\u00f3s",
            "kind": "utca",
            "post_code": 0
        },
        {
            "name": "Zsemberi",
            "kind": "utca",
            "post_code": 0
        }
    ]
}