{
    "codes": {
        "4087": [
            "Hajd\u00fadorog",
            null
        ]
    },
    "streets": [
        {
            "name": "Ady Endre",
            "kind": "utca",
            "post_code": 0
        },
        {
            "name": "Agyag",
            "kind": "utca",
            "post_code": 0
        },
        {
            "name": "Ak\u00e1cfa",
            "kind": "utca",
            "post_code": 0
        },
        {
            "name": "\u00c1rp\u00e1d",
            "kind": "k\u00f6r\u00fat",
            "post_code": 0
        },
        {
            "name": "Bagoly",
            "kind": "zug",
            "post_code": 0
        },
        {
            "name": "Balogh S\u00e1ndor",
            "kind": "utca",
            "post_code": 0
        },
        {
            "name": "Bocskai Istv\u00e1n",
            "kind": "k\u00f6r\u00fat",
            "post_code": 0
        },
        {
            "name": "B\u00f6sz\u00f6rm\u00e9nyi",
            "kind": "\u00fat",
            "post_code": 0
        },
        {
            "name": "B\u00f6sz\u00f6rm\u00e9nyi",
            "kind": "zug",
            "post_code": 0
        },
        {
            "name": "Csalog\u00e1ny",
            "kind": "utca",
            "post_code": 0
        },
        {
            "name": "Csap",
            "kind": "utca",
            "post_code": 0
        },
        {
            "name": "Csonka",
            "kind": "utca",
            "post_code": 0
        },
        {
            "name": "Csontos",
            "kind": "kert",
            "post_code": 0
        },
        {
            "name": "Darabos",
            "kind": "utca",
            "post_code": 0
        },
        {
            "name": "Daru",
            "kind": "zug",
            "post_code": 0
        },
        {
            "name": "Di\u00f3fa",
            "kind": "utca",
            "post_code": 0
        },
        {
            "name": "Diszn\u00f3k\u00fat \u00e9szak",
            "kind": "tanya",
            "post_code": 0
        },
        {
            "name": "Diszn\u00f3k\u00fat kelet",
            "kind": "tanya",
            "post_code": 0
        },
        {
            "name": "Diszn\u00f3k\u00fat nyugat",
            "kind": "tanya",
            "post_code": 0
        },
        {
            "name": "Doh\u00e1nybev\u00e1lt\u00f3",
            "kind": "utca",
            "post_code": 0
        },
        {
            "name": "Doh\u00e1ny",
            "kind": "utca",
            "post_code": 0
        },
        {
            "name": "Domb",
            "kind": "utca",
            "post_code": 0
        },
        {
            "name": "D\u00f3zsa Gy\u00f6rgy",
            "kind": "utca",
            "post_code": 0
        },
        {
            "name": "\u00c9k",
            "kind": "utca",
            "post_code": 0
        },
        {
            "name": "Elekbokor",
            "kind": "",
            "post_code": 0
        },
        {
            "name": "Farkas",
            "kind": "zug",
            "post_code": 0
        },
        {
            "name": "Feh\u00e9rt\u00f3i",
            "kind": "\u00fat",
            "post_code": 0
        },
        {
            "name": "Fogad\u00f3",
            "kind": "utca",
            "post_code": 0
        },
        {
            "name": "F\u00fcrd\u0151",
            "kind": "utca",
            "post_code": 0
        },
        {
            "name": "F\u00fczes",
            "kind": "utca",
            "post_code": 0
        },
        {
            "name": "Galamb",
            "kind": "utca",
            "post_code": 0
        },
        {
            "name": "G\u00e1ti",
            "kind": "utca",
            "post_code": 0
        },
        {
            "name": "G\u00e1ti",
            "kind": "zug",
            "post_code": 0
        },
        {
            "name": "G\u00e1t",
            "kind": "tanya",
            "post_code": 0
        },
        {
            "name": "G\u00f3lya",
            "kind": "utca",
            "post_code": 0
        },
        {
            "name": "G\u00f6r\u00f6gh Demeter",
            "kind": "utca",
            "post_code": 0
        },
        {
            "name": "G\u00f6r\u00f6gk\u00fat d\u00e9l",
            "kind": "tanya",
            "post_code": 0
        },
        {
            "name": "G\u00f6r\u00f6gk\u00fat \u00e9szak",
            "kind": "tanya",
            "post_code": 0
        },
        {
            "name": "Gyepsz\u00e9l",
            "kind": "utca",
            "post_code": 0
        },
        {
            "name": "Gyep",
            "kind": "utca",
            "post_code": 0
        },
        {
            "name": "Gyul\u00e1s",
            "kind": "tanya",
            "post_code": 0
        },
        {
            "name": "Hajd\u00fa",
            "kind": "utca",
            "post_code": 0
        },
        {
            "name": "Hajnal",
            "kind": "utca",
            "post_code": 0
        },
        {
            "name": "H\u00e9t\u00fat",
            "kind": "utca",
            "post_code": 0
        },
        {
            "name": "Homok",
            "kind": "utca",
            "post_code": 0
        },
        {
            "name": "Homok",
            "kind": "zug",
            "post_code": 0
        },
        {
            "name": "Hunyadi J\u00e1nos",
            "kind": "utca",
            "post_code": 0
        },
        {
            "name": "Iskolakert",
            "kind": "utca",
            "post_code": 0
        },
        {
            "name": "Iskola",
            "kind": "utca",
            "post_code": 0
        },
        {
            "name": "Jaczkovics",
            "kind": "utca",
            "post_code": 0
        },
        {
            "name": "Jeles Gy\u00f6rgy",
            "kind": "utca",
            "post_code": 0
        },
        {
            "name": "J\u00f3kai M\u00f3r",
            "kind": "utca",
            "post_code": 0
        },
        {
            "name": "Juhos",
            "kind": "zug",
            "post_code": 0
        },
        {
            "name": "K\u00e1ntor",
            "kind": "utca",
            "post_code": 0
        },
        {
            "name": "Kar",
            "kind": "utca",
            "post_code": 0
        },
        {
            "name": "Keleti",
            "kind": "utca",
            "post_code": 0
        },
        {
            "name": "Keskeny",
            "kind": "utca",
            "post_code": 0
        },
        {
            "name": "Kiss J\u00e1nos",
            "kind": "utca",
            "post_code": 0
        },
        {
            "name": "Kistelep",
            "kind": "utca",
            "post_code": 0
        },
        {
            "name": "Kis",
            "kind": "zug",
            "post_code": 0
        },
        {
            "name": "K\u00f6lesf\u00f6ld",
            "kind": "tanya",
            "post_code": 0
        },
        {
            "name": "K\u00f6ny\u00f6k",
            "kind": "utca",
            "post_code": 0
        },
        {
            "name": "K\u00f3rh\u00e1z",
            "kind": "utca",
            "post_code": 0
        },
        {
            "name": "Kossuth Lajos",
            "kind": "utca",
            "post_code": 0
        },
        {
            "name": "K\u00f6t\u0151",
            "kind": "utca",
            "post_code": 0
        },
        {
            "name": "Kov\u00e1cs",
            "kind": "utca",
            "post_code": 0
        },
        {
            "name": "K\u00fcls\u0151-Dorogi",
            "kind": "utca",
            "post_code": 0
        },
        {
            "name": "Kuruc",
            "kind": "utca",
            "post_code": 0
        },
        {
            "name": "K\u00fat",
            "kind": "utca",
            "post_code": 0
        },
        {
            "name": "Lakatos",
            "kind": "utca",
            "post_code": 0
        },
        {
            "name": "L\u00e1p",
            "kind": "utca",
            "post_code": 0
        },
        {
            "name": "L\u00f3kert",
            "kind": "tanya",
            "post_code": 0
        },
        {
            "name": "L\u0151t\u00e9r",
            "kind": "utca",
            "post_code": 0
        },
        {
            "name": "Luk\u00e1cs",
            "kind": "zug",
            "post_code": 0
        },
        {
            "name": "Magyar",
            "kind": "utca",
            "post_code": 0
        },
        {
            "name": "Marx K\u00e1roly",
            "kind": "utca",
            "post_code": 0
        },
        {
            "name": "M\u00e1ty\u00e1s kir\u00e1ly",
            "kind": "k\u00f6r\u00fat",
            "post_code": 0
        },
        {
            "name": "M\u00e1ty\u00e1s",
            "kind": "k\u00f6r\u00fat",
            "post_code": 0
        },
        {
            "name": "M\u00e1ty\u00e1s",
            "kind": "zug",
            "post_code": 0
        },
        {
            "name": "M\u00e9ntelep",
            "kind": "utca",
            "post_code": 0
        },
        {
            "name": "Mester",
            "kind": "utca",
            "post_code": 0
        },
        {
            "name": "Mocs\u00e1r",
            "kind": "utca",
            "post_code": 0
        },
        {
            "name": "Nagy S\u00e1ndor",
            "kind": "utca",
            "post_code": 0
        },
        {
            "name": "Nagyt\u00f3",
            "kind": "utca",
            "post_code": 0
        },
        {
            "name": "N\u00e1n\u00e1si",
            "kind": "\u00fat",
            "post_code": 0
        },
        {
            "name": "Nap",
            "kind": "utca",
            "post_code": 0
        },
        {
            "name": "Ny\u00e1rfa",
            "kind": "utca",
            "post_code": 0
        },
        {
            "name": "Ny\u00edl",
            "kind": "utca",
            "post_code": 0
        },
        {
            "name": "Ny\u00edregyh\u00e1zi",
            "kind": "utca",
            "post_code": 0
        },
        {
            "name": "\u00d3voda",
            "kind": "utca",
            "post_code": 0
        },
        {
            "name": "Pacsirta",
            "kind": "utca",
            "post_code": 0
        },
        {
            "name": "Pet\u0151fi S\u00e1ndor",
            "kind": "utca",
            "post_code": 0
        },
        {
            "name": "Pet\u0151fi",
            "kind": "t\u00e9r",
            "post_code": 0
        },
        {
            "name": "Posta",
            "kind": "zug",
            "post_code": 0
        },
        {
            "name": "R\u00e1k\u00f3czi Ferenc",
            "kind": "k\u00f6r\u00fat",
            "post_code": 0
        },
        {
            "name": "R\u00e1k\u00f3czi",
            "kind": "kert",
            "post_code": 0
        },
        {
            "name": "R\u00e9gi Tokaji",
            "kind": "\u00fat",
            "post_code": 0
        },
        {
            "name": "Rig\u00f3",
            "kind": "zug",
            "post_code": 0
        },
        {
            "name": "R\u00f6vid",
            "kind": "utca",
            "post_code": 0
        },
        {
            "name": "R\u00f3zsa",
            "kind": "utca",
            "post_code": 0
        },
        {
            "name": "Sarl\u00f3",
            "kind": "utca",
            "post_code": 0
        },
        {
            "name": "Sarok",
            "kind": "utca",
            "post_code": 0
        },
        {
            "name": "Sima",
            "kind": "utca",
            "post_code": 0
        },
        {
            "name": "Sz\u00e1ll\u00e1sf\u00f6ld d\u00e9l",
            "kind": "tanya",
            "post_code": 0
        },
        {
            "name": "Sz\u00e1ll\u00e1sf\u00f6ld \u00e9szak",
            "kind": "tanya",
            "post_code": 0
        },
        {
            "name": "Sz\u00e1ll\u00e1sf\u00f6ld k\u00f6z\u00e9p",
            "kind": "tanya",
            "post_code": 0
        },
        {
            "name": "Sz\u00e9chenyi Istv\u00e1n",
            "kind": "utca",
            "post_code": 0
        },
        {
            "name": "Sz\u00edv",
            "kind": "utca",
            "post_code": 0
        },
        {
            "name": "Sz\u0151l\u0151skert",
            "kind": "utca",
            "post_code": 0
        },
        {
            "name": "Tan\u00edt\u00f3",
            "kind": "utca",
            "post_code": 0
        },
        {
            "name": "T\u00e9glagy\u00e1r",
            "kind": "utca",
            "post_code": 0
        },
        {
            "name": "T\u00e9gla",
            "kind": "utca",
            "post_code": 0
        },
        {
            "name": "Telek",
            "kind": "utca",
            "post_code": 0
        },
        {
            "name": "Templom",
            "kind": "utca",
            "post_code": 0
        },
        {
            "name": "Toborz\u00f3",
            "kind": "utca",
            "post_code": 0
        },
        {
            "name": "Tokaji",
            "kind": "\u00fat",
            "post_code": 0
        },
        {
            "name": "T\u00f3part",
            "kind": "utca",
            "post_code": 0
        },
        {
            "name": "T\u0171",
            "kind": "utca",
            "post_code": 0
        },
        {
            "name": "\u00dajtelep",
            "kind": "utca",
            "post_code": 0
        },
        {
            "name": "\u00dajtemet\u0151",
            "kind": "utca",
            "post_code": 0
        },
        {
            "name": "\u00daj",
            "kind": "utca",
            "post_code": 0
        },
        {
            "name": "V\u00e1roskert",
            "kind": "utca",
            "post_code": 0
        },
        {
            "name": "V\u00e1s\u00e1rhelyi P\u00e1l",
            "kind": "utca",
            "post_code": 0
        },
        {
            "name": "V\u00e1s\u00e1r",
            "kind": "utca",
            "post_code": 0
        },
        {
            "name": "Vas\u00fat",
            "kind": "utca",
            "post_code": 0
        },
        {
            "name": "Vasv\u00e1ri P\u00e1l",
            "kind": "t\u00e9r",
            "post_code": 0
        },
        {
            "name": "Vasv\u00e1ri P\u00e1l",
            "kind": "utca",
            "post_code": 0
        },
        {
            "name": "V\u00e9rcse",
            "kind": "utca",
            "post_code": 0
        },
        {
            "name": "Vid\u00edt\u00f3",
            "kind": "utca",
            "post_code": 0
        },
        {
            "name": "V\u00edg",
            "kind": "utca",
            "post_code": 0
        },
        {
            "name": "Vir\u00e1g",
            "kind": "utca",
            "post_code": 0
        },
        {
            "name": "V\u00f6r\u00f6smarty Mih\u00e1ly",
            "kind": "utca",
            "post_code": 0
        },
        {
            "name": "Zajgat\u00f3",
            "kind": "tanya",
            "post_code": 0
        },
        {
            "name": "Z\u00f6ld",
            "kind": "utca",
            "post_code": 0
        },
        {
            "name": "Zs\u00e1k",
            "kind": "utca",
            "post_code": 0
        }
    ]
}