{
    "codes": {
        "7694": [
            "Hossz\u00fahet\u00e9ny",
            null
        ]
    },
    "streets": [
        {
            "name": "alig l\u00e1that\u00f3 szek\u00e9r\u00fat",
            "kind": "",
            "post_code": 0
        },
        {
            "name": "B\u00e9ke",
            "kind": "utca",
            "post_code": 0
        },
        {
            "name": "Bencze J\u00f3zsef",
            "kind": "utca",
            "post_code": 0
        },
        {
            "name": "Berki F\u00fcl\u00f6p",
            "kind": "utca",
            "post_code": 0
        },
        {
            "name": "Felszabadul\u00e1s",
            "kind": "utca",
            "post_code": 0
        },
        {
            "name": "F\u0151",
            "kind": "utca",
            "post_code": 0
        },
        {
            "name": "Hegyalja",
            "kind": "utca",
            "post_code": 0
        },
        {
            "name": "Hegyel\u0151",
            "kind": "utca",
            "post_code": 0
        },
        {
            "name": "Hidasi-v\u00f6lgy",
            "kind": "",
            "post_code": 0
        },
        {
            "name": "Iskola",
            "kind": "utca",
            "post_code": 0
        },
        {
            "name": "J\u00e1rhat\u00f3 v\u00edzmos\u00e1s",
            "kind": "",
            "post_code": 0
        },
        {
            "name": "Kis-t\u00f3ti-v\u00f6lgy",
            "kind": "",
            "post_code": 0
        },
        {
            "name": "K\u0151foly\u00e1s",
            "kind": "",
            "post_code": 0
        },
        {
            "name": "Kossuth Lajos",
            "kind": "utca",
            "post_code": 0
        },
        {
            "name": "Landler Jen\u0151",
            "kind": "utca",
            "post_code": 0
        },
        {
            "name": "M\u00e1ltet\u0151",
            "kind": "utca",
            "post_code": 0
        },
        {
            "name": "Meredek",
            "kind": "",
            "post_code": 0
        },
        {
            "name": "Morolo",
            "kind": "utca",
            "post_code": 0
        },
        {
            "name": "Nehezen j\u00e1rhat\u00f3",
            "kind": "",
            "post_code": 0
        },
        {
            "name": "\u00d3b\u00e1nyai-v\u00f6lgy",
            "kind": "",
            "post_code": 0
        },
        {
            "name": "Orm\u00e1ndi",
            "kind": "utca",
            "post_code": 0
        },
        {
            "name": "P\u00e9ter",
            "kind": "\u00fat",
            "post_code": 0
        },
        {
            "name": "Pet\u0151fi S\u00e1ndor",
            "kind": "utca",
            "post_code": 0
        },
        {
            "name": "S\u00edn-g\u00f6d\u00f6r",
            "kind": "",
            "post_code": 0
        },
        {
            "name": "Takany\u00f3",
            "kind": "",
            "post_code": 0
        },
        {
            "name": "Tavasz",
            "kind": "utca",
            "post_code": 0
        },
        {
            "name": "Vajda-v\u00f6lgy",
            "kind": "",
            "post_code": 0
        },
        {
            "name": "V\u00e1r-v\u00f6lgy",
            "kind": "",
            "post_code": 0
        },
        {
            "name": "Vasutas",
            "kind": "utca",
            "post_code": 0
        },
        {
            "name": "Verseny",
            "kind": "utca",
            "post_code": 0
        },
        {
            "name": "Zeng\u0151",
            "kind": "utca",
            "post_code": 0
        },
        {
            "name": "Zr\u00ednyi Mikl\u00f3s",
            "kind": "utca",
            "post_code": 0
        }
    ]
}