{
    "codes": {
        "9243": [
            "J\u00e1nossomorja",
            "\u00dajtanya"
        ]
    },
    "streets": [
        {
            "name": "Ady Endre",
            "kind": "utca",
            "post_code": 0
        },
        {
            "name": "Alkot\u00e1s",
            "kind": "utca",
            "post_code": 0
        },
        {
            "name": "Als\u00f3",
            "kind": "k\u00f6z",
            "post_code": 0
        },
        {
            "name": "Als\u00f3 Lovarda",
            "kind": "utca",
            "post_code": 0
        },
        {
            "name": "Arany J\u00e1nos",
            "kind": "utca",
            "post_code": 0
        },
        {
            "name": "\u00c1rp\u00e1d",
            "kind": "utca",
            "post_code": 0
        },
        {
            "name": "Bajcsy-Zsilinszky Endre",
            "kind": "utca",
            "post_code": 0
        },
        {
            "name": "Bajcsy-Zsilinszky",
            "kind": "utca",
            "post_code": 0
        },
        {
            "name": "Balassi B\u00e1lint",
            "kind": "utca",
            "post_code": 0
        },
        {
            "name": "Bart\u00f3k B\u00e9la",
            "kind": "utca",
            "post_code": 0
        },
        {
            "name": "B\u00e9ke",
            "kind": "utca",
            "post_code": 0
        },
        {
            "name": "Bercs\u00e9nyi",
            "kind": "utca",
            "post_code": 0
        },
        {
            "name": "Bern",
            "kind": "utca",
            "post_code": 0
        },
        {
            "name": "Di\u00f3fa",
            "kind": "utca",
            "post_code": 0
        },
        {
            "name": "Domb",
            "kind": "utca",
            "post_code": 0
        },
        {
            "name": "D\u00f3zsa Gy\u00f6rgy",
            "kind": "utca",
            "post_code": 0
        },
        {
            "name": "D\u00f3zsa",
            "kind": "utca",
            "post_code": 0
        },
        {
            "name": "Dr. Dics\u00f6fi Endre",
            "kind": "utca",
            "post_code": 0
        },
        {
            "name": "Erd\u0151sor",
            "kind": "utca",
            "post_code": 0
        },
        {
            "name": "Fels\u00f6l\u00f3kert",
            "kind": "utca",
            "post_code": 0
        },
        {
            "name": "Fels\u0151 Lovarda",
            "kind": "utca",
            "post_code": 0
        },
        {
            "name": "F\u00e9ltornyi",
            "kind": "utca",
            "post_code": 0
        },
        {
            "name": "Franz",
            "kind": "utca",
            "post_code": 0
        },
        {
            "name": "Halomalja",
            "kind": "utca",
            "post_code": 0
        },
        {
            "name": "Hans\u00e1g",
            "kind": "utca",
            "post_code": 0
        },
        {
            "name": "H\u00e1rsfa",
            "kind": "utca",
            "post_code": 0
        },
        {
            "name": "Ibolya",
            "kind": "utca",
            "post_code": 0
        },
        {
            "name": "Iskola",
            "kind": "utca",
            "post_code": 0
        },
        {
            "name": "J\u00f3kai M\u00f3r",
            "kind": "utca",
            "post_code": 0
        },
        {
            "name": "J\u00f3zsef Attila",
            "kind": "utca",
            "post_code": 0
        },
        {
            "name": "K\u00e1polna",
            "kind": "utca",
            "post_code": 0
        },
        {
            "name": "Kereszt",
            "kind": "utca",
            "post_code": 0
        },
        {
            "name": "Kis",
            "kind": "utca",
            "post_code": 0
        },
        {
            "name": "Klafszky Katalin",
            "kind": "utca",
            "post_code": 0
        },
        {
            "name": "Kossuth",
            "kind": "utca",
            "post_code": 0
        },
        {
            "name": "Kov\u00e1cs",
            "kind": "utca",
            "post_code": 0
        },
        {
            "name": "Lajos",
            "kind": "utca",
            "post_code": 0
        },
        {
            "name": "Legel\u0151",
            "kind": "utca",
            "post_code": 0
        },
        {
            "name": "Levente",
            "kind": "utca",
            "post_code": 0
        },
        {
            "name": "Liget",
            "kind": "utca",
            "post_code": 0
        },
        {
            "name": "Liszt Ferenc",
            "kind": "utca",
            "post_code": 0
        },
        {
            "name": "L\u00f3kert",
            "kind": "utca",
            "post_code": 0
        },
        {
            "name": "Lovarda",
            "kind": "utca",
            "post_code": 0
        },
        {
            "name": "Malom",
            "kind": "utca",
            "post_code": 0
        },
        {
            "name": "M\u00f3ricz Zsigmond",
            "kind": "utca",
            "post_code": 0
        },
        {
            "name": "Munk\u00e1csy Mih\u00e1ly",
            "kind": "utca",
            "post_code": 0
        },
        {
            "name": "N\u00e1dor",
            "kind": "utca",
            "post_code": 0
        },
        {
            "name": "N\u00e9vtelen",
            "kind": "utca",
            "post_code": 0
        },
        {
            "name": "\u00d3v\u00e1ri",
            "kind": "\u00fat",
            "post_code": 0
        },
        {
            "name": "\u00d3voda",
            "kind": "utca",
            "post_code": 0
        },
        {
            "name": "Pet\u0151fi S\u00e1ndor",
            "kind": "utca",
            "post_code": 0
        },
        {
            "name": "Radn\u00f3ti Mikl\u00f3s",
            "kind": "utca",
            "post_code": 0
        },
        {
            "name": "R\u00f3zsa",
            "kind": "utca",
            "post_code": 0
        },
        {
            "name": "Sarok",
            "kind": "k\u00f6z",
            "post_code": 0
        },
        {
            "name": "Sport",
            "kind": "utca",
            "post_code": 0
        },
        {
            "name": "Szabads\u00e1g",
            "kind": "t\u00e9r",
            "post_code": 0
        },
        {
            "name": "Szabads\u00e1g",
            "kind": "utca",
            "post_code": 0
        },
        {
            "name": "Sz\u00e9chenyi",
            "kind": "utca",
            "post_code": 0
        },
        {
            "name": "Szent Istv\u00e1n",
            "kind": "utca",
            "post_code": 0
        },
        {
            "name": "Tarcsai",
            "kind": "utca",
            "post_code": 0
        },
        {
            "name": "Temet\u0151",
            "kind": "utca",
            "post_code": 0
        },
        {
            "name": "T\u00f3",
            "kind": "utca",
            "post_code": 0
        },
        {
            "name": "\u00dajerd\u0151",
            "kind": "utca",
            "post_code": 0
        },
        {
            "name": "\u00dajtelep",
            "kind": "utca",
            "post_code": 0
        },
        {
            "name": "V\u00e1rbalogi \u00fatca",
            "kind": "",
            "post_code": 0
        },
        {
            "name": "V\u00e1s\u00e1rt\u00e9r",
            "kind": "utca",
            "post_code": 0
        },
        {
            "name": "Vas\u00fat",
            "kind": "utca",
            "post_code": 0
        }
    ]
}