{
    "codes": {
        "5100": [
            "J\u00e1szber\u00e9ny",
            null
        ],
        "5152": [
            "J\u00e1szber\u00e9ny",
            "Portelek"
        ]
    },
    "streets": [
        {
            "name": "11-12.",
            "kind": "d\u0171l\u0151",
            "post_code": 0
        },
        {
            "name": "5.-6. d\u0171l\u0151",
            "kind": "\u00fatja",
            "post_code": 0
        },
        {
            "name": "9-10.",
            "kind": "d\u0171l\u0151",
            "post_code": 0
        },
        {
            "name": "\u00c1br\u00e1nd",
            "kind": "utca",
            "post_code": 0
        },
        {
            "name": "Ady Endre",
            "kind": "utca",
            "post_code": 0
        },
        {
            "name": "Agancs",
            "kind": "utca",
            "post_code": 0
        },
        {
            "name": "Ak\u00e1cfa",
            "kind": "utca",
            "post_code": 0
        },
        {
            "name": "\u00c1ld\u00e1s",
            "kind": "utca",
            "post_code": 0
        },
        {
            "name": "\u00c1ldom\u00e1s",
            "kind": "utca",
            "post_code": 0
        },
        {
            "name": "\u00c1lmos",
            "kind": "utca",
            "post_code": 0
        },
        {
            "name": "Als\u00f3csincsapart",
            "kind": "utca",
            "post_code": 0
        },
        {
            "name": "Apponyi",
            "kind": "t\u00e9r",
            "post_code": 0
        },
        {
            "name": "Apr\u00edt\u00f3g\u00e9pgy\u00e1r",
            "kind": "utca",
            "post_code": 0
        },
        {
            "name": "Arany J\u00e1nos",
            "kind": "utca",
            "post_code": 0
        },
        {
            "name": "\u00c1rok",
            "kind": "utca",
            "post_code": 0
        },
        {
            "name": "\u00c1rt\u00e9r",
            "kind": "utca",
            "post_code": 0
        },
        {
            "name": "\u00c1rva",
            "kind": "utca",
            "post_code": 0
        },
        {
            "name": "\u00c1tj\u00e1r\u00f3",
            "kind": "utca",
            "post_code": 0
        },
        {
            "name": "Attila",
            "kind": "utca",
            "post_code": 0
        },
        {
            "name": "Bagoly",
            "kind": "utca",
            "post_code": 0
        },
        {
            "name": "Bajcsy-Zsilinszky",
            "kind": "utca",
            "post_code": 0
        },
        {
            "name": "Bajnok",
            "kind": "utca",
            "post_code": 0
        },
        {
            "name": "Bakki J\u00f3zsef",
            "kind": "utca",
            "post_code": 0
        },
        {
            "name": "Balaton",
            "kind": "utca",
            "post_code": 0
        },
        {
            "name": "B\u00e1lv\u00e1ny",
            "kind": "utca",
            "post_code": 0
        },
        {
            "name": "Banner J\u00e1nos",
            "kind": "utca",
            "post_code": 0
        },
        {
            "name": "B\u00e1r\u00e1ny",
            "kind": "utca",
            "post_code": 0
        },
        {
            "name": "Bart\u00f3k B\u00e9la",
            "kind": "utca",
            "post_code": 0
        },
        {
            "name": "B\u00e1thori",
            "kind": "utca",
            "post_code": 0
        },
        {
            "name": "Batthy\u00e1ny",
            "kind": "utca",
            "post_code": 0
        },
        {
            "name": "Bedekovich L\u0151rinc",
            "kind": "utca",
            "post_code": 0
        },
        {
            "name": "B\u00e9k\u00e9s",
            "kind": "utca",
            "post_code": 0
        },
        {
            "name": "B\u00e9ke",
            "kind": "utca",
            "post_code": 0
        },
        {
            "name": "Bel\u00e9nessy J\u00e1nos",
            "kind": "utca",
            "post_code": 0
        },
        {
            "name": "Beleznay Antal",
            "kind": "utca",
            "post_code": 0
        },
        {
            "name": "Beloiannisz",
            "kind": "\u00fat",
            "post_code": 0
        },
        {
            "name": "Bem J\u00f3zsef",
            "kind": "utca",
            "post_code": 0
        },
        {
            "name": "Bencz\u00far Gyula",
            "kind": "utca",
            "post_code": 0
        },
        {
            "name": "Bene puszta",
            "kind": "utca",
            "post_code": 0
        },
        {
            "name": "Bercs\u00e9nyi Mikl\u00f3s",
            "kind": "utca",
            "post_code": 0
        },
        {
            "name": "Ber\u00e9nyi",
            "kind": "utca",
            "post_code": 0
        },
        {
            "name": "B\u00e9rkocsis",
            "kind": "utca",
            "post_code": 0
        },
        {
            "name": "Berze Nagy J\u00e1nos",
            "kind": "utca",
            "post_code": 0
        },
        {
            "name": "Bimb\u00f3",
            "kind": "utca",
            "post_code": 0
        },
        {
            "name": "Bogn\u00e1r",
            "kind": "utca",
            "post_code": 0
        },
        {
            "name": "Bokor",
            "kind": "utca",
            "post_code": 0
        },
        {
            "name": "Boldogsz\u00e1ll\u00e1s",
            "kind": "utca",
            "post_code": 0
        },
        {
            "name": "Bolyai J\u00e1nos",
            "kind": "utca",
            "post_code": 0
        },
        {
            "name": "Bor\u00f3ka",
            "kind": "utca",
            "post_code": 0
        },
        {
            "name": "Botond",
            "kind": "utca",
            "post_code": 0
        },
        {
            "name": "Bulcs\u00fa",
            "kind": "utca",
            "post_code": 0
        },
        {
            "name": "Buzog\u00e1ny",
            "kind": "utca",
            "post_code": 0
        },
        {
            "name": "Cimbalom",
            "kind": "utca",
            "post_code": 0
        },
        {
            "name": "Cs\u00e1k\u00e1ny",
            "kind": "utca",
            "post_code": 0
        },
        {
            "name": "Csana",
            "kind": "utca",
            "post_code": 0
        },
        {
            "name": "Cs\u00e1ng\u00f3",
            "kind": "utca",
            "post_code": 0
        },
        {
            "name": "Csatorna",
            "kind": "utca",
            "post_code": 0
        },
        {
            "name": "Cseng\u0151",
            "kind": "utca",
            "post_code": 0
        },
        {
            "name": "Cserepes",
            "kind": "utca",
            "post_code": 0
        },
        {
            "name": "Cserk\u00e9sz",
            "kind": "utca",
            "post_code": 0
        },
        {
            "name": "Csiga",
            "kind": "utca",
            "post_code": 0
        },
        {
            "name": "Cs\u00edk Tibor",
            "kind": "utca",
            "post_code": 0
        },
        {
            "name": "Csillag",
            "kind": "utca",
            "post_code": 0
        },
        {
            "name": "Cs\u00f3ka",
            "kind": "k\u00f6z",
            "post_code": 0
        },
        {
            "name": "Csokonai Vit\u00e9z Mih\u00e1ly",
            "kind": "utca",
            "post_code": 0
        },
        {
            "name": "Csokor",
            "kind": "utca",
            "post_code": 0
        },
        {
            "name": "Csoma",
            "kind": "utca",
            "post_code": 0
        },
        {
            "name": "Csonka",
            "kind": "utca",
            "post_code": 0
        },
        {
            "name": "Cs\u00f6rsz",
            "kind": "utca",
            "post_code": 0
        },
        {
            "name": "Czig\u00e1ny J\u00e1nos",
            "kind": "utca",
            "post_code": 0
        },
        {
            "name": "Damjanich",
            "kind": "utca",
            "post_code": 0
        },
        {
            "name": "Dar\u00e1zs",
            "kind": "utca",
            "post_code": 0
        },
        {
            "name": "D\u00e1rd\u00e1s",
            "kind": "utca",
            "post_code": 0
        },
        {
            "name": "Daru",
            "kind": "utca",
            "post_code": 0
        },
        {
            "name": "De\u00e1k Ferenc",
            "kind": "utca",
            "post_code": 0
        },
        {
            "name": "Dembinszky",
            "kind": "utca",
            "post_code": 0
        },
        {
            "name": "Derkovits Gyula",
            "kind": "utca",
            "post_code": 0
        },
        {
            "name": "Dinamit",
            "kind": "t\u00e9r",
            "post_code": 0
        },
        {
            "name": "Di\u00f3fa",
            "kind": "utca",
            "post_code": 0
        },
        {
            "name": "Dob",
            "kind": "utca",
            "post_code": 0
        },
        {
            "name": "Doh\u00e1ny",
            "kind": "utca",
            "post_code": 0
        },
        {
            "name": "D\u00f3zsa Gy\u00f6rgy",
            "kind": "\u00fat",
            "post_code": 0
        },
        {
            "name": "Dr. Warga L\u00e1szl\u00f3",
            "kind": "utca",
            "post_code": 0
        },
        {
            "name": "Dr. Wittmann Tibor",
            "kind": "utca",
            "post_code": 0
        },
        {
            "name": "Ebh\u00e1t",
            "kind": "utca",
            "post_code": 0
        },
        {
            "name": "Eg\u00e9r",
            "kind": "utca",
            "post_code": 0
        },
        {
            "name": "Elef\u00e1nti",
            "kind": "utca",
            "post_code": 0
        },
        {
            "name": "E\u00f6tv\u00f6s",
            "kind": "utca",
            "post_code": 0
        },
        {
            "name": "Eperfa",
            "kind": "utca",
            "post_code": 0
        },
        {
            "name": "\u00c9rh\u00e1t",
            "kind": "utca",
            "post_code": 0
        },
        {
            "name": "Faiskola",
            "kind": "utca",
            "post_code": 0
        },
        {
            "name": "F\u00e1tyol",
            "kind": "utca",
            "post_code": 0
        },
        {
            "name": "Fazekas",
            "kind": "utca",
            "post_code": 0
        },
        {
            "name": "Feh\u00e9rt\u00f3i",
            "kind": "utca",
            "post_code": 0
        },
        {
            "name": "Fekete",
            "kind": "utca",
            "post_code": 0
        },
        {
            "name": "F\u00e9k",
            "kind": "utca",
            "post_code": 0
        },
        {
            "name": "Fels\u0151csincsapart",
            "kind": "utca",
            "post_code": 0
        },
        {
            "name": "Feny\u0151",
            "kind": "utca",
            "post_code": 0
        },
        {
            "name": "Ferencesek",
            "kind": "tere",
            "post_code": 0
        },
        {
            "name": "Fest\u0151",
            "kind": "utca",
            "post_code": 0
        },
        {
            "name": "Fiasty\u00fak",
            "kind": "utca",
            "post_code": 0
        },
        {
            "name": "Fodor Ferenc",
            "kind": "utca",
            "post_code": 0
        },
        {
            "name": "Forg\u00e1cs",
            "kind": "utca",
            "post_code": 0
        },
        {
            "name": "Frankel Le\u00f3",
            "kind": "utca",
            "post_code": 0
        },
        {
            "name": "F\u00fcst",
            "kind": "utca",
            "post_code": 0
        },
        {
            "name": "Fut\u00f3",
            "kind": "utca",
            "post_code": 0
        },
        {
            "name": "Fuvaros",
            "kind": "utca",
            "post_code": 0
        },
        {
            "name": "Galamb",
            "kind": "utca",
            "post_code": 0
        },
        {
            "name": "Gall\u00e9r",
            "kind": "utca",
            "post_code": 0
        },
        {
            "name": "Garat",
            "kind": "utca",
            "post_code": 0
        },
        {
            "name": "G\u00e1t",
            "kind": "utca",
            "post_code": 0
        },
        {
            "name": "G\u00e9m",
            "kind": "utca",
            "post_code": 0
        },
        {
            "name": "Gerevich Alad\u00e1r",
            "kind": "utca",
            "post_code": 0
        },
        {
            "name": "G\u00f3lya",
            "kind": "utca",
            "post_code": 0
        },
        {
            "name": "G\u00f6nc\u00f6l",
            "kind": "utca",
            "post_code": 0
        },
        {
            "name": "G\u00f6rbe",
            "kind": "utca",
            "post_code": 0
        },
        {
            "name": "Gorj\u00e1nc Ign\u00e1c",
            "kind": "s\u00e9t\u00e1ny",
            "post_code": 0
        },
        {
            "name": "Gyalogh\u00edd",
            "kind": "",
            "post_code": 0
        },
        {
            "name": "Gyalu",
            "kind": "utca",
            "post_code": 0
        },
        {
            "name": "Gyanta",
            "kind": "utca",
            "post_code": 0
        },
        {
            "name": "Gy\u00e1rf\u00e1s",
            "kind": "utca",
            "post_code": 0
        },
        {
            "name": "Gyep\u0171",
            "kind": "utca",
            "post_code": 0
        },
        {
            "name": "Gy\u00f6k\u00e9r",
            "kind": "utca",
            "post_code": 0
        },
        {
            "name": "Gy\u00f6ngy\u00f6si",
            "kind": "\u00fat",
            "post_code": 0
        },
        {
            "name": "Gy\u00f6ngy",
            "kind": "utca",
            "post_code": 0
        },
        {
            "name": "Gy\u00f6ngyvir\u00e1g",
            "kind": "utca",
            "post_code": 0
        },
        {
            "name": "Hable\u00e1ny",
            "kind": "utca",
            "post_code": 0
        },
        {
            "name": "Hajnal",
            "kind": "utca",
            "post_code": 0
        },
        {
            "name": "Halmay J\u00f3zsef",
            "kind": "utca",
            "post_code": 0
        },
        {
            "name": "H\u00e1ny\u00e1s h\u00edd",
            "kind": "",
            "post_code": 0
        },
        {
            "name": "Harang",
            "kind": "utca",
            "post_code": 0
        },
        {
            "name": "Harcos",
            "kind": "utca",
            "post_code": 0
        },
        {
            "name": "H\u00e1rsfa",
            "kind": "utca",
            "post_code": 0
        },
        {
            "name": "Hat\u00e1r",
            "kind": "utca",
            "post_code": 0
        },
        {
            "name": "Hatr\u00f3zsa",
            "kind": "utca",
            "post_code": 0
        },
        {
            "name": "Hatty\u00fa",
            "kind": "utca",
            "post_code": 0
        },
        {
            "name": "Hatvani",
            "kind": "\u00fat",
            "post_code": 0
        },
        {
            "name": "Heged\u0171s",
            "kind": "utca",
            "post_code": 0
        },
        {
            "name": "Hentes",
            "kind": "utca",
            "post_code": 0
        },
        {
            "name": "Herkules",
            "kind": "utca",
            "post_code": 0
        },
        {
            "name": "H\u00e9tvez\u00e9r",
            "kind": "utca",
            "post_code": 0
        },
        {
            "name": "Hold",
            "kind": "utca",
            "post_code": 0
        },
        {
            "name": "Honv\u00e9d",
            "kind": "utca",
            "post_code": 0
        },
        {
            "name": "Horg\u00e1sz",
            "kind": "utca",
            "post_code": 0
        },
        {
            "name": "Hunyadi J\u00e1nos",
            "kind": "utca",
            "post_code": 0
        },
        {
            "name": "Husz\u00e1r",
            "kind": "utca",
            "post_code": 0
        },
        {
            "name": "Ibolya",
            "kind": "utca",
            "post_code": 0
        },
        {
            "name": "Ifj\u00fas\u00e1g",
            "kind": "utca",
            "post_code": 0
        },
        {
            "name": "Ilona",
            "kind": "utca",
            "post_code": 0
        },
        {
            "name": "Ipar",
            "kind": "utca",
            "post_code": 0
        },
        {
            "name": "Ir\u00e1nyi D\u00e1niel",
            "kind": "utca",
            "post_code": 0
        },
        {
            "name": "Iskola",
            "kind": "utca",
            "post_code": 0
        },
        {
            "name": "J\u00e1szkapit\u00e1ny",
            "kind": "utca",
            "post_code": 0
        },
        {
            "name": "J\u00e1szk\u00fcrt",
            "kind": "utca",
            "post_code": 0
        },
        {
            "name": "J\u00e1sztelki",
            "kind": "\u00fat",
            "post_code": 0
        },
        {
            "name": "J\u00e1szv\u00e1ros",
            "kind": "utca",
            "post_code": 0
        },
        {
            "name": "Jed\u00e1m",
            "kind": "utca",
            "post_code": 0
        },
        {
            "name": "J\u00f3kai M\u00f3r",
            "kind": "utca",
            "post_code": 0
        },
        {
            "name": "J\u00f3zsef Attila",
            "kind": "utca",
            "post_code": 0
        },
        {
            "name": "Jubileum",
            "kind": "utca",
            "post_code": 0
        },
        {
            "name": "Juh\u00e1sz",
            "kind": "utca",
            "post_code": 0
        },
        {
            "name": "K\u00e1d\u00e1r",
            "kind": "utca",
            "post_code": 0
        },
        {
            "name": "Kakukk",
            "kind": "utca",
            "post_code": 0
        },
        {
            "name": "Kalap",
            "kind": "utca",
            "post_code": 0
        },
        {
            "name": "K\u00e1lm\u00e1n",
            "kind": "utca",
            "post_code": 0
        },
        {
            "name": "K\u00e1lvin J\u00e1nos",
            "kind": "utca",
            "post_code": 0
        },
        {
            "name": "K\u00e1ntor",
            "kind": "utca",
            "post_code": 0
        },
        {
            "name": "Kap\u00e1s",
            "kind": "utca",
            "post_code": 0
        },
        {
            "name": "K\u00e1polna",
            "kind": "utca",
            "post_code": 0
        },
        {
            "name": "K\u00e1poszt\u00e1skert",
            "kind": "utca",
            "post_code": 0
        },
        {
            "name": "Karab\u00e9ly",
            "kind": "utca",
            "post_code": 0
        },
        {
            "name": "Kard",
            "kind": "utca",
            "post_code": 0
        },
        {
            "name": "K\u00e1roly",
            "kind": "utca",
            "post_code": 0
        },
        {
            "name": "K\u00e1rp\u00e1t",
            "kind": "utca",
            "post_code": 0
        },
        {
            "name": "Kasz\u00e1s",
            "kind": "utca",
            "post_code": 0
        },
        {
            "name": "K\u00e1tai",
            "kind": "utca",
            "post_code": 0
        },
        {
            "name": "Katona",
            "kind": "utca",
            "post_code": 0
        },
        {
            "name": "Kazal",
            "kind": "utca",
            "post_code": 0
        },
        {
            "name": "Kazinczy Ferenc",
            "kind": "utca",
            "post_code": 0
        },
        {
            "name": "Kender",
            "kind": "utca",
            "post_code": 0
        },
        {
            "name": "Kengyel",
            "kind": "utca",
            "post_code": 0
        },
        {
            "name": "Ker\u00e9kgy\u00e1rt\u00f3 \u00c1rp\u00e1d",
            "kind": "utca",
            "post_code": 0
        },
        {
            "name": "Kert\u00e9sz",
            "kind": "utca",
            "post_code": 0
        },
        {
            "name": "Kertv\u00e1ros",
            "kind": "utca",
            "post_code": 0
        },
        {
            "name": "K\u00e9ve",
            "kind": "utca",
            "post_code": 0
        },
        {
            "name": "K\u00edgy\u00f3",
            "kind": "utca",
            "post_code": 0
        },
        {
            "name": "Kinizsi",
            "kind": "\u00fat",
            "post_code": 0
        },
        {
            "name": "Kir\u00e1ly",
            "kind": "utca",
            "post_code": 0
        },
        {
            "name": "Kisber\u00e9nyi",
            "kind": "t\u00e9r",
            "post_code": 0
        },
        {
            "name": "Kiss Ern\u0151",
            "kind": "utca",
            "post_code": 0
        },
        {
            "name": "Klapka Gy\u00f6rgy",
            "kind": "utca",
            "post_code": 0
        },
        {
            "name": "Kod\u00e1ly Zolt\u00e1n",
            "kind": "utca",
            "post_code": 0
        },
        {
            "name": "K\u00f6k\u00e9ny",
            "kind": "utca",
            "post_code": 0
        },
        {
            "name": "K\u0151k\u00e9p",
            "kind": "utca",
            "post_code": 0
        },
        {
            "name": "K\u00f6lt\u0151",
            "kind": "utca",
            "post_code": 0
        },
        {
            "name": "Kom\u00e1romi J\u00f3zsef",
            "kind": "utca",
            "post_code": 0
        },
        {
            "name": "K\u00f6ny\u00f6k",
            "kind": "utca",
            "post_code": 0
        },
        {
            "name": "Kor\u00e1nyi Frigyes",
            "kind": "utca",
            "post_code": 0
        },
        {
            "name": "Korcsolya",
            "kind": "utca",
            "post_code": 0
        },
        {
            "name": "K\u00f3rh\u00e1z",
            "kind": "utca",
            "post_code": 0
        },
        {
            "name": "K\u0151r\u00f6si Csoma S\u00e1ndor",
            "kind": "utca",
            "post_code": 0
        },
        {
            "name": "K\u00f6rte",
            "kind": "utca",
            "post_code": 0
        },
        {
            "name": "Kos\u00e1rfon\u00f3",
            "kind": "utca",
            "post_code": 0
        },
        {
            "name": "Kossuth Lajos",
            "kind": "utca",
            "post_code": 0
        },
        {
            "name": "K\u00f6t\u00e9lver\u0151",
            "kind": "utca",
            "post_code": 0
        },
        {
            "name": "K\u00f6t\u0151",
            "kind": "utca",
            "post_code": 0
        },
        {
            "name": "Kov\u00e1cs",
            "kind": "utca",
            "post_code": 0
        },
        {
            "name": "K\u00fcls\u0151pelyhespart",
            "kind": "utca",
            "post_code": 0
        },
        {
            "name": "Kun",
            "kind": "utca",
            "post_code": 0
        },
        {
            "name": "K\u00fcrt",
            "kind": "utca",
            "post_code": 0
        },
        {
            "name": "Lagzi",
            "kind": "utca",
            "post_code": 0
        },
        {
            "name": "Lajosmizse",
            "kind": "utca",
            "post_code": 0
        },
        {
            "name": "Laktanya",
            "kind": "utca",
            "post_code": 0
        },
        {
            "name": "Lant",
            "kind": "utca",
            "post_code": 0
        },
        {
            "name": "L\u00e1szl\u00f3 K\u00e1roly",
            "kind": "utca",
            "post_code": 0
        },
        {
            "name": "Lehel",
            "kind": "utca",
            "post_code": 0
        },
        {
            "name": "Lehel vez\u00e9r",
            "kind": "t\u00e9r",
            "post_code": 0
        },
        {
            "name": "Lepke",
            "kind": "utca",
            "post_code": 0
        },
        {
            "name": "L\u00edceum",
            "kind": "utca",
            "post_code": 0
        },
        {
            "name": "Liget",
            "kind": "utca",
            "post_code": 0
        },
        {
            "name": "Liliom",
            "kind": "utca",
            "post_code": 0
        },
        {
            "name": "Liszt Ferenc",
            "kind": "utca",
            "post_code": 0
        },
        {
            "name": "Lomb",
            "kind": "utca",
            "post_code": 0
        },
        {
            "name": "L\u00f6v\u00e9sz",
            "kind": "utca",
            "post_code": 0
        },
        {
            "name": "Mad\u00e1ch Imre",
            "kind": "utca",
            "post_code": 0
        },
        {
            "name": "M\u00e1jus 1.",
            "kind": "t\u00e9r",
            "post_code": 0
        },
        {
            "name": "M\u00e1lyva",
            "kind": "utca",
            "post_code": 0
        },
        {
            "name": "M\u00e1ria",
            "kind": "\u00fat",
            "post_code": 0
        },
        {
            "name": "M\u00e1rt\u00edrok",
            "kind": "\u00fatja",
            "post_code": 0
        },
        {
            "name": "M\u00e1tra",
            "kind": "utca",
            "post_code": 0
        },
        {
            "name": "M\u00e1ty\u00e1s",
            "kind": "utca",
            "post_code": 0
        },
        {
            "name": "Medve",
            "kind": "utca",
            "post_code": 0
        },
        {
            "name": "M\u00e9ntelep",
            "kind": "utca",
            "post_code": 0
        },
        {
            "name": "Messzel\u00e1t\u00f3",
            "kind": "utca",
            "post_code": 0
        },
        {
            "name": "Mez\u0151",
            "kind": "utca",
            "post_code": 0
        },
        {
            "name": "Miksz\u00e1th K\u00e1lm\u00e1n",
            "kind": "utca",
            "post_code": 0
        },
        {
            "name": "Moln\u00e1r",
            "kind": "utca",
            "post_code": 0
        },
        {
            "name": "M\u00f3ra Ferenc",
            "kind": "utca",
            "post_code": 0
        },
        {
            "name": "M\u00f3ricz Zsigmond",
            "kind": "utca",
            "post_code": 0
        },
        {
            "name": "Mozdony",
            "kind": "utca",
            "post_code": 0
        },
        {
            "name": "Mozs\u00e1r",
            "kind": "utca",
            "post_code": 0
        },
        {
            "name": "Munk\u00e1csy Mih\u00e1ly",
            "kind": "utca",
            "post_code": 0
        },
        {
            "name": "Munk\u00e1s",
            "kind": "utca",
            "post_code": 0
        },
        {
            "name": "N\u00e1dor",
            "kind": "utca",
            "post_code": 0
        },
        {
            "name": "N\u00e1dver\u0151",
            "kind": "utca",
            "post_code": 0
        },
        {
            "name": "Nagy-\u00c9r",
            "kind": "utca",
            "post_code": 0
        },
        {
            "name": "Nagyk\u00e1tai",
            "kind": "\u00fat",
            "post_code": 0
        },
        {
            "name": "Nagytemplom",
            "kind": "utca",
            "post_code": 0
        },
        {
            "name": "Napsug\u00e1r",
            "kind": "utca",
            "post_code": 0
        },
        {
            "name": "Nap",
            "kind": "utca",
            "post_code": 0
        },
        {
            "name": "Nefelejcs",
            "kind": "utca",
            "post_code": 0
        },
        {
            "name": "N\u00e9gyh\u00e1z",
            "kind": "utca",
            "post_code": 0
        },
        {
            "name": "N\u00e9gysz\u00e1ll\u00e1s",
            "kind": "utca",
            "post_code": 0
        },
        {
            "name": "Ny\u00e1rfa",
            "kind": "utca",
            "post_code": 0
        },
        {
            "name": "Ny\u00e1r",
            "kind": "utca",
            "post_code": 0
        },
        {
            "name": "Nyerges",
            "kind": "utca",
            "post_code": 0
        },
        {
            "name": "Ny\u00edl",
            "kind": "utca",
            "post_code": 0
        },
        {
            "name": "Okt\u00f3ber 23-a",
            "kind": "utca",
            "post_code": 0
        },
        {
            "name": "Olvas\u00f3k\u00f6r",
            "kind": "utca",
            "post_code": 0
        },
        {
            "name": "\u00d6nt\u0151",
            "kind": "utca",
            "post_code": 0
        },
        {
            "name": "Ostoros",
            "kind": "utca",
            "post_code": 0
        },
        {
            "name": "\u00f6sv\u00e9ny",
            "kind": "",
            "post_code": 0
        },
        {
            "name": "P\u00e1fr\u00e1ny",
            "kind": "utca",
            "post_code": 0
        },
        {
            "name": "P\u00e1k\u00e1sz",
            "kind": "utca",
            "post_code": 0
        },
        {
            "name": "Pal\u00e1nka",
            "kind": "utca",
            "post_code": 0
        },
        {
            "name": "Palot\u00e1sy J\u00e1nos",
            "kind": "utca",
            "post_code": 0
        },
        {
            "name": "Pann\u00f3nia",
            "kind": "utca",
            "post_code": 0
        },
        {
            "name": "park",
            "kind": "s\u00e9t\u00e1ny",
            "post_code": 0
        },
        {
            "name": "P\u00e1va",
            "kind": "utca",
            "post_code": 0
        },
        {
            "name": "Pelyhespart",
            "kind": "utca",
            "post_code": 0
        },
        {
            "name": "Perec",
            "kind": "utca",
            "post_code": 0
        },
        {
            "name": "Pesti",
            "kind": "utca",
            "post_code": 0
        },
        {
            "name": "Pethes Imre",
            "kind": "utca",
            "post_code": 0
        },
        {
            "name": "Pet\u0151fi S\u00e1ndor",
            "kind": "utca",
            "post_code": 0
        },
        {
            "name": "Petrence",
            "kind": "utca",
            "post_code": 0
        },
        {
            "name": "Pint\u00e9r Mih\u00e1ly",
            "kind": "utca",
            "post_code": 0
        },
        {
            "name": "Pipa",
            "kind": "utca",
            "post_code": 0
        },
        {
            "name": "Plat\u00e1n",
            "kind": "utca",
            "post_code": 0
        },
        {
            "name": "Puska",
            "kind": "utca",
            "post_code": 0
        },
        {
            "name": "Puskin",
            "kind": "s\u00e9t\u00e1ny",
            "post_code": 0
        },
        {
            "name": "R\u00e1cz Alad\u00e1r",
            "kind": "utca",
            "post_code": 0
        },
        {
            "name": "R\u00e1k\u00f3czi",
            "kind": "\u00fat",
            "post_code": 0
        },
        {
            "name": "Redemti\u00f3",
            "kind": "utca",
            "post_code": 0
        },
        {
            "name": "Repce",
            "kind": "utca",
            "post_code": 0
        },
        {
            "name": "R\u00e9t",
            "kind": "utca",
            "post_code": 0
        },
        {
            "name": "Rezeda",
            "kind": "utca",
            "post_code": 0
        },
        {
            "name": "R\u00f3ka",
            "kind": "utca",
            "post_code": 0
        },
        {
            "name": "Rozmaring",
            "kind": "utca",
            "post_code": 0
        },
        {
            "name": "R\u00f3zs",
            "kind": "utca",
            "post_code": 0
        },
        {
            "name": "S\u00e1nc",
            "kind": "utca",
            "post_code": 0
        },
        {
            "name": "S\u00e1ndor",
            "kind": "utca",
            "post_code": 0
        },
        {
            "name": "Sarkanty\u00fa",
            "kind": "utca",
            "post_code": 0
        },
        {
            "name": "S\u00e1rk\u00e1ny",
            "kind": "utca",
            "post_code": 0
        },
        {
            "name": "S\u00e1rm\u00e1ny",
            "kind": "utca",
            "post_code": 0
        },
        {
            "name": "Sas",
            "kind": "utca",
            "post_code": 0
        },
        {
            "name": "S\u00e1tor",
            "kind": "utca",
            "post_code": 0
        },
        {
            "name": "Sereg\u00e9ly",
            "kind": "utca",
            "post_code": 0
        },
        {
            "name": "Serh\u00e1z",
            "kind": "utca",
            "post_code": 0
        },
        {
            "name": "Sikl\u00f3",
            "kind": "utca",
            "post_code": 0
        },
        {
            "name": "S\u00edp",
            "kind": "utca",
            "post_code": 0
        },
        {
            "name": "S\u00edrkert",
            "kind": "utca",
            "post_code": 0
        },
        {
            "name": "S\u00f3lyom",
            "kind": "utca",
            "post_code": 0
        },
        {
            "name": "S\u00f3m\u00e9r\u0151",
            "kind": "utca",
            "post_code": 0
        },
        {
            "name": "Sportp\u00e1lya",
            "kind": "utca",
            "post_code": 0
        },
        {
            "name": "Suba",
            "kind": "utca",
            "post_code": 0
        },
        {
            "name": "Szabads\u00e1g",
            "kind": "t\u00e9r",
            "post_code": 0
        },
        {
            "name": "Szabads\u00e1g",
            "kind": "utca",
            "post_code": 0
        },
        {
            "name": "Szab\u00f3",
            "kind": "utca",
            "post_code": 0
        },
        {
            "name": "Sz\u00e1razmalom",
            "kind": "utca",
            "post_code": 0
        },
        {
            "name": "Szarka",
            "kind": "utca",
            "post_code": 0
        },
        {
            "name": "Szarvas",
            "kind": "utca",
            "post_code": 0
        },
        {
            "name": "Sz\u00e9chenyi",
            "kind": "utca",
            "post_code": 0
        },
        {
            "name": "Szegf\u0171",
            "kind": "utca",
            "post_code": 0
        },
        {
            "name": "Szek\u00e9r",
            "kind": "utca",
            "post_code": 0
        },
        {
            "name": "Szelei",
            "kind": "\u00fat",
            "post_code": 0
        },
        {
            "name": "Szell\u0151",
            "kind": "utca",
            "post_code": 0
        },
        {
            "name": "Sz\u00e9lmalom",
            "kind": "utca",
            "post_code": 0
        },
        {
            "name": "Sz\u00e9l",
            "kind": "utca",
            "post_code": 0
        },
        {
            "name": "Szent Ferenc",
            "kind": "utca",
            "post_code": 0
        },
        {
            "name": "Szenth\u00e1roms\u00e1g",
            "kind": "t\u00e9r",
            "post_code": 0
        },
        {
            "name": "Szent Imre herceg",
            "kind": "\u00fat",
            "post_code": 0
        },
        {
            "name": "Szent Imre Herceg",
            "kind": "\u00fat",
            "post_code": 0
        },
        {
            "name": "Szent Istv\u00e1n",
            "kind": "k\u00f6r\u00fat",
            "post_code": 0
        },
        {
            "name": "Szentk\u00fati",
            "kind": "t\u00e9r",
            "post_code": 0
        },
        {
            "name": "Szent L\u00e1szl\u00f3",
            "kind": "utca",
            "post_code": 0
        },
        {
            "name": "Sz\u00e9p",
            "kind": "utca",
            "post_code": 0
        },
        {
            "name": "Szerecsen",
            "kind": "utca",
            "post_code": 0
        },
        {
            "name": "Sz\u00e9r\u0171skert",
            "kind": "utca",
            "post_code": 0
        },
        {
            "name": "Szilfa",
            "kind": "utca",
            "post_code": 0
        },
        {
            "name": "Szilv\u00e1s",
            "kind": "d\u0171l\u0151",
            "post_code": 0
        },
        {
            "name": "Sziv\u00e1rv\u00e1ny",
            "kind": "utca",
            "post_code": 0
        },
        {
            "name": "Szobor",
            "kind": "utca",
            "post_code": 0
        },
        {
            "name": "Sz\u0151l\u0151",
            "kind": "utca",
            "post_code": 0
        },
        {
            "name": "Sz\u00f6vetkezet",
            "kind": "utca",
            "post_code": 0
        },
        {
            "name": "Sz\u0171cs",
            "kind": "utca",
            "post_code": 0
        },
        {
            "name": "Sz\u00fanyogos",
            "kind": "utca",
            "post_code": 0
        },
        {
            "name": "Tam\u00e1s",
            "kind": "utca",
            "post_code": 0
        },
        {
            "name": "T\u00e1ncsics Mih\u00e1ly",
            "kind": "utca",
            "post_code": 0
        },
        {
            "name": "Tan\u00f6sv\u00e9ny",
            "kind": "",
            "post_code": 0
        },
        {
            "name": "Tavasz",
            "kind": "utca",
            "post_code": 0
        },
        {
            "name": "Tej\u00fat",
            "kind": "utca",
            "post_code": 0
        },
        {
            "name": "Telep",
            "kind": "utca",
            "post_code": 0
        },
        {
            "name": "T\u00e9l",
            "kind": "utca",
            "post_code": 0
        },
        {
            "name": "Temet\u0151",
            "kind": "utca",
            "post_code": 0
        },
        {
            "name": "T\u00e9r\u00edt\u0151",
            "kind": "utca",
            "post_code": 0
        },
        {
            "name": "Th\u00f6k\u00f6ly",
            "kind": "utca",
            "post_code": 0
        },
        {
            "name": "Tigris",
            "kind": "utca",
            "post_code": 0
        },
        {
            "name": "T\u00edm\u00e1r",
            "kind": "utca",
            "post_code": 0
        },
        {
            "name": "Toborz\u00f3",
            "kind": "utca",
            "post_code": 0
        },
        {
            "name": "Toldi",
            "kind": "utca",
            "post_code": 0
        },
        {
            "name": "Tompa Mih\u00e1ly",
            "kind": "utca",
            "post_code": 0
        },
        {
            "name": "Topa Mih\u00e1ly",
            "kind": "utca",
            "post_code": 0
        },
        {
            "name": "T\u00f6rt",
            "kind": "utca",
            "post_code": 0
        },
        {
            "name": "T\u00f3t",
            "kind": "utca",
            "post_code": 0
        },
        {
            "name": "Traktor",
            "kind": "utca",
            "post_code": 0
        },
        {
            "name": "Trombita",
            "kind": "utca",
            "post_code": 0
        },
        {
            "name": "Tulip\u00e1n",
            "kind": "utca",
            "post_code": 0
        },
        {
            "name": "T\u00fcz\u00e9r",
            "kind": "utca",
            "post_code": 0
        },
        {
            "name": "T\u00fazok",
            "kind": "utca",
            "post_code": 0
        },
        {
            "name": "T\u0171zolt\u00f3",
            "kind": "utca",
            "post_code": 0
        },
        {
            "name": "\u00dcst\u00f6k\u00f6s",
            "kind": "utca",
            "post_code": 0
        },
        {
            "name": "Uszoda",
            "kind": "utca",
            "post_code": 0
        },
        {
            "name": "Vad\u00e1sz",
            "kind": "utca",
            "post_code": 0
        },
        {
            "name": "Varga",
            "kind": "utca",
            "post_code": 0
        },
        {
            "name": "Varr\u00f3",
            "kind": "utca",
            "post_code": 0
        },
        {
            "name": "V\u00e1s\u00e1rhelyi Istv\u00e1n",
            "kind": "utca",
            "post_code": 0
        },
        {
            "name": "Vasp\u00e1lya",
            "kind": "utca",
            "post_code": 0
        },
        {
            "name": "Vas",
            "kind": "utca",
            "post_code": 0
        },
        {
            "name": "Vasv\u00e1ri P\u00e1l",
            "kind": "utca",
            "post_code": 0
        },
        {
            "name": "V\u00e9csey Ern\u0151",
            "kind": "utca",
            "post_code": 0
        },
        {
            "name": "Vereckei",
            "kind": "utca",
            "post_code": 0
        },
        {
            "name": "Verseny",
            "kind": "utca",
            "post_code": 0
        },
        {
            "name": "V\u00e9rtes",
            "kind": "utca",
            "post_code": 0
        },
        {
            "name": "Villany",
            "kind": "utca",
            "post_code": 0
        },
        {
            "name": "Viola",
            "kind": "utca",
            "post_code": 0
        },
        {
            "name": "V\u00edzimalom",
            "kind": "utca",
            "post_code": 0
        },
        {
            "name": "V\u00edz",
            "kind": "utca",
            "post_code": 0
        },
        {
            "name": "V\u00f6r\u00f6smarty",
            "kind": "utca",
            "post_code": 0
        },
        {
            "name": "Zagyvaparti",
            "kind": "s\u00e9t\u00e1ny",
            "post_code": 0
        },
        {
            "name": "Zen\u00e9sz",
            "kind": "utca",
            "post_code": 0
        },
        {
            "name": "Zerge",
            "kind": "utca",
            "post_code": 0
        },
        {
            "name": "Z\u00f6ld\u00e1r",
            "kind": "utca",
            "post_code": 0
        },
        {
            "name": "Zr\u00ednyi Mikl\u00f3s",
            "kind": "utca",
            "post_code": 0
        }
    ]
}