{
    "codes": {
        "5126": [
            "J\u00e1szf\u00e9nyszaru",
            null
        ]
    },
    "streets": [
        {
            "name": "Ady Endre",
            "kind": "\u00fat",
            "post_code": 0
        },
        {
            "name": "Ak\u00e1cfa",
            "kind": "utca",
            "post_code": 0
        },
        {
            "name": "\u00c1lmos",
            "kind": "\u00fat",
            "post_code": 0
        },
        {
            "name": "Aradi",
            "kind": "utca",
            "post_code": 0
        },
        {
            "name": "Arany J\u00e1nos",
            "kind": "\u00fat",
            "post_code": 0
        },
        {
            "name": "\u00c1rp\u00e1d",
            "kind": "\u00fat",
            "post_code": 0
        },
        {
            "name": "\u00c1rv\u00edz",
            "kind": "utca",
            "post_code": 0
        },
        {
            "name": "Attila",
            "kind": "\u00fat",
            "post_code": 0
        },
        {
            "name": "Bacs\u00f3 B\u00e9la",
            "kind": "\u00fat",
            "post_code": 0
        },
        {
            "name": "Bajcsy-Zsilinszky Endre",
            "kind": "\u00fat",
            "post_code": 0
        },
        {
            "name": "Bajza",
            "kind": "\u00fat",
            "post_code": 0
        },
        {
            "name": "Bercs\u00e9nyi Mikl\u00f3s",
            "kind": "\u00fat",
            "post_code": 0
        },
        {
            "name": "Bethlen G\u00e1bor",
            "kind": "\u00fat",
            "post_code": 0
        },
        {
            "name": "Bocskai",
            "kind": "t\u00e9r",
            "post_code": 0
        },
        {
            "name": "Budai Nagy Antal",
            "kind": "utca",
            "post_code": 0
        },
        {
            "name": "B\u00fazavir\u00e1g",
            "kind": "utca",
            "post_code": 0
        },
        {
            "name": "Corvina",
            "kind": "utca",
            "post_code": 0
        },
        {
            "name": "Csaba",
            "kind": "utca",
            "post_code": 0
        },
        {
            "name": "Csalog\u00e1ny",
            "kind": "utca",
            "post_code": 0
        },
        {
            "name": "Csokonai",
            "kind": "\u00fat",
            "post_code": 0
        },
        {
            "name": "Damjanich J\u00f3zsef",
            "kind": "\u00fat",
            "post_code": 0
        },
        {
            "name": "Damjanich",
            "kind": "utca",
            "post_code": 0
        },
        {
            "name": "De\u00e1k Ferenc",
            "kind": "utca",
            "post_code": 0
        },
        {
            "name": "D\u00e9ryn\u00e9",
            "kind": "utca",
            "post_code": 0
        },
        {
            "name": "Dob\u00f3 Istv\u00e1n",
            "kind": "\u00fat",
            "post_code": 0
        },
        {
            "name": "Dob\u00f3 Katica",
            "kind": "utca",
            "post_code": 0
        },
        {
            "name": "D\u00f3zsa Gy\u00f6rgy",
            "kind": "\u00fat",
            "post_code": 0
        },
        {
            "name": "Dugonics",
            "kind": "utca",
            "post_code": 0
        },
        {
            "name": "E\u00f6tv\u00f6s Lor\u00e1nd",
            "kind": "utca",
            "post_code": 0
        },
        {
            "name": "Erkel Ferenc",
            "kind": "utca",
            "post_code": 0
        },
        {
            "name": "Fecske",
            "kind": "utca",
            "post_code": 0
        },
        {
            "name": "F\u00fcst S\u00e1ndor",
            "kind": "utca",
            "post_code": 0
        },
        {
            "name": "G\u00f3lya",
            "kind": "utca",
            "post_code": 0
        },
        {
            "name": "Gy\u00f6ngyvir\u00e1g",
            "kind": "utca",
            "post_code": 0
        },
        {
            "name": "Hangsug\u00e1rz\u00f3",
            "kind": "utca",
            "post_code": 0
        },
        {
            "name": "Honv\u00e9d",
            "kind": "\u00fat",
            "post_code": 0
        },
        {
            "name": "Hunyadi J\u00e1nos",
            "kind": "\u00fat",
            "post_code": 0
        },
        {
            "name": "Husz\u00e1r",
            "kind": "utca",
            "post_code": 0
        },
        {
            "name": "Ifj\u00fas\u00e1g",
            "kind": "utca",
            "post_code": 0
        },
        {
            "name": "J\u00f3kai M\u00f3r",
            "kind": "utca",
            "post_code": 0
        },
        {
            "name": "J\u00f3zsef Attila",
            "kind": "\u00fat",
            "post_code": 0
        },
        {
            "name": "Kass\u00e1k Lajos",
            "kind": "utca",
            "post_code": 0
        },
        {
            "name": "Katona J\u00f3zsef",
            "kind": "utca",
            "post_code": 0
        },
        {
            "name": "Kinizsi P\u00e1l",
            "kind": "\u00fat",
            "post_code": 0
        },
        {
            "name": "Kismalom",
            "kind": "utca",
            "post_code": 0
        },
        {
            "name": "Kiss Ern\u0151",
            "kind": "utca",
            "post_code": 0
        },
        {
            "name": "K\u00f6lcsey Ferenc",
            "kind": "utca",
            "post_code": 0
        },
        {
            "name": "K\u0151r\u00f6si Csoma S\u00e1ndor",
            "kind": "utca",
            "post_code": 0
        },
        {
            "name": "Kossuth Lajos",
            "kind": "\u00fat",
            "post_code": 0
        },
        {
            "name": "Kozma",
            "kind": "\u00fat",
            "post_code": 0
        },
        {
            "name": "Lehel",
            "kind": "\u00fat",
            "post_code": 0
        },
        {
            "name": "Liliom",
            "kind": "utca",
            "post_code": 0
        },
        {
            "name": "Liszt Ferenc",
            "kind": "utca",
            "post_code": 0
        },
        {
            "name": "Mad\u00e1ch Imre",
            "kind": "\u00fat",
            "post_code": 0
        },
        {
            "name": "M\u00e1ty\u00e1s kir\u00e1ly",
            "kind": "\u00fat",
            "post_code": 0
        },
        {
            "name": "Mez\u0151",
            "kind": "utca",
            "post_code": 0
        },
        {
            "name": "Miksz\u00e1th K\u00e1lm\u00e1n",
            "kind": "utca",
            "post_code": 0
        },
        {
            "name": "M\u00f3ricz Zsigmond",
            "kind": "utca",
            "post_code": 0
        },
        {
            "name": "Nefelejcs",
            "kind": "utca",
            "post_code": 0
        },
        {
            "name": "Ny\u00e1r",
            "kind": "utca",
            "post_code": 0
        },
        {
            "name": "Orion",
            "kind": "utca",
            "post_code": 0
        },
        {
            "name": "\u00f6sv\u00e9ny",
            "kind": "",
            "post_code": 0
        },
        {
            "name": "Pet\u0151fi S\u00e1ndor",
            "kind": "utca",
            "post_code": 0
        },
        {
            "name": "Pipacs",
            "kind": "utca",
            "post_code": 0
        },
        {
            "name": "R\u00e1k\u00f3czi Ferenc",
            "kind": "utca",
            "post_code": 0
        },
        {
            "name": "R\u00f3zsa",
            "kind": "t\u00e9r",
            "post_code": 0
        },
        {
            "name": "Somogyi B\u00e9la",
            "kind": "\u00fat",
            "post_code": 0
        },
        {
            "name": "Szabads\u00e1g",
            "kind": "\u00fat",
            "post_code": 0
        },
        {
            "name": "Sz\u00e9ch\u00e9nyi Istv\u00e1n",
            "kind": "utca",
            "post_code": 0
        },
        {
            "name": "Szegf\u0171",
            "kind": "utca",
            "post_code": 0
        },
        {
            "name": "Szentcsal\u00e1d",
            "kind": "t\u00e9r",
            "post_code": 0
        },
        {
            "name": "Szent Erzs\u00e9bet",
            "kind": "utca",
            "post_code": 0
        },
        {
            "name": "Szent Istv\u00e1n",
            "kind": "\u00fat",
            "post_code": 0
        },
        {
            "name": "Szent L\u00e1szl\u00f3",
            "kind": "\u00fat",
            "post_code": 0
        },
        {
            "name": "Szikra",
            "kind": "utca",
            "post_code": 0
        },
        {
            "name": "Sziv\u00e1rv\u00e1ny",
            "kind": "utca",
            "post_code": 0
        },
        {
            "name": "Sz\u0171cs Mih\u00e1ly",
            "kind": "utca",
            "post_code": 0
        },
        {
            "name": "T\u00e1ncsics Mih\u00e1ly",
            "kind": "utca",
            "post_code": 0
        },
        {
            "name": "Tavasz",
            "kind": "utca",
            "post_code": 0
        },
        {
            "name": "Telev\u00edzi\u00f3",
            "kind": "utca",
            "post_code": 0
        },
        {
            "name": "Tiszavir\u00e1g",
            "kind": "utca",
            "post_code": 0
        },
        {
            "name": "Tompa Mih\u00e1ly",
            "kind": "utca",
            "post_code": 0
        },
        {
            "name": "Vajda J\u00e1nos",
            "kind": "utca",
            "post_code": 0
        },
        {
            "name": "V\u00e1s\u00e1rhelyi P\u00e1l",
            "kind": "\u00fat",
            "post_code": 0
        },
        {
            "name": "Vasv\u00e1ri P\u00e1l",
            "kind": "\u00fat",
            "post_code": 0
        },
        {
            "name": "Viola",
            "kind": "utca",
            "post_code": 0
        },
        {
            "name": "Vir\u00e1g",
            "kind": "utca",
            "post_code": 0
        },
        {
            "name": "V\u00f6r\u00f6smarty",
            "kind": "\u00fat",
            "post_code": 0
        },
        {
            "name": "V\u00f6r\u00f6smarty",
            "kind": "utca",
            "post_code": 0
        },
        {
            "name": "V\u00f6r\u00f6sr\u00f3zsa",
            "kind": "utca",
            "post_code": 0
        },
        {
            "name": "Wessel\u00e9nyi Mikl\u00f3s",
            "kind": "\u00fat",
            "post_code": 0
        },
        {
            "name": "Z\u00f6ldfa",
            "kind": "utca",
            "post_code": 0
        },
        {
            "name": "Zr\u00ednyi Mikl\u00f3s",
            "kind": "\u00fat",
            "post_code": 0
        }
    ]
}