{
    "codes": {
        "6300": [
            "Kalocsa",
            null
        ]
    },
    "streets": [
        {
            "name": "48-as h\u00e1zak IX.",
            "kind": "utca",
            "post_code": 0
        },
        {
            "name": "48-as h\u00e1zak VIII.",
            "kind": "utca",
            "post_code": 0
        },
        {
            "name": "48-as h\u00e1zak VII.",
            "kind": "utca",
            "post_code": 0
        },
        {
            "name": "48-as h\u00e1zak XI.",
            "kind": "utca",
            "post_code": 0
        },
        {
            "name": "48-as h\u00e1zak X.",
            "kind": "utca",
            "post_code": 0
        },
        {
            "name": "48-as",
            "kind": "utca",
            "post_code": 0
        },
        {
            "name": "Ady Endre",
            "kind": "utca",
            "post_code": 0
        },
        {
            "name": "Alkony",
            "kind": "utca",
            "post_code": 0
        },
        {
            "name": "Alkot\u00e1s",
            "kind": "utca",
            "post_code": 0
        },
        {
            "name": "Alkotm\u00e1ny",
            "kind": "utca",
            "post_code": 0
        },
        {
            "name": "Arany J\u00e1nos",
            "kind": "utca",
            "post_code": 0
        },
        {
            "name": "\u00c1rend\u00e1s",
            "kind": "utca",
            "post_code": 0
        },
        {
            "name": "\u00c1rp\u00e1d fejedelem",
            "kind": "utca",
            "post_code": 0
        },
        {
            "name": "Asztrik",
            "kind": "t\u00e9r",
            "post_code": 0
        },
        {
            "name": "Bab",
            "kind": "utca",
            "post_code": 0
        },
        {
            "name": "Bajcsy-Zsilinszky Endre",
            "kind": "utca",
            "post_code": 0
        },
        {
            "name": "Baka",
            "kind": "sor",
            "post_code": 0
        },
        {
            "name": "B\u00e1nki Don\u00e1t",
            "kind": "utca",
            "post_code": 0
        },
        {
            "name": "Barack",
            "kind": "utca",
            "post_code": 0
        },
        {
            "name": "B\u00e1rsony",
            "kind": "utca",
            "post_code": 0
        },
        {
            "name": "B\u00e1tyai",
            "kind": "utca",
            "post_code": 0
        },
        {
            "name": "B\u00e9ke",
            "kind": "utca",
            "post_code": 0
        },
        {
            "name": "Bem ap\u00f3",
            "kind": "utca",
            "post_code": 0
        },
        {
            "name": "Bimb\u00f3",
            "kind": "utca",
            "post_code": 0
        },
        {
            "name": "Bolt",
            "kind": "utca",
            "post_code": 0
        },
        {
            "name": "Borozda",
            "kind": "\u00fat",
            "post_code": 0
        },
        {
            "name": "Bors\u00f3",
            "kind": "utca",
            "post_code": 0
        },
        {
            "name": "Budai Nagy Antal",
            "kind": "utca",
            "post_code": 0
        },
        {
            "name": "B\u00fazapiac",
            "kind": "t\u00e9r",
            "post_code": 0
        },
        {
            "name": "Csajda",
            "kind": "utca",
            "post_code": 0
        },
        {
            "name": "Csalog\u00e1ny",
            "kind": "utca",
            "post_code": 0
        },
        {
            "name": "Csap",
            "kind": "utca",
            "post_code": 0
        },
        {
            "name": "Csatorna",
            "kind": "utca",
            "post_code": 0
        },
        {
            "name": "Cseresznye",
            "kind": "utca",
            "post_code": 0
        },
        {
            "name": "Csiga",
            "kind": "utca",
            "post_code": 0
        },
        {
            "name": "Csokonai Vit\u00e9z Mih\u00e1ly",
            "kind": "utca",
            "post_code": 0
        },
        {
            "name": "Damjanich J\u00e1nos",
            "kind": "utca",
            "post_code": 0
        },
        {
            "name": "Dank\u00f3 Pista",
            "kind": "utca",
            "post_code": 0
        },
        {
            "name": "De\u00e1k Imre",
            "kind": "utca",
            "post_code": 0
        },
        {
            "name": "D\u00e9lib\u00e1b",
            "kind": "k\u00f6z",
            "post_code": 0
        },
        {
            "name": "Di\u00f3fa",
            "kind": "utca",
            "post_code": 0
        },
        {
            "name": "D\u00f3zsa Gy\u00f6rgy",
            "kind": "utca",
            "post_code": 0
        },
        {
            "name": "Duna",
            "kind": "utca",
            "post_code": 0
        },
        {
            "name": "Ecetgy\u00e1r",
            "kind": "utca",
            "post_code": 0
        },
        {
            "name": "Egres",
            "kind": "utca",
            "post_code": 0
        },
        {
            "name": "E\u00f6tv\u00f6s J\u00f3zsef",
            "kind": "utca",
            "post_code": 0
        },
        {
            "name": "Eperf\u00f6ld",
            "kind": "utca",
            "post_code": 0
        },
        {
            "name": "Erdei Ferenc",
            "kind": "utca",
            "post_code": 0
        },
        {
            "name": "Erkel Ferenc",
            "kind": "utca",
            "post_code": 0
        },
        {
            "name": "\u00c9rsekkert",
            "kind": "utca",
            "post_code": 0
        },
        {
            "name": "Esze Tam\u00e1s",
            "kind": "utca",
            "post_code": 0
        },
        {
            "name": "Eszperant\u00f3",
            "kind": "utca",
            "post_code": 0
        },
        {
            "name": "F\u00e9nyi Gyula",
            "kind": "utca",
            "post_code": 0
        },
        {
            "name": "Fill\u00e9r",
            "kind": "utca",
            "post_code": 0
        },
        {
            "name": "Filvig",
            "kind": "k\u00f6z",
            "post_code": 0
        },
        {
            "name": "Fokt\u0151i",
            "kind": "utca",
            "post_code": 0
        },
        {
            "name": "F\u00fcz\u00e9r",
            "kind": "utca",
            "post_code": 0
        },
        {
            "name": "G\u00e1bor \u00c1ron",
            "kind": "utca",
            "post_code": 0
        },
        {
            "name": "G\u00e1bor Lajos",
            "kind": "utca",
            "post_code": 0
        },
        {
            "name": "Galagonya",
            "kind": "k\u00f6z",
            "post_code": 0
        },
        {
            "name": "G\u00e1rdonyi G\u00e9za",
            "kind": "utca",
            "post_code": 0
        },
        {
            "name": "G\u00e9m",
            "kind": "utca",
            "post_code": 0
        },
        {
            "name": "Giga",
            "kind": "k\u00f6z",
            "post_code": 0
        },
        {
            "name": "G\u00f6dr\u00f6k k\u00f6ze",
            "kind": "",
            "post_code": 0
        },
        {
            "name": "Gombolyagi",
            "kind": "utca",
            "post_code": 0
        },
        {
            "name": "Gr\u00f3sz J\u00f3zsef",
            "kind": "utca",
            "post_code": 0
        },
        {
            "name": "Hagyma",
            "kind": "utca",
            "post_code": 0
        },
        {
            "name": "Hajd\u00fa",
            "kind": "utca",
            "post_code": 0
        },
        {
            "name": "Haj\u00f3s Alfr\u00e9d",
            "kind": "utca",
            "post_code": 0
        },
        {
            "name": "Hal\u00e1sz",
            "kind": "utca",
            "post_code": 0
        },
        {
            "name": "H\u00e1rsfa",
            "kind": "utca",
            "post_code": 0
        },
        {
            "name": "Haynald",
            "kind": "utca",
            "post_code": 0
        },
        {
            "name": "H\u00edd",
            "kind": "utca",
            "post_code": 0
        },
        {
            "name": "Hold",
            "kind": "utca",
            "post_code": 0
        },
        {
            "name": "Honv\u00e9d",
            "kind": "utca",
            "post_code": 0
        },
        {
            "name": "H\u0151s\u00f6k",
            "kind": "\u00fatja",
            "post_code": 0
        },
        {
            "name": "Hossz\u00fa Antal",
            "kind": "utca",
            "post_code": 0
        },
        {
            "name": "Hunyadi J\u00e1nos",
            "kind": "utca",
            "post_code": 0
        },
        {
            "name": "Husz\u00e1r",
            "kind": "utca",
            "post_code": 0
        },
        {
            "name": "Ibolya",
            "kind": "utca",
            "post_code": 0
        },
        {
            "name": "Ilk Viktor",
            "kind": "utca",
            "post_code": 0
        },
        {
            "name": "Illy\u00e9s Gyula",
            "kind": "utca",
            "post_code": 0
        },
        {
            "name": "IX",
            "kind": "utca",
            "post_code": 0
        },
        {
            "name": "J\u00f3kai M\u00f3r",
            "kind": "utca",
            "post_code": 0
        },
        {
            "name": "J\u00f3zsef Attila",
            "kind": "utca",
            "post_code": 0
        },
        {
            "name": "K\u00e1polna",
            "kind": "k\u00f6z",
            "post_code": 0
        },
        {
            "name": "K\u00e1poszta",
            "kind": "utca",
            "post_code": 0
        },
        {
            "name": "Katona Istv\u00e1n",
            "kind": "utca",
            "post_code": 0
        },
        {
            "name": "Kertekalja",
            "kind": "sor",
            "post_code": 0
        },
        {
            "name": "K\u00edgy\u00f3",
            "kind": "utca",
            "post_code": 0
        },
        {
            "name": "Kinizsi P\u00e1l",
            "kind": "utca",
            "post_code": 0
        },
        {
            "name": "Kir\u00e1ly Ilus",
            "kind": "utca",
            "post_code": 0
        },
        {
            "name": "Kishalas",
            "kind": "sor",
            "post_code": 0
        },
        {
            "name": "Kiss Ern\u0151",
            "kind": "utca",
            "post_code": 0
        },
        {
            "name": "Kiss J\u00e1nos",
            "kind": "utca",
            "post_code": 0
        },
        {
            "name": "Kis",
            "kind": "utca",
            "post_code": 0
        },
        {
            "name": "K\u00f3csag",
            "kind": "utca",
            "post_code": 0
        },
        {
            "name": "K\u0151\u00e9get\u0151",
            "kind": "utca",
            "post_code": 0
        },
        {
            "name": "K\u00f6k\u00e9ny",
            "kind": "utca",
            "post_code": 0
        },
        {
            "name": "Koml\u00f3",
            "kind": "sor",
            "post_code": 0
        },
        {
            "name": "K\u00f6rte",
            "kind": "utca",
            "post_code": 0
        },
        {
            "name": "Kossuth Lajos",
            "kind": "utca",
            "post_code": 0
        },
        {
            "name": "Kov\u00e1cs",
            "kind": "k\u00f6z",
            "post_code": 0
        },
        {
            "name": "K\u00f6z\u00e9ps\u0151kertek",
            "kind": "utca",
            "post_code": 0
        },
        {
            "name": "Kubikus",
            "kind": "park",
            "post_code": 0
        },
        {
            "name": "Kubinszky",
            "kind": "utca",
            "post_code": 0
        },
        {
            "name": "Kunszt J\u00f3zsef",
            "kind": "utca",
            "post_code": 0
        },
        {
            "name": "Legel\u0151",
            "kind": "sor",
            "post_code": 0
        },
        {
            "name": "Lencse",
            "kind": "utca",
            "post_code": 0
        },
        {
            "name": "Liszt Ferenc",
            "kind": "utca",
            "post_code": 0
        },
        {
            "name": "Magt\u00e1r",
            "kind": "utca",
            "post_code": 0
        },
        {
            "name": "Magyar L\u00e1szl\u00f3",
            "kind": "utca",
            "post_code": 0
        },
        {
            "name": "Major\u00e1nna",
            "kind": "utca",
            "post_code": 0
        },
        {
            "name": "Malatin",
            "kind": "t\u00e9r",
            "post_code": 0
        },
        {
            "name": "M\u00e1lna",
            "kind": "utca",
            "post_code": 0
        },
        {
            "name": "Malomsz\u00f6gi",
            "kind": "d\u0171l\u0151",
            "post_code": 0
        },
        {
            "name": "Malomsz\u00f6gi",
            "kind": "utca",
            "post_code": 0
        },
        {
            "name": "Malom",
            "kind": "utca",
            "post_code": 0
        },
        {
            "name": "Martinovics Ign\u00e1c",
            "kind": "utca",
            "post_code": 0
        },
        {
            "name": "M\u00e1ty\u00e1s Kir\u00e1ly",
            "kind": "utca",
            "post_code": 0
        },
        {
            "name": "M\u00e9h\u00e9sz",
            "kind": "utca",
            "post_code": 0
        },
        {
            "name": "Menyh\u00e1rt L\u00e1szl\u00f3",
            "kind": "utca",
            "post_code": 0
        },
        {
            "name": "Meszesi",
            "kind": "\u00fat",
            "post_code": 0
        },
        {
            "name": "Miksz\u00e1th K\u00e1lm\u00e1n",
            "kind": "utca",
            "post_code": 0
        },
        {
            "name": "Miskei",
            "kind": "utca",
            "post_code": 0
        },
        {
            "name": "M\u00f3csy J\u00e1nos",
            "kind": "utca",
            "post_code": 0
        },
        {
            "name": "Mogyor\u00f3",
            "kind": "utca",
            "post_code": 0
        },
        {
            "name": "M\u00f3ra Ferenc",
            "kind": "utca",
            "post_code": 0
        },
        {
            "name": "M\u00f3ricz Zsigmond",
            "kind": "utca",
            "post_code": 0
        },
        {
            "name": "Munk\u00e1csy Mih\u00e1ly",
            "kind": "utca",
            "post_code": 0
        },
        {
            "name": "Munk\u00e1s",
            "kind": "utca",
            "post_code": 0
        },
        {
            "name": "Musk\u00e1tli",
            "kind": "k\u00f6z",
            "post_code": 0
        },
        {
            "name": "N\u00e1d",
            "kind": "utca",
            "post_code": 0
        },
        {
            "name": "Nagy Jen\u0151",
            "kind": "utca",
            "post_code": 0
        },
        {
            "name": "Nagymez\u0151",
            "kind": "utca",
            "post_code": 0
        },
        {
            "name": "Nagy S\u00e1ndor",
            "kind": "utca",
            "post_code": 0
        },
        {
            "name": "Nagy",
            "kind": "utca",
            "post_code": 0
        },
        {
            "name": "Napsug\u00e1r",
            "kind": "k\u00f6z",
            "post_code": 0
        },
        {
            "name": "Nap",
            "kind": "utca",
            "post_code": 0
        },
        {
            "name": "Nefelejcs",
            "kind": "utca",
            "post_code": 0
        },
        {
            "name": "Negyveni",
            "kind": "\u00fat",
            "post_code": 0
        },
        {
            "name": "Negyvennyolcasok",
            "kind": "tere",
            "post_code": 0
        },
        {
            "name": "N\u00e9meth L\u00e1szl\u00f3",
            "kind": "utca",
            "post_code": 0
        },
        {
            "name": "Nemzet\u0151r",
            "kind": "utca",
            "post_code": 0
        },
        {
            "name": "Ny\u00e1r",
            "kind": "utca",
            "post_code": 0
        },
        {
            "name": "Obsitos",
            "kind": "k\u00f6z",
            "post_code": 0
        },
        {
            "name": "Oncsa",
            "kind": "k\u00f6z",
            "post_code": 0
        },
        {
            "name": "Orgona",
            "kind": "utca",
            "post_code": 0
        },
        {
            "name": "Ortutay Gyula",
            "kind": "utca",
            "post_code": 0
        },
        {
            "name": "Paksi",
            "kind": "k\u00f6z",
            "post_code": 0
        },
        {
            "name": "P\u00e1sztor",
            "kind": "utca",
            "post_code": 0
        },
        {
            "name": "Pataji",
            "kind": "utca",
            "post_code": 0
        },
        {
            "name": "Pet\u0151fi S\u00e1ndor",
            "kind": "utca",
            "post_code": 0
        },
        {
            "name": "Radn\u00f3ti Mikl\u00f3s",
            "kind": "utca",
            "post_code": 0
        },
        {
            "name": "R\u00e1k\u00f3czi Ferenc",
            "kind": "utca",
            "post_code": 0
        },
        {
            "name": "Remete",
            "kind": "utca",
            "post_code": 0
        },
        {
            "name": "R\u00f3zsa",
            "kind": "k\u00f6z",
            "post_code": 0
        },
        {
            "name": "S\u00e1rk\u00f6z",
            "kind": "utca",
            "post_code": 0
        },
        {
            "name": "Selyemerd\u0151",
            "kind": "utca",
            "post_code": 0
        },
        {
            "name": "Selyem",
            "kind": "utca",
            "post_code": 0
        },
        {
            "name": "Semmelweis Ign\u00e1c",
            "kind": "utca",
            "post_code": 0
        },
        {
            "name": "Simonyi",
            "kind": "utca",
            "post_code": 0
        },
        {
            "name": "S\u00f6rh\u00e1z",
            "kind": "k\u00f6z",
            "post_code": 0
        },
        {
            "name": "S\u00f6r\u00f6s Imre",
            "kind": "utca",
            "post_code": 0
        },
        {
            "name": "Sportp\u00e1lya",
            "kind": "utca",
            "post_code": 0
        },
        {
            "name": "Szab\u00f3 J\u00f3zsef",
            "kind": "utca",
            "post_code": 0
        },
        {
            "name": "Sz\u00e9chenyi",
            "kind": "utca",
            "post_code": 0
        },
        {
            "name": "Szegf\u0171",
            "kind": "k\u00f6z",
            "post_code": 0
        },
        {
            "name": "Sz\u00e9n\u00e1skert III.",
            "kind": "utca",
            "post_code": 0
        },
        {
            "name": "Sz\u00e9n\u00e1skert II.",
            "kind": "utca",
            "post_code": 0
        },
        {
            "name": "Sz\u00e9n\u00e1skert I.",
            "kind": "utca",
            "post_code": 0
        },
        {
            "name": "Sz\u00e9n\u00e1skert IV.",
            "kind": "utca",
            "post_code": 0
        },
        {
            "name": "Sz\u00e9n\u00e1skert VI.",
            "kind": "utca",
            "post_code": 0
        },
        {
            "name": "Sz\u00e9n\u00e1skert V.",
            "kind": "utca",
            "post_code": 0
        },
        {
            "name": "Szenth\u00e1roms\u00e1g",
            "kind": "t\u00e9r",
            "post_code": 0
        },
        {
            "name": "Szent Imre",
            "kind": "utca",
            "post_code": 0
        },
        {
            "name": "Szent Istv\u00e1n kir\u00e1ly",
            "kind": "\u00fat",
            "post_code": 0
        },
        {
            "name": "Szent Istv\u00e1n kir\u00e1ly",
            "kind": "utca",
            "post_code": 0
        },
        {
            "name": "Szent Istv\u00e1n",
            "kind": "utca",
            "post_code": 0
        },
        {
            "name": "Sz\u00e9r\u0171skert",
            "kind": "utca",
            "post_code": 0
        },
        {
            "name": "Szilva",
            "kind": "sor",
            "post_code": 0
        },
        {
            "name": "Sz\u0151l\u0151k k\u00f6ze",
            "kind": "\u00fat",
            "post_code": 0
        },
        {
            "name": "Tam\u00e1si \u00c1ron",
            "kind": "utca",
            "post_code": 0
        },
        {
            "name": "T\u00e1ncsics Mih\u00e1ly",
            "kind": "utca",
            "post_code": 0
        },
        {
            "name": "Tartsay Vilmos",
            "kind": "utca",
            "post_code": 0
        },
        {
            "name": "Tavasz",
            "kind": "utca",
            "post_code": 0
        },
        {
            "name": "T\u00e9glagy\u00e1r",
            "kind": "utca",
            "post_code": 0
        },
        {
            "name": "Telek",
            "kind": "utca",
            "post_code": 0
        },
        {
            "name": "Tessedik S\u00e1muel",
            "kind": "utca",
            "post_code": 0
        },
        {
            "name": "T\u00edm\u00e1r K\u00e1lm\u00e1n",
            "kind": "utca",
            "post_code": 0
        },
        {
            "name": "Tomori P\u00e1l",
            "kind": "utca",
            "post_code": 0
        },
        {
            "name": "Tompa Mih\u00e1ly",
            "kind": "utca",
            "post_code": 0
        },
        {
            "name": "T\u00f3th Mike",
            "kind": "utca",
            "post_code": 0
        },
        {
            "name": "Tulip\u00e1n",
            "kind": "utca",
            "post_code": 0
        },
        {
            "name": "T\u00fcz\u00e9r",
            "kind": "sor",
            "post_code": 0
        },
        {
            "name": "\u00dajhelyi Imre",
            "kind": "utca",
            "post_code": 0
        },
        {
            "name": "Vad\u00e1sz",
            "kind": "utca",
            "post_code": 0
        },
        {
            "name": "V\u00e1rosh\u00e1z",
            "kind": "utca",
            "post_code": 0
        },
        {
            "name": "V\u00e1s\u00e1rt\u00e9r",
            "kind": "utca",
            "post_code": 0
        },
        {
            "name": "Vas\u00fat",
            "kind": "utca",
            "post_code": 0
        },
        {
            "name": "Veres P\u00e9ter",
            "kind": "utca",
            "post_code": 0
        },
        {
            "name": "Verseny",
            "kind": "utca",
            "post_code": 0
        },
        {
            "name": "Vid\u00e1ts",
            "kind": "utca",
            "post_code": 0
        },
        {
            "name": "Vigad\u00f3",
            "kind": "sor",
            "post_code": 0
        },
        {
            "name": "Viola",
            "kind": "utca",
            "post_code": 0
        },
        {
            "name": "Vir\u00e1g",
            "kind": "utca",
            "post_code": 0
        },
        {
            "name": "V\u00edzm\u0171",
            "kind": "utca",
            "post_code": 0
        },
        {
            "name": "V\u00f6r\u00f6smarty Mih\u00e1ly",
            "kind": "utca",
            "post_code": 0
        },
        {
            "name": "V\u00f6r\u00f6ssz\u00e1ll\u00e1s",
            "kind": "",
            "post_code": 0
        },
        {
            "name": "Zerge",
            "kind": "utca",
            "post_code": 0
        },
        {
            "name": "Z\u00f6ldfa",
            "kind": "utca",
            "post_code": 0
        },
        {
            "name": "Zr\u00ednyi Mikl\u00f3s",
            "kind": "utca",
            "post_code": 0
        },
        {
            "name": "Zs\u00e1k",
            "kind": "utca",
            "post_code": 0
        }
    ]
}