{
    "codes": {
        "7400": [
            "Kaposv\u00e1r",
            null
        ],
        "7451": [
            "Kaposv\u00e1r",
            "Kaposf\u00fcred"
        ],
        "7461": [
            "Kaposv\u00e1r",
            "Topon\u00e1r"
        ]
    },
    "streets": [
        {
            "name": "48-as Ifj\u00fas\u00e1g",
            "kind": "\u00fatja",
            "post_code": 0
        },
        {
            "name": "\u00c1chim Andr\u00e1s",
            "kind": "utca",
            "post_code": 0
        },
        {
            "name": "Adria",
            "kind": "utca",
            "post_code": 0
        },
        {
            "name": "Ady Endre",
            "kind": "utca",
            "post_code": 0
        },
        {
            "name": "\u00c1fonya",
            "kind": "utca",
            "post_code": 0
        },
        {
            "name": "Ak\u00e1cfa",
            "kind": "utca",
            "post_code": 0
        },
        {
            "name": "Ak\u00e1cos",
            "kind": "utca",
            "post_code": 0
        },
        {
            "name": "Alkotm\u00e1ny",
            "kind": "utca",
            "post_code": 0
        },
        {
            "name": "\u00c1llom\u00e1s",
            "kind": "utca",
            "post_code": 0
        },
        {
            "name": "Alma",
            "kind": "k\u00f6z",
            "post_code": 0
        },
        {
            "name": "Alma",
            "kind": "utca",
            "post_code": 0
        },
        {
            "name": "\u00c1lmos vez\u00e9r",
            "kind": "utca",
            "post_code": 0
        },
        {
            "name": "Anella",
            "kind": "utca",
            "post_code": 0
        },
        {
            "name": "Anna",
            "kind": "utca",
            "post_code": 0
        },
        {
            "name": "Ap\u00e1czai Csere J\u00e1nos",
            "kind": "utca",
            "post_code": 0
        },
        {
            "name": "Aranyes\u0151",
            "kind": "utca",
            "post_code": 0
        },
        {
            "name": "Aranyh\u00e1rs",
            "kind": "utca",
            "post_code": 0
        },
        {
            "name": "Arany J\u00e1nos",
            "kind": "k\u00f6z",
            "post_code": 0
        },
        {
            "name": "Arany J\u00e1nos",
            "kind": "t\u00e9r",
            "post_code": 0
        },
        {
            "name": "Arany J\u00e1nos",
            "kind": "utca",
            "post_code": 0
        },
        {
            "name": "arbor\u00e9tum h\u00edd",
            "kind": "",
            "post_code": 0
        },
        {
            "name": "\u00c1rnyas",
            "kind": "utca",
            "post_code": 0
        },
        {
            "name": "\u00c1rok",
            "kind": "utca",
            "post_code": 0
        },
        {
            "name": "\u00c1rp\u00e1d",
            "kind": "utca",
            "post_code": 0
        },
        {
            "name": "\u00c1rv\u00e1cska",
            "kind": "utca",
            "post_code": 0
        },
        {
            "name": "\u00c1rvah\u00e1z",
            "kind": "utca",
            "post_code": 0
        },
        {
            "name": "Aszal\u00f3i",
            "kind": "\u00fat",
            "post_code": 0
        },
        {
            "name": "Badacsony",
            "kind": "utca",
            "post_code": 0
        },
        {
            "name": "Bajcsy-Zsilinszky",
            "kind": "utca",
            "post_code": 0
        },
        {
            "name": "Balaton",
            "kind": "utca",
            "post_code": 0
        },
        {
            "name": "Bal\u00e1zs J\u00e1nos",
            "kind": "utca",
            "post_code": 0
        },
        {
            "name": "Bal\u00e1zskert",
            "kind": "k\u00f6z",
            "post_code": 0
        },
        {
            "name": "Ballak\u00fati",
            "kind": "utca",
            "post_code": 0
        },
        {
            "name": "Ban\u00e1n",
            "kind": "k\u00f6z",
            "post_code": 0
        },
        {
            "name": "B\u00e1nkutai",
            "kind": "utca",
            "post_code": 0
        },
        {
            "name": "Barack",
            "kind": "utca",
            "post_code": 0
        },
        {
            "name": "B\u00e1r\u00e1ny R\u00f3bert",
            "kind": "utca",
            "post_code": 0
        },
        {
            "name": "B\u00e1rczi Guszt\u00e1v",
            "kind": "utca",
            "post_code": 0
        },
        {
            "name": "Baross G\u00e1bor",
            "kind": "utca",
            "post_code": 0
        },
        {
            "name": "Bart\u00f3k B\u00e9la",
            "kind": "utca",
            "post_code": 0
        },
        {
            "name": "B\u00e1stya",
            "kind": "utca",
            "post_code": 0
        },
        {
            "name": "B\u00e9k\u00e9sy Gy\u00f6rgy",
            "kind": "utca",
            "post_code": 0
        },
        {
            "name": "B\u00e9ke",
            "kind": "utca",
            "post_code": 0
        },
        {
            "name": "B\u00e9la kir\u00e1ly",
            "kind": "k\u00f6z",
            "post_code": 0
        },
        {
            "name": "B\u00e9la kir\u00e1ly",
            "kind": "utca",
            "post_code": 0
        },
        {
            "name": "Bem",
            "kind": "utca",
            "post_code": 0
        },
        {
            "name": "Benedek Elek",
            "kind": "utca",
            "post_code": 0
        },
        {
            "name": "Bercs\u00e9nyi Mikl\u00f3s",
            "kind": "utca",
            "post_code": 0
        },
        {
            "name": "Bereczk S\u00e1ndor",
            "kind": "utca",
            "post_code": 0
        },
        {
            "name": "B\u00e9ri Balogh \u00c1d\u00e1m",
            "kind": "utca",
            "post_code": 0
        },
        {
            "name": "Berzsenyi D\u00e1niel",
            "kind": "utca",
            "post_code": 0
        },
        {
            "name": "Besz\u00e9des J\u00f3zsef",
            "kind": "utca",
            "post_code": 0
        },
        {
            "name": "Bethlen G\u00e1bor",
            "kind": "utca",
            "post_code": 0
        },
        {
            "name": "Bethlen",
            "kind": "t\u00e9r",
            "post_code": 0
        },
        {
            "name": "Bibic",
            "kind": "utca",
            "post_code": 0
        },
        {
            "name": "Bicz\u00f3 Ferenc",
            "kind": "k\u00f6z",
            "post_code": 0
        },
        {
            "name": "Bicz\u00f3 Ferenc",
            "kind": "utca",
            "post_code": 0
        },
        {
            "name": "Birs",
            "kind": "utca",
            "post_code": 0
        },
        {
            "name": "Blaha Lujza",
            "kind": "utca",
            "post_code": 0
        },
        {
            "name": "Bl\u00e1thy Ott\u00f3",
            "kind": "utca",
            "post_code": 0
        },
        {
            "name": "Bocskai Istv\u00e1n",
            "kind": "utca",
            "post_code": 0
        },
        {
            "name": "Bodrog",
            "kind": "utca",
            "post_code": 0
        },
        {
            "name": "Bog\u00e1ncs",
            "kind": "utca",
            "post_code": 0
        },
        {
            "name": "Bogl\u00e1rka",
            "kind": "utca",
            "post_code": 0
        },
        {
            "name": "Bojtorj\u00e1n",
            "kind": "utca",
            "post_code": 0
        },
        {
            "name": "Borbar\u00e1t",
            "kind": "utca",
            "post_code": 0
        },
        {
            "name": "Bor\u00f3ka",
            "kind": "utca",
            "post_code": 0
        },
        {
            "name": "Borosty\u00e1n",
            "kind": "utca",
            "post_code": 0
        },
        {
            "name": "Brass\u00f3",
            "kind": "utca",
            "post_code": 0
        },
        {
            "name": "Budai Nagy Antal",
            "kind": "utca",
            "post_code": 0
        },
        {
            "name": "B\u00fazavir\u00e1g",
            "kind": "utca",
            "post_code": 0
        },
        {
            "name": "Buzs\u00e1ki",
            "kind": "utca",
            "post_code": 0
        },
        {
            "name": "Cinege",
            "kind": "utca",
            "post_code": 0
        },
        {
            "name": "Corvina",
            "kind": "t\u00e9r",
            "post_code": 0
        },
        {
            "name": "Csabagy\u00f6ngye",
            "kind": "utca",
            "post_code": 0
        },
        {
            "name": "Csalog\u00e1ny",
            "kind": "k\u00f6z",
            "post_code": 0
        },
        {
            "name": "Csalog\u00e1ny",
            "kind": "utca",
            "post_code": 0
        },
        {
            "name": "Csatorna",
            "kind": "k\u00f6z",
            "post_code": 0
        },
        {
            "name": "Cseresznye",
            "kind": "utca",
            "post_code": 0
        },
        {
            "name": "Cseri",
            "kind": "d\u0171l\u0151",
            "post_code": 0
        },
        {
            "name": "Cseri",
            "kind": "\u00fat",
            "post_code": 0
        },
        {
            "name": "Cs\u00edk Ferenc",
            "kind": "s\u00e9t\u00e1ny",
            "post_code": 0
        },
        {
            "name": "Csillag",
            "kind": "utca",
            "post_code": 0
        },
        {
            "name": "Csiperke",
            "kind": "utca",
            "post_code": 0
        },
        {
            "name": "Csokonai Vit\u00e9z Mih\u00e1ly",
            "kind": "utca",
            "post_code": 0
        },
        {
            "name": "Csutorasz\u00e1r\u00edt\u00f3",
            "kind": "d\u0171l\u0151",
            "post_code": 0
        },
        {
            "name": "Csutorasz\u00e1r\u00edt\u00f3",
            "kind": "utca",
            "post_code": 0
        },
        {
            "name": "Cukorgy\u00e1ri",
            "kind": "k\u00f6z",
            "post_code": 0
        },
        {
            "name": "D\u00e1lia",
            "kind": "utca",
            "post_code": 0
        },
        {
            "name": "Damjanich",
            "kind": "utca",
            "post_code": 0
        },
        {
            "name": "Dank\u00f3 Pista",
            "kind": "utca",
            "post_code": 0
        },
        {
            "name": "Daru",
            "kind": "utca",
            "post_code": 0
        },
        {
            "name": "Derkovits Gyula",
            "kind": "utca",
            "post_code": 0
        },
        {
            "name": "D\u00e9ryn\u00e9",
            "kind": "utca",
            "post_code": 0
        },
        {
            "name": "Deseda",
            "kind": "utca",
            "post_code": 0
        },
        {
            "name": "D\u00e9si Huber Istv\u00e1n",
            "kind": "utca",
            "post_code": 0
        },
        {
            "name": "Di\u00f3fa",
            "kind": "utca",
            "post_code": 0
        },
        {
            "name": "Dob\u00f3 Istv\u00e1n",
            "kind": "k\u00f6z",
            "post_code": 0
        },
        {
            "name": "Dob\u00f3 Istv\u00e1n",
            "kind": "utca",
            "post_code": 0
        },
        {
            "name": "Domb\u00f3v\u00e1ri",
            "kind": "\u00fat",
            "post_code": 0
        },
        {
            "name": "Dong\u00f3",
            "kind": "utca",
            "post_code": 0
        },
        {
            "name": "D\u00f3zsa Gy\u00f6rgy",
            "kind": "utca",
            "post_code": 0
        },
        {
            "name": "Dr. Guba S\u00e1ndor",
            "kind": "utca",
            "post_code": 0
        },
        {
            "name": "Dr. Kaposv\u00e1ry Gy\u00f6rgy",
            "kind": "utca",
            "post_code": 0
        },
        {
            "name": "Dr. Kov\u00e1cs-Sebest\u00e9ny Gyula",
            "kind": "utca",
            "post_code": 0
        },
        {
            "name": "Dsida Jen\u0151",
            "kind": "utca",
            "post_code": 0
        },
        {
            "name": "Duna",
            "kind": "utca",
            "post_code": 0
        },
        {
            "name": "Eger",
            "kind": "utca",
            "post_code": 0
        },
        {
            "name": "Egres",
            "kind": "utca",
            "post_code": 0
        },
        {
            "name": "Egyenesi",
            "kind": "\u00fat",
            "post_code": 0
        },
        {
            "name": "El\u0151d vez\u00e9r",
            "kind": "utca",
            "post_code": 0
        },
        {
            "name": "Elvira",
            "kind": "utca",
            "post_code": 0
        },
        {
            "name": "E\u00f6tv\u00f6s",
            "kind": "utca",
            "post_code": 0
        },
        {
            "name": "Eper",
            "kind": "utca",
            "post_code": 0
        },
        {
            "name": "Erdei Ferenc",
            "kind": "utca",
            "post_code": 0
        },
        {
            "name": "Erd\u0151sor",
            "kind": "utca",
            "post_code": 0
        },
        {
            "name": "Erd\u0151",
            "kind": "\u00fat",
            "post_code": 0
        },
        {
            "name": "Erkel Ferenc",
            "kind": "k\u00f6z",
            "post_code": 0
        },
        {
            "name": "Erkel Ferenc",
            "kind": "utca",
            "post_code": 0
        },
        {
            "name": "Esze Tam\u00e1s",
            "kind": "k\u00f6z",
            "post_code": 0
        },
        {
            "name": "Esze Tam\u00e1s",
            "kind": "utca",
            "post_code": 0
        },
        {
            "name": "Ezerj\u00f3",
            "kind": "utca",
            "post_code": 0
        },
        {
            "name": "Ezred\u00e9v",
            "kind": "utca",
            "post_code": 0
        },
        {
            "name": "Ez\u00fcsth\u00e1rs",
            "kind": "utca",
            "post_code": 0
        },
        {
            "name": "F\u00e1c\u00e1nos",
            "kind": "",
            "post_code": 0
        },
        {
            "name": "Fagy\u00f6ngy",
            "kind": "utca",
            "post_code": 0
        },
        {
            "name": "Fazekas Mih\u00e1ly",
            "kind": "utca",
            "post_code": 0
        },
        {
            "name": "Fejedelem",
            "kind": "utca",
            "post_code": 0
        },
        {
            "name": "Fekete Istv\u00e1n",
            "kind": "utca",
            "post_code": 0
        },
        {
            "name": "Feny\u0151",
            "kind": "utca",
            "post_code": 0
        },
        {
            "name": "Fenyves",
            "kind": "k\u00f6z",
            "post_code": 0
        },
        {
            "name": "Fenyves",
            "kind": "utca",
            "post_code": 0
        },
        {
            "name": "Fodor J\u00f3zsef",
            "kind": "utca",
            "post_code": 0
        },
        {
            "name": "Fony\u00f3d",
            "kind": "utca",
            "post_code": 0
        },
        {
            "name": "Forr\u00e1s",
            "kind": "k\u00f6z",
            "post_code": 0
        },
        {
            "name": "F\u0151",
            "kind": "utca",
            "post_code": 0
        },
        {
            "name": "Frankel Le\u00f3",
            "kind": "utca",
            "post_code": 0
        },
        {
            "name": "F\u00fcrd\u0151",
            "kind": "k\u00f6z",
            "post_code": 0
        },
        {
            "name": "F\u00fcredi",
            "kind": "\u00fat",
            "post_code": 0
        },
        {
            "name": "F\u00fcrj",
            "kind": "utca",
            "post_code": 0
        },
        {
            "name": "F\u0171zfa",
            "kind": "utca",
            "post_code": 0
        },
        {
            "name": "G\u00e1bor Andor",
            "kind": "t\u00e9r",
            "post_code": 0
        },
        {
            "name": "G\u00e1bor D\u00e9nes",
            "kind": "utca",
            "post_code": 0
        },
        {
            "name": "Galagonya",
            "kind": "utca",
            "post_code": 0
        },
        {
            "name": "Galimberti",
            "kind": "utca",
            "post_code": 0
        },
        {
            "name": "G\u00e1rdonyi G\u00e9za",
            "kind": "utca",
            "post_code": 0
        },
        {
            "name": "G\u00e9m",
            "kind": "utca",
            "post_code": 0
        },
        {
            "name": "Gerle",
            "kind": "utca",
            "post_code": 0
        },
        {
            "name": "Gesztenye",
            "kind": "utca",
            "post_code": 0
        },
        {
            "name": "G\u00e9za",
            "kind": "utca",
            "post_code": 0
        },
        {
            "name": "Gilice",
            "kind": "utca",
            "post_code": 0
        },
        {
            "name": "G\u00f3lyah\u00edr",
            "kind": "utca",
            "post_code": 0
        },
        {
            "name": "G\u00f6nczi Ferenc",
            "kind": "utca",
            "post_code": 0
        },
        {
            "name": "G\u00f6rgey Art\u00far",
            "kind": "utca",
            "post_code": 0
        },
        {
            "name": "Gr\u00f3f Apponyi Albert",
            "kind": "k\u00f6z",
            "post_code": 0
        },
        {
            "name": "Gr\u00f3f Apponyi Albert",
            "kind": "utca",
            "post_code": 0
        },
        {
            "name": "Gruber J\u00e1nos",
            "kind": "utca",
            "post_code": 0
        },
        {
            "name": "Gudora",
            "kind": "utca",
            "post_code": 0
        },
        {
            "name": "Gyalogh\u00edd",
            "kind": "",
            "post_code": 0
        },
        {
            "name": "Gyalog\u00fat a romokhoz",
            "kind": "",
            "post_code": 0
        },
        {
            "name": "Gy\u00e1r",
            "kind": "utca",
            "post_code": 0
        },
        {
            "name": "Gyepes",
            "kind": "utca",
            "post_code": 0
        },
        {
            "name": "Gy\u00f6ngy",
            "kind": "utca",
            "post_code": 0
        },
        {
            "name": "Gy\u00f6ngyvir\u00e1g",
            "kind": "utca",
            "post_code": 0
        },
        {
            "name": "Gy\u0151r",
            "kind": "utca",
            "post_code": 0
        },
        {
            "name": "Hadasty\u00e1n",
            "kind": "k\u00f6z",
            "post_code": 0
        },
        {
            "name": "Hajnalka",
            "kind": "utca",
            "post_code": 0
        },
        {
            "name": "Hajnal",
            "kind": "utca",
            "post_code": 0
        },
        {
            "name": "Hajn\u00f3czy J\u00f3zsef",
            "kind": "utca",
            "post_code": 0
        },
        {
            "name": "Harangl\u00e1b",
            "kind": "utca",
            "post_code": 0
        },
        {
            "name": "Harang",
            "kind": "utca",
            "post_code": 0
        },
        {
            "name": "Harangvir\u00e1g",
            "kind": "utca",
            "post_code": 0
        },
        {
            "name": "Haris",
            "kind": "utca",
            "post_code": 0
        },
        {
            "name": "H\u00e1rsalja",
            "kind": "utca",
            "post_code": 0
        },
        {
            "name": "Hars\u00e1nyi J\u00e1nos",
            "kind": "utca",
            "post_code": 0
        },
        {
            "name": "H\u00e1rsfa",
            "kind": "utca",
            "post_code": 0
        },
        {
            "name": "Hat\u00e1r",
            "kind": "\u00fat",
            "post_code": 0
        },
        {
            "name": "Hatty\u00fa",
            "kind": "utca",
            "post_code": 0
        },
        {
            "name": "Hegyalja",
            "kind": "utca",
            "post_code": 0
        },
        {
            "name": "Hegyerd\u0151",
            "kind": "utca",
            "post_code": 0
        },
        {
            "name": "Hegyi",
            "kind": "utca",
            "post_code": 0
        },
        {
            "name": "Herman",
            "kind": "d\u0171l\u0151",
            "post_code": 0
        },
        {
            "name": "Herman Ott\u00f3",
            "kind": "utca",
            "post_code": 0
        },
        {
            "name": "Hevesy Gy\u00f6rgy",
            "kind": "utca",
            "post_code": 0
        },
        {
            "name": "H\u00edd",
            "kind": "",
            "post_code": 0
        },
        {
            "name": "Hold",
            "kind": "utca",
            "post_code": 0
        },
        {
            "name": "Honv\u00e9d",
            "kind": "utca",
            "post_code": 0
        },
        {
            "name": "Horg\u00e1sz",
            "kind": "utca",
            "post_code": 0
        },
        {
            "name": "Horog",
            "kind": "utca",
            "post_code": 0
        },
        {
            "name": "H\u00f3vir\u00e1g",
            "kind": "utca",
            "post_code": 0
        },
        {
            "name": "Huba vez\u00e9r",
            "kind": "utca",
            "post_code": 0
        },
        {
            "name": "Hull\u00e1m",
            "kind": "utca",
            "post_code": 0
        },
        {
            "name": "Hunyadi J\u00e1nos",
            "kind": "utca",
            "post_code": 0
        },
        {
            "name": "Ibolya",
            "kind": "utca",
            "post_code": 0
        },
        {
            "name": "Illy\u00e9s Gyula",
            "kind": "utca",
            "post_code": 0
        },
        {
            "name": "Iparos",
            "kind": "utca",
            "post_code": 0
        },
        {
            "name": "Ir\u00e1nyi D\u00e1niel",
            "kind": "utca",
            "post_code": 0
        },
        {
            "name": "Irinyi J\u00e1nos",
            "kind": "utca",
            "post_code": 0
        },
        {
            "name": "Iskola",
            "kind": "k\u00f6z",
            "post_code": 0
        },
        {
            "name": "Isz\u00e1k",
            "kind": "utca",
            "post_code": 0
        },
        {
            "name": "Iv\u00e1nfahegy",
            "kind": "",
            "post_code": 0
        },
        {
            "name": "Iv\u00e1nfahegyalja",
            "kind": "k\u00f6z",
            "post_code": 0
        },
        {
            "name": "Iv\u00e1nfahegyalja",
            "kind": "\u00fat",
            "post_code": 0
        },
        {
            "name": "Iv\u00e1nfahegyalja",
            "kind": "utca",
            "post_code": 0
        },
        {
            "name": "Izz\u00f3",
            "kind": "utca",
            "post_code": 0
        },
        {
            "name": "J\u00e1cint",
            "kind": "utca",
            "post_code": 0
        },
        {
            "name": "J\u00e1nos",
            "kind": "utca",
            "post_code": 0
        },
        {
            "name": "J\u00e1szai Mari",
            "kind": "utca",
            "post_code": 0
        },
        {
            "name": "J\u00e1zmin",
            "kind": "utca",
            "post_code": 0
        },
        {
            "name": "Jedlik \u00c1nyos",
            "kind": "utca",
            "post_code": 0
        },
        {
            "name": "Jegeny\u00e9s",
            "kind": "utca",
            "post_code": 0
        },
        {
            "name": "J\u00f3kai M\u00f3r",
            "kind": "utca",
            "post_code": 0
        },
        {
            "name": "J\u00f3zsef Attila",
            "kind": "utca",
            "post_code": 0
        },
        {
            "name": "J\u00f3zsef",
            "kind": "utca",
            "post_code": 0
        },
        {
            "name": "Juh\u00e1sz Gyula",
            "kind": "utca",
            "post_code": 0
        },
        {
            "name": "Jutai",
            "kind": "\u00fat",
            "post_code": 0
        },
        {
            "name": "Jutai",
            "kind": "utca",
            "post_code": 0
        },
        {
            "name": "Kadarka",
            "kind": "utca",
            "post_code": 0
        },
        {
            "name": "K\u00e1lv\u00e1ria",
            "kind": "utca",
            "post_code": 0
        },
        {
            "name": "Kamilla",
            "kind": "utca",
            "post_code": 0
        },
        {
            "name": "Kand\u00f3 K\u00e1lm\u00e1n",
            "kind": "k\u00f6z",
            "post_code": 0
        },
        {
            "name": "Kand\u00f3 K\u00e1lm\u00e1n",
            "kind": "utca",
            "post_code": 0
        },
        {
            "name": "Kanizsai",
            "kind": "utca",
            "post_code": 0
        },
        {
            "name": "Kankalin",
            "kind": "utca",
            "post_code": 0
        },
        {
            "name": "Kap\u00e1s",
            "kind": "utca",
            "post_code": 0
        },
        {
            "name": "K\u00e1polna",
            "kind": "utca",
            "post_code": 0
        },
        {
            "name": "Kapoly Antal",
            "kind": "utca",
            "post_code": 0
        },
        {
            "name": "Kaposf\u00fcredi",
            "kind": "\u00fat",
            "post_code": 0
        },
        {
            "name": "Kaposhegy",
            "kind": "utca",
            "post_code": 0
        },
        {
            "name": "Kaposi M\u00f3r",
            "kind": "utca",
            "post_code": 0
        },
        {
            "name": "Kaposr\u00e9t",
            "kind": "sor",
            "post_code": 0
        },
        {
            "name": "K\u00e1roly R\u00f3bert",
            "kind": "utca",
            "post_code": 0
        },
        {
            "name": "K\u00e1rp\u00e1t",
            "kind": "utca",
            "post_code": 0
        },
        {
            "name": "Kassa",
            "kind": "utca",
            "post_code": 0
        },
        {
            "name": "Kasvir\u00e1g",
            "kind": "utca",
            "post_code": 0
        },
        {
            "name": "Katica",
            "kind": "utca",
            "post_code": 0
        },
        {
            "name": "Katona J\u00f3zsef",
            "kind": "utca",
            "post_code": 0
        },
        {
            "name": "Kazinczy Ferenc",
            "kind": "utca",
            "post_code": 0
        },
        {
            "name": "Kecelhegyalja",
            "kind": "\u00fat",
            "post_code": 0
        },
        {
            "name": "Kecelhegyalja",
            "kind": "utca",
            "post_code": 0
        },
        {
            "name": "Kecelhegyi",
            "kind": "utca",
            "post_code": 0
        },
        {
            "name": "Keceli",
            "kind": "bej\u00e1r\u00f3",
            "post_code": 0
        },
        {
            "name": "Keletiv\u00e1nfa",
            "kind": "utca",
            "post_code": 0
        },
        {
            "name": "Kemping",
            "kind": "utca",
            "post_code": 0
        },
        {
            "name": "Kenese",
            "kind": "t\u00e9r",
            "post_code": 0
        },
        {
            "name": "Keny\u00e9rgy\u00e1r",
            "kind": "utca",
            "post_code": 0
        },
        {
            "name": "Ker\u00e9k",
            "kind": "utca",
            "post_code": 0
        },
        {
            "name": "Kereszt",
            "kind": "utca",
            "post_code": 0
        },
        {
            "name": "Kertalja",
            "kind": "utca",
            "post_code": 0
        },
        {
            "name": "Kert\u00e9sz",
            "kind": "utca",
            "post_code": 0
        },
        {
            "name": "Keskeny",
            "kind": "utca",
            "post_code": 0
        },
        {
            "name": "Keszthely",
            "kind": "utca",
            "post_code": 0
        },
        {
            "name": "Kikerics",
            "kind": "utca",
            "post_code": 0
        },
        {
            "name": "Kinizsi",
            "kind": "lak\u00f3telep",
            "post_code": 0
        },
        {
            "name": "Kisfaludy",
            "kind": "utca",
            "post_code": 0
        },
        {
            "name": "Kisg\u00e1t",
            "kind": "d\u0171l\u0151",
            "post_code": 0
        },
        {
            "name": "Kisg\u00e1ti",
            "kind": "utca",
            "post_code": 0
        },
        {
            "name": "Kisk\u00f3csag",
            "kind": "utca",
            "post_code": 0
        },
        {
            "name": "Kisk\u00f6zi",
            "kind": "utca",
            "post_code": 0
        },
        {
            "name": "Kismez\u0151",
            "kind": "utca",
            "post_code": 0
        },
        {
            "name": "Kisr\u00f3mahegyi",
            "kind": "utca",
            "post_code": 0
        },
        {
            "name": "Klapka Gy\u00f6rgy",
            "kind": "utca",
            "post_code": 0
        },
        {
            "name": "K\u00f3csag",
            "kind": "utca",
            "post_code": 0
        },
        {
            "name": "Kod\u00e1ly Zolt\u00e1n",
            "kind": "utca",
            "post_code": 0
        },
        {
            "name": "Kodol\u00e1nyi J\u00e1nos",
            "kind": "utca",
            "post_code": 0
        },
        {
            "name": "K\u0151h\u00e1rs",
            "kind": "utca",
            "post_code": 0
        },
        {
            "name": "K\u00f6k\u00e9ny",
            "kind": "utca",
            "post_code": 0
        },
        {
            "name": "K\u0151kereszt",
            "kind": "utca",
            "post_code": 0
        },
        {
            "name": "K\u00f6k\u00f6rcsin",
            "kind": "utca",
            "post_code": 0
        },
        {
            "name": "K\u00f6lcsey Ferenc",
            "kind": "utca",
            "post_code": 0
        },
        {
            "name": "Kom\u00e1rom",
            "kind": "utca",
            "post_code": 0
        },
        {
            "name": "Kond vez\u00e9r",
            "kind": "utca",
            "post_code": 0
        },
        {
            "name": "Kontr\u00e1ssy S\u00e1ndor",
            "kind": "utca",
            "post_code": 0
        },
        {
            "name": "K\u00f6nyves K\u00e1lm\u00e1n",
            "kind": "utca",
            "post_code": 0
        },
        {
            "name": "Kopp\u00e1ny vez\u00e9r",
            "kind": "utca",
            "post_code": 0
        },
        {
            "name": "K\u0151r\u00f6si Csoma S\u00e1ndor",
            "kind": "utca",
            "post_code": 0
        },
        {
            "name": "K\u00f6r\u00f6s",
            "kind": "utca",
            "post_code": 0
        },
        {
            "name": "K\u00f6rte",
            "kind": "utca",
            "post_code": 0
        },
        {
            "name": "K\u00f6rt\u00f6nye b\u00fckk",
            "kind": "utca",
            "post_code": 0
        },
        {
            "name": "K\u00f6rt\u00f6nye",
            "kind": "utca",
            "post_code": 0
        },
        {
            "name": "Korz\u00f3",
            "kind": "utca",
            "post_code": 0
        },
        {
            "name": "K\u00f3s K\u00e1roly",
            "kind": "utca",
            "post_code": 0
        },
        {
            "name": "Kossuth Lajos",
            "kind": "utca",
            "post_code": 0
        },
        {
            "name": "K\u0151szeg",
            "kind": "utca",
            "post_code": 0
        },
        {
            "name": "K\u00f6szm\u00e9te",
            "kind": "utca",
            "post_code": 0
        },
        {
            "name": "Kr\u00fady Gyula",
            "kind": "k\u00f6z",
            "post_code": 0
        },
        {
            "name": "Kr\u00fady Gyula",
            "kind": "utca",
            "post_code": 0
        },
        {
            "name": "Kulacs",
            "kind": "utca",
            "post_code": 0
        },
        {
            "name": "K\u00fcls\u0151",
            "kind": "utca",
            "post_code": 0
        },
        {
            "name": "Kunffy Lajos",
            "kind": "utca",
            "post_code": 0
        },
        {
            "name": "Laborfalvi R\u00f3za",
            "kind": "utca",
            "post_code": 0
        },
        {
            "name": "Laktanya",
            "kind": "utca",
            "post_code": 0
        },
        {
            "name": "Lazarine",
            "kind": "utca",
            "post_code": 0
        },
        {
            "name": "Leg\u00e9nysor",
            "kind": "utca",
            "post_code": 0
        },
        {
            "name": "L\u00e9n\u00e1rd F\u00fcl\u00f6p",
            "kind": "utca",
            "post_code": 0
        },
        {
            "name": "L\u00e9va",
            "kind": "k\u00f6z",
            "post_code": 0
        },
        {
            "name": "L\u00e9va",
            "kind": "utca",
            "post_code": 0
        },
        {
            "name": "Levendula",
            "kind": "utca",
            "post_code": 0
        },
        {
            "name": "Liliom",
            "kind": "utca",
            "post_code": 0
        },
        {
            "name": "Liszt Ferenc",
            "kind": "utca",
            "post_code": 0
        },
        {
            "name": "Lonkahegy",
            "kind": "",
            "post_code": 0
        },
        {
            "name": "Lonkahegyi",
            "kind": "\u00fat",
            "post_code": 0
        },
        {
            "name": "Lonkai",
            "kind": "k\u00f6z",
            "post_code": 0
        },
        {
            "name": "L\u00f3r\u00e1ntffy Zsuzsanna",
            "kind": "utca",
            "post_code": 0
        },
        {
            "name": "Losonc",
            "kind": "k\u00f6z",
            "post_code": 0
        },
        {
            "name": "Losonc",
            "kind": "utca",
            "post_code": 0
        },
        {
            "name": "L\u00f3v\u00e1s\u00e1r",
            "kind": "t\u00e9r",
            "post_code": 0
        },
        {
            "name": "Lovas",
            "kind": "utca",
            "post_code": 0
        },
        {
            "name": "L\u00f6v\u00f6lde",
            "kind": "utca",
            "post_code": 0
        },
        {
            "name": "Lugas",
            "kind": "utca",
            "post_code": 0
        },
        {
            "name": "Mad\u00e1r",
            "kind": "utca",
            "post_code": 0
        },
        {
            "name": "Magyar",
            "kind": "utca",
            "post_code": 0
        },
        {
            "name": "M\u00e1lna",
            "kind": "utca",
            "post_code": 0
        },
        {
            "name": "Malom",
            "kind": "utca",
            "post_code": 0
        },
        {
            "name": "M\u00e1lyva",
            "kind": "utca",
            "post_code": 0
        },
        {
            "name": "Mandula",
            "kind": "utca",
            "post_code": 0
        },
        {
            "name": "Margar\u00e9ta",
            "kind": "utca",
            "post_code": 0
        },
        {
            "name": "Maros",
            "kind": "utca",
            "post_code": 0
        },
        {
            "name": "Martinovics Ign\u00e1c",
            "kind": "utca",
            "post_code": 0
        },
        {
            "name": "Martyn",
            "kind": "k\u00f6z",
            "post_code": 0
        },
        {
            "name": "M\u00e1ty\u00e1s kir\u00e1ly",
            "kind": "utca",
            "post_code": 0
        },
        {
            "name": "Meggyes",
            "kind": "utca",
            "post_code": 0
        },
        {
            "name": "Megyeh\u00e1z",
            "kind": "utca",
            "post_code": 0
        },
        {
            "name": "meredek!",
            "kind": "",
            "post_code": 0
        },
        {
            "name": "Mez\u0151",
            "kind": "utca",
            "post_code": 0
        },
        {
            "name": "Mikes Kelemen",
            "kind": "utca",
            "post_code": 0
        },
        {
            "name": "Miksz\u00e1th K\u00e1lm\u00e1n",
            "kind": "utca",
            "post_code": 0
        },
        {
            "name": "Mindszenty",
            "kind": "t\u00e9r",
            "post_code": 0
        },
        {
            "name": "Mogyor\u00f3",
            "kind": "k\u00f6z",
            "post_code": 0
        },
        {
            "name": "Mogyor\u00f3",
            "kind": "utca",
            "post_code": 0
        },
        {
            "name": "Monostor",
            "kind": "utca",
            "post_code": 0
        },
        {
            "name": "M\u00f3ra Ferenc",
            "kind": "utca",
            "post_code": 0
        },
        {
            "name": "M\u00f3ricz Zsigmond",
            "kind": "utca",
            "post_code": 0
        },
        {
            "name": "Munk\u00e1cs",
            "kind": "utca",
            "post_code": 0
        },
        {
            "name": "Munk\u00e1csy Mih\u00e1ly",
            "kind": "utca",
            "post_code": 0
        },
        {
            "name": "Musk\u00e1tli",
            "kind": "utca",
            "post_code": 0
        },
        {
            "name": "Muskot\u00e1lyos",
            "kind": "utca",
            "post_code": 0
        },
        {
            "name": "M\u00fazeum",
            "kind": "utca",
            "post_code": 0
        },
        {
            "name": "N\u00e1dasdi",
            "kind": "utca",
            "post_code": 0
        },
        {
            "name": "N\u00e1dirig\u00f3",
            "kind": "utca",
            "post_code": 0
        },
        {
            "name": "N\u00e1dor",
            "kind": "utca",
            "post_code": 0
        },
        {
            "name": "Nagyg\u00e1t",
            "kind": "utca",
            "post_code": 0
        },
        {
            "name": "Nagyszeben",
            "kind": "utca",
            "post_code": 0
        },
        {
            "name": "Nagyv\u00e1thy J\u00e1nos",
            "kind": "utca",
            "post_code": 0
        },
        {
            "name": "Nagyv\u00e1thy",
            "kind": "k\u00f6z",
            "post_code": 0
        },
        {
            "name": "Nap",
            "kind": "utca",
            "post_code": 0
        },
        {
            "name": "N\u00e1rcisz",
            "kind": "utca",
            "post_code": 0
        },
        {
            "name": "Nefelejcs",
            "kind": "utca",
            "post_code": 0
        },
        {
            "name": "N\u00e9meth Istv\u00e1n",
            "kind": "fasor",
            "post_code": 0
        },
        {
            "name": "Nemzet\u0151r",
            "kind": "sor",
            "post_code": 0
        },
        {
            "name": "Noszlopy G\u00e1sp\u00e1r",
            "kind": "utca",
            "post_code": 0
        },
        {
            "name": "Ny\u00e1r",
            "kind": "utca",
            "post_code": 0
        },
        {
            "name": "Ny\u00edres",
            "kind": "utca",
            "post_code": 0
        },
        {
            "name": "Ny\u00edrfa",
            "kind": "utca",
            "post_code": 0
        },
        {
            "name": "Nyugativ\u00e1nfa",
            "kind": "utca",
            "post_code": 0
        },
        {
            "name": "Ond vez\u00e9r",
            "kind": "utca",
            "post_code": 0
        },
        {
            "name": "Oport\u00f3",
            "kind": "utca",
            "post_code": 0
        },
        {
            "name": "Orchidea",
            "kind": "utca",
            "post_code": 0
        },
        {
            "name": "Orci",
            "kind": "\u00fat",
            "post_code": 0
        },
        {
            "name": "Orgon\u00e1s",
            "kind": "utca",
            "post_code": 0
        },
        {
            "name": "Orgona",
            "kind": "utca",
            "post_code": 0
        },
        {
            "name": "\u0150szir\u00f3zsa",
            "kind": "utca",
            "post_code": 0
        },
        {
            "name": "\u0150sz",
            "kind": "utca",
            "post_code": 0
        },
        {
            "name": "Otell\u00f3",
            "kind": "utca",
            "post_code": 0
        },
        {
            "name": "\u00d3voda",
            "kind": "utca",
            "post_code": 0
        },
        {
            "name": "Pacsirta",
            "kind": "utca",
            "post_code": 0
        },
        {
            "name": "P\u00e1l\u00f3czi Horv\u00e1th \u00c1d\u00e1m",
            "kind": "utca",
            "post_code": 0
        },
        {
            "name": "P\u00e1lvarga",
            "kind": "d\u0171l\u0151",
            "post_code": 0
        },
        {
            "name": "Panor\u00e1ma",
            "kind": "utca",
            "post_code": 0
        },
        {
            "name": "Patak",
            "kind": "sor",
            "post_code": 0
        },
        {
            "name": "P\u00e1zm\u00e1ny P\u00e9ter",
            "kind": "utca",
            "post_code": 0
        },
        {
            "name": "P\u00e9csi",
            "kind": "utca",
            "post_code": 0
        },
        {
            "name": "Pete Lajos",
            "kind": "utca",
            "post_code": 0
        },
        {
            "name": "Pet\u0151fi S\u00e1ndor",
            "kind": "t\u00e9r",
            "post_code": 0
        },
        {
            "name": "Pet\u0151fi S\u00e1ndor",
            "kind": "utca",
            "post_code": 0
        },
        {
            "name": "Piatsek b\u00e1csi",
            "kind": "utca",
            "post_code": 0
        },
        {
            "name": "Pillang\u00f3",
            "kind": "utca",
            "post_code": 0
        },
        {
            "name": "Pipacs",
            "kind": "utca",
            "post_code": 0
        },
        {
            "name": "Pipit\u00e9r",
            "kind": "utca",
            "post_code": 0
        },
        {
            "name": "Posta",
            "kind": "utca",
            "post_code": 0
        },
        {
            "name": "Pr\u00e9sh\u00e1z",
            "kind": "utca",
            "post_code": 0
        },
        {
            "name": "Puskin",
            "kind": "utca",
            "post_code": 0
        },
        {
            "name": "Radn\u00f3ti Mikl\u00f3s",
            "kind": "utca",
            "post_code": 0
        },
        {
            "name": "R\u00e1k\u00f3czi",
            "kind": "t\u00e9r",
            "post_code": 0
        },
        {
            "name": "Rakt\u00e1r",
            "kind": "k\u00f6z",
            "post_code": 0
        },
        {
            "name": "Rakt\u00e1r",
            "kind": "utca",
            "post_code": 0
        },
        {
            "name": "Rege",
            "kind": "utca",
            "post_code": 0
        },
        {
            "name": "Rem\u00e9nyik S\u00e1ndor",
            "kind": "utca",
            "post_code": 0
        },
        {
            "name": "R\u00e9p\u00e1spuszta",
            "kind": "",
            "post_code": 0
        },
        {
            "name": "Repk\u00e9ny",
            "kind": "utca",
            "post_code": 0
        },
        {
            "name": "R\u00e9t",
            "kind": "utca",
            "post_code": 0
        },
        {
            "name": "Rezeda",
            "kind": "utca",
            "post_code": 0
        },
        {
            "name": "Rig\u00f3",
            "kind": "utca",
            "post_code": 0
        },
        {
            "name": "Ringl\u00f3",
            "kind": "utca",
            "post_code": 0
        },
        {
            "name": "Rippl-R\u00f3nai J\u00f3zsef",
            "kind": "t\u00e9r",
            "post_code": 0
        },
        {
            "name": "Rippl-R\u00f3nai J\u00f3zsef",
            "kind": "utca",
            "post_code": 0
        },
        {
            "name": "Rizling",
            "kind": "utca",
            "post_code": 0
        },
        {
            "name": "Roboz Istv\u00e1n",
            "kind": "utca",
            "post_code": 0
        },
        {
            "name": "Rodost\u00f3",
            "kind": "utca",
            "post_code": 0
        },
        {
            "name": "R\u00f3mahegyi",
            "kind": "utca",
            "post_code": 0
        },
        {
            "name": "Rozmaring",
            "kind": "utca",
            "post_code": 0
        },
        {
            "name": "R\u00f3zsa",
            "kind": "utca",
            "post_code": 0
        },
        {
            "name": "Rudnay Gyula",
            "kind": "utca",
            "post_code": 0
        },
        {
            "name": "S\u00e1ntosi",
            "kind": "\u00fat",
            "post_code": 0
        },
        {
            "name": "S\u00e1vh\u00e1z",
            "kind": "utca",
            "post_code": 0
        },
        {
            "name": "Semmelweis Ign\u00e1c",
            "kind": "utca",
            "post_code": 0
        },
        {
            "name": "Sereg\u00e9ly",
            "kind": "utca",
            "post_code": 0
        },
        {
            "name": "Sigray Antal",
            "kind": "utca",
            "post_code": 0
        },
        {
            "name": "Sik\u00e1l\u00f3s",
            "kind": "\u00fat",
            "post_code": 0
        },
        {
            "name": "S\u00f3lyom",
            "kind": "utca",
            "post_code": 0
        },
        {
            "name": "Somhegyi",
            "kind": "\u00fat",
            "post_code": 0
        },
        {
            "name": "Somhegyi",
            "kind": "utca",
            "post_code": 0
        },
        {
            "name": "Somssich P\u00e1l",
            "kind": "utca",
            "post_code": 0
        },
        {
            "name": "Sopron",
            "kind": "utca",
            "post_code": 0
        },
        {
            "name": "S\u00f6rh\u00e1z",
            "kind": "utca",
            "post_code": 0
        },
        {
            "name": "Streith Mikl\u00f3s",
            "kind": "utca",
            "post_code": 0
        },
        {
            "name": "Stromfeld Aur\u00e9l",
            "kind": "utca",
            "post_code": 0
        },
        {
            "name": "S\u00fct\u0151 Andr\u00e1s",
            "kind": "utca",
            "post_code": 0
        },
        {
            "name": "Szabads\u00e1g",
            "kind": "utca",
            "post_code": 0
        },
        {
            "name": "Szab\u00f3 P\u00e1l",
            "kind": "utca",
            "post_code": 0
        },
        {
            "name": "Szalay Fruzsina",
            "kind": "utca",
            "post_code": 0
        },
        {
            "name": "Szam\u00f3ca",
            "kind": "utca",
            "post_code": 0
        },
        {
            "name": "Sz\u00e1nt\u00f3",
            "kind": "utca",
            "post_code": 0
        },
        {
            "name": "Sz\u00e1zszorsz\u00e9p",
            "kind": "utca",
            "post_code": 0
        },
        {
            "name": "Sz\u00e9chenyi",
            "kind": "t\u00e9r",
            "post_code": 0
        },
        {
            "name": "Szeder",
            "kind": "utca",
            "post_code": 0
        },
        {
            "name": "Szegf\u0171",
            "kind": "k\u00f6z",
            "post_code": 0
        },
        {
            "name": "Szegf\u0171",
            "kind": "utca",
            "post_code": 0
        },
        {
            "name": "Szeles",
            "kind": "utca",
            "post_code": 0
        },
        {
            "name": "Szell\u0151",
            "kind": "k\u00f6z",
            "post_code": 0
        },
        {
            "name": "Szent-Gy\u00f6rgyi Albert",
            "kind": "utca",
            "post_code": 0
        },
        {
            "name": "Szent Imre",
            "kind": "utca",
            "post_code": 0
        },
        {
            "name": "Szent Istv\u00e1n",
            "kind": "utca",
            "post_code": 0
        },
        {
            "name": "Szent L\u00e1szl\u00f3",
            "kind": "utca",
            "post_code": 0
        },
        {
            "name": "Szentp\u00e1li",
            "kind": "k\u00f6z",
            "post_code": 0
        },
        {
            "name": "Szentp\u00e1li",
            "kind": "\u00fat",
            "post_code": 0
        },
        {
            "name": "Sz\u00e9passzony",
            "kind": "utca",
            "post_code": 0
        },
        {
            "name": "Sz\u00e9pv\u00f6lgy",
            "kind": "utca",
            "post_code": 0
        },
        {
            "name": "Sziget",
            "kind": "utca",
            "post_code": 0
        },
        {
            "name": "Szigetv\u00e1ri",
            "kind": "utca",
            "post_code": 0
        },
        {
            "name": "Szigligeti Ede",
            "kind": "utca",
            "post_code": 0
        },
        {
            "name": "Szilva",
            "kind": "utca",
            "post_code": 0
        },
        {
            "name": "Szitak\u00f6t\u0151",
            "kind": "utca",
            "post_code": 0
        },
        {
            "name": "Sz\u0151l\u0151hegyi",
            "kind": "utca",
            "post_code": 0
        },
        {
            "name": "Sz\u0151l\u0151hegy",
            "kind": "utca",
            "post_code": 0
        },
        {
            "name": "Sz\u0151l\u0151skert",
            "kind": "utca",
            "post_code": 0
        },
        {
            "name": "Szombathely",
            "kind": "utca",
            "post_code": 0
        },
        {
            "name": "Szondi Gy\u00f6rgy",
            "kind": "utca",
            "post_code": 0
        },
        {
            "name": "Talli\u00e1n Gyula",
            "kind": "k\u00f6z",
            "post_code": 0
        },
        {
            "name": "Talli\u00e1n Gyula",
            "kind": "utca",
            "post_code": 0
        },
        {
            "name": "Tam\u00e1si \u00c1ron",
            "kind": "utca",
            "post_code": 0
        },
        {
            "name": "T\u00e1ncsics Mih\u00e1ly",
            "kind": "utca",
            "post_code": 0
        },
        {
            "name": "Tarkar\u00e9t",
            "kind": "utca",
            "post_code": 0
        },
        {
            "name": "Tas vez\u00e9r",
            "kind": "utca",
            "post_code": 0
        },
        {
            "name": "Tavasz",
            "kind": "utca",
            "post_code": 0
        },
        {
            "name": "Teleki",
            "kind": "utca",
            "post_code": 0
        },
        {
            "name": "T\u00e9l",
            "kind": "utca",
            "post_code": 0
        },
        {
            "name": "Temesv\u00e1r",
            "kind": "utca",
            "post_code": 0
        },
        {
            "name": "Th\u00f6k\u00f6ly Imre",
            "kind": "utca",
            "post_code": 0
        },
        {
            "name": "Tin\u00f3di",
            "kind": "utca",
            "post_code": 0
        },
        {
            "name": "Tisza",
            "kind": "utca",
            "post_code": 0
        },
        {
            "name": "T\u00f6h\u00f6t\u00f6m vez\u00e9r",
            "kind": "utca",
            "post_code": 0
        },
        {
            "name": "T\u00f3kaji",
            "kind": "k\u00f6z",
            "post_code": 0
        },
        {
            "name": "T\u00f3kaji",
            "kind": "utca",
            "post_code": 0
        },
        {
            "name": "Toldi Mikl\u00f3s",
            "kind": "utca",
            "post_code": 0
        },
        {
            "name": "T\u00f6lgyes",
            "kind": "utca",
            "post_code": 0
        },
        {
            "name": "Tompa Mih\u00e1ly",
            "kind": "utca",
            "post_code": 0
        },
        {
            "name": "Topon\u00e1ri",
            "kind": "\u00fat",
            "post_code": 0
        },
        {
            "name": "T\u00f6r\u00f6cskei",
            "kind": "utca",
            "post_code": 0
        },
        {
            "name": "T\u00f3th \u00c1rp\u00e1d",
            "kind": "utca",
            "post_code": 0
        },
        {
            "name": "T\u00f3th L\u00e1szl\u00f3",
            "kind": "k\u00f6z",
            "post_code": 0
        },
        {
            "name": "T\u0151zike",
            "kind": "utca",
            "post_code": 0
        },
        {
            "name": "T\u00fccs\u00f6k",
            "kind": "utca",
            "post_code": 0
        },
        {
            "name": "Tulip\u00e1n",
            "kind": "utca",
            "post_code": 0
        },
        {
            "name": "T\u00fcnd\u00e9rk\u00fcrt",
            "kind": "utca",
            "post_code": 0
        },
        {
            "name": "T\u00fcskev\u00e1ri",
            "kind": "utca",
            "post_code": 0
        },
        {
            "name": "\u00dajpiac",
            "kind": "t\u00e9r",
            "post_code": 0
        },
        {
            "name": "Ungv\u00e1r",
            "kind": "utca",
            "post_code": 0
        },
        {
            "name": "Ur\u00e1nia",
            "kind": "lak\u00f3telep",
            "post_code": 0
        },
        {
            "name": "V\u00e1ci Mih\u00e1ly",
            "kind": "utca",
            "post_code": 0
        },
        {
            "name": "Vackor",
            "kind": "utca",
            "post_code": 0
        },
        {
            "name": "Vadgesztenye",
            "kind": "utca",
            "post_code": 0
        },
        {
            "name": "Vadk\u00f6rte",
            "kind": "utca",
            "post_code": 0
        },
        {
            "name": "Vadsz\u0151l\u0151",
            "kind": "utca",
            "post_code": 0
        },
        {
            "name": "Vadvir\u00e1g",
            "kind": "utca",
            "post_code": 0
        },
        {
            "name": "Vak Botty\u00e1n",
            "kind": "utca",
            "post_code": 0
        },
        {
            "name": "V\u00e1rdomb",
            "kind": "utca",
            "post_code": 0
        },
        {
            "name": "V\u00e1rosh\u00e1z",
            "kind": "utca",
            "post_code": 0
        },
        {
            "name": "V\u00e1r",
            "kind": "utca",
            "post_code": 0
        },
        {
            "name": "V\u00e1s\u00e1rt\u00e9ri",
            "kind": "\u00fat",
            "post_code": 0
        },
        {
            "name": "Vas\u00fat",
            "kind": "k\u00f6z",
            "post_code": 0
        },
        {
            "name": "Vasv\u00e1ri P\u00e1l",
            "kind": "utca",
            "post_code": 0
        },
        {
            "name": "Vaszary J\u00e1nos",
            "kind": "utca",
            "post_code": 0
        },
        {
            "name": "Veres P\u00e9ter",
            "kind": "utca",
            "post_code": 0
        },
        {
            "name": "Veszpr\u00e9m",
            "kind": "utca",
            "post_code": 0
        },
        {
            "name": "Vik\u00e1r B\u00e9la",
            "kind": "utca",
            "post_code": 0
        },
        {
            "name": "Vincell\u00e9r",
            "kind": "utca",
            "post_code": 0
        },
        {
            "name": "Viola",
            "kind": "utca",
            "post_code": 0
        },
        {
            "name": "Vir\u00e1g",
            "kind": "utca",
            "post_code": 0
        },
        {
            "name": "V\u00f6r\u00f6sbegy",
            "kind": "utca",
            "post_code": 0
        },
        {
            "name": "V\u00f6r\u00f6smarty Mih\u00e1ly",
            "kind": "utca",
            "post_code": 0
        },
        {
            "name": "V\u00f6r\u00f6stelek",
            "kind": "utca",
            "post_code": 0
        },
        {
            "name": "Wass Albert",
            "kind": "utca",
            "post_code": 0
        },
        {
            "name": "Wigner Jen\u0151",
            "kind": "utca",
            "post_code": 0
        },
        {
            "name": "Xantus J\u00e1nos",
            "kind": "utca",
            "post_code": 0
        },
        {
            "name": "Zaranyi",
            "kind": "lak\u00f3telep",
            "post_code": 0
        },
        {
            "name": "Zaranyi",
            "kind": "\u00fat",
            "post_code": 0
        },
        {
            "name": "Z\u00e1rda",
            "kind": "k\u00f6z",
            "post_code": 0
        },
        {
            "name": "Z\u00e1rda",
            "kind": "utca",
            "post_code": 0
        },
        {
            "name": "Zichy Mih\u00e1ly",
            "kind": "utca",
            "post_code": 0
        },
        {
            "name": "Z\u00f6ldfa",
            "kind": "utca",
            "post_code": 0
        },
        {
            "name": "Z\u00f6ldfodorka",
            "kind": "utca",
            "post_code": 0
        },
        {
            "name": "Z\u00f6ldike",
            "kind": "utca",
            "post_code": 0
        },
        {
            "name": "Zorka",
            "kind": "utca",
            "post_code": 0
        },
        {
            "name": "Zr\u00ednyi Mikl\u00f3s",
            "kind": "utca",
            "post_code": 0
        },
        {
            "name": "Zs\u00e1lya",
            "kind": "utca",
            "post_code": 0
        },
        {
            "name": "Zselici",
            "kind": "\u00fat",
            "post_code": 0
        },
        {
            "name": "Zsigmondy Rich\u00e1rd",
            "kind": "utca",
            "post_code": 0
        },
        {
            "name": "Ady Endre",
            "kind": "utca",
            "post_code": 0
        },
        {
            "name": "Kaposv\u00e1ri Vigass\u00e1gok",
            "kind": "tere",
            "post_code": 0
        },
        {
            "name": "Kossuth",
            "kind": "t\u00e9r",
            "post_code": 0
        }
    ]
}