{
    "codes": {
        "8354": [
            "Karmacs",
            null
        ]
    },
    "streets": [
        {
            "name": "Ak\u00e1cvir\u00e1g",
            "kind": "utca",
            "post_code": 0
        },
        {
            "name": "\u00c1rp\u00e1d",
            "kind": "utca",
            "post_code": 0
        },
        {
            "name": "D\u00f3zsa Gy\u00f6rgy",
            "kind": "utca",
            "post_code": 0
        },
        {
            "name": "H\u00e9v\u00edzi",
            "kind": "utca",
            "post_code": 0
        },
        {
            "name": "Kisfaludy S\u00e1ndor",
            "kind": "utca",
            "post_code": 0
        },
        {
            "name": "Kossuth Lajos",
            "kind": "utca",
            "post_code": 0
        },
        {
            "name": "N\u00e1dor",
            "kind": "utca",
            "post_code": 0
        },
        {
            "name": "Pet\u0151fi S\u00e1ndor",
            "kind": "utca",
            "post_code": 0
        },
        {
            "name": "Szent Anna",
            "kind": "t\u00e9r",
            "post_code": 0
        },
        {
            "name": "Vashegyalja",
            "kind": "utca",
            "post_code": 0
        }
    ]
}