{
    "codes": {
        "5948": [
            "Kaszaper",
            null
        ]
    },
    "streets": [
        {
            "name": "Ady",
            "kind": "utca",
            "post_code": 0
        },
        {
            "name": "\u00c1rp\u00e1d",
            "kind": "utca",
            "post_code": 0
        },
        {
            "name": "Bajcsy-Zsilinszky",
            "kind": "utca",
            "post_code": 0
        },
        {
            "name": "B\u00e9ke",
            "kind": "utca",
            "post_code": 0
        },
        {
            "name": "Bem",
            "kind": "utca",
            "post_code": 0
        },
        {
            "name": "D\u00f3zsa",
            "kind": "utca",
            "post_code": 0
        },
        {
            "name": "Gy\u0151zelem",
            "kind": "utca",
            "post_code": 0
        },
        {
            "name": "Hunyadi",
            "kind": "utca",
            "post_code": 0
        },
        {
            "name": "J\u00f3zsef Attila",
            "kind": "utca",
            "post_code": 0
        },
        {
            "name": "Koml\u00f3si",
            "kind": "\u00fat",
            "post_code": 0
        },
        {
            "name": "Kossuth",
            "kind": "utca",
            "post_code": 0
        },
        {
            "name": "Kov\u00e1csh\u00e1zi",
            "kind": "\u00fat",
            "post_code": 0
        },
        {
            "name": "Marx",
            "kind": "utca",
            "post_code": 0
        },
        {
            "name": "Miksz\u00e1th",
            "kind": "utca",
            "post_code": 0
        },
        {
            "name": "Okt\u00f3ber 6.",
            "kind": "utca",
            "post_code": 0
        },
        {
            "name": "Orosh\u00e1zi",
            "kind": "\u00fat",
            "post_code": 0
        },
        {
            "name": "Pet\u0151fi",
            "kind": "utca",
            "post_code": 0
        },
        {
            "name": "R\u00e1k\u00f3czi",
            "kind": "utca",
            "post_code": 0
        },
        {
            "name": "Szabads\u00e1g",
            "kind": "utca",
            "post_code": 0
        },
        {
            "name": "Sz\u00e9chenyi",
            "kind": "utca",
            "post_code": 0
        },
        {
            "name": "Szent Gell\u00e9rt",
            "kind": "t\u00e9r",
            "post_code": 0
        },
        {
            "name": "Sz\u00f6vetkezet",
            "kind": "utca",
            "post_code": 0
        },
        {
            "name": "T\u00e1ncsics",
            "kind": "utca",
            "post_code": 0
        },
        {
            "name": "Zr\u00ednyi",
            "kind": "utca",
            "post_code": 0
        }
    ]
}