{
    "codes": {
        "3700": [
            "Kazincbarcika",
            " "
        ]
    },
    "streets": [
        {
            "name": "Ak\u00e1cfa",
            "kind": "utca",
            "post_code": 0
        },
        {
            "name": "Akn\u00e1sz",
            "kind": "utca",
            "post_code": 0
        },
        {
            "name": "Alkotm\u00e1ny",
            "kind": "utca",
            "post_code": 0
        },
        {
            "name": "Als\u00f3v\u00e1rosi",
            "kind": "k\u00f6r\u00fat",
            "post_code": 0
        },
        {
            "name": "Arany J\u00e1nos",
            "kind": "utca",
            "post_code": 0
        },
        {
            "name": "\u00c1rp\u00e1d fejedelem",
            "kind": "t\u00e9r",
            "post_code": 0
        },
        {
            "name": "Attila",
            "kind": "utca",
            "post_code": 0
        },
        {
            "name": "Augusztus 20.",
            "kind": "t\u00e9r",
            "post_code": 0
        },
        {
            "name": "Babits Mih\u00e1ly",
            "kind": "utca",
            "post_code": 0
        },
        {
            "name": "Balassa B\u00e1lint",
            "kind": "utca",
            "post_code": 0
        },
        {
            "name": "Barab\u00e1s Mikl\u00f3s",
            "kind": "utca",
            "post_code": 0
        },
        {
            "name": "Bar\u00e1ts\u00e1g",
            "kind": "t\u00e9r",
            "post_code": 0
        },
        {
            "name": "Bart\u00f3k B\u00e9la",
            "kind": "utca",
            "post_code": 0
        },
        {
            "name": "Batthy\u00e1ny Lajos",
            "kind": "utca",
            "post_code": 0
        },
        {
            "name": "B\u00e9ke",
            "kind": "t\u00e9r",
            "post_code": 0
        },
        {
            "name": "Bercs\u00e9nyi Mikl\u00f3s",
            "kind": "utca",
            "post_code": 0
        },
        {
            "name": "Berkenye",
            "kind": "utca",
            "post_code": 0
        },
        {
            "name": "Bodza",
            "kind": "utca",
            "post_code": 0
        },
        {
            "name": "Bolyai",
            "kind": "t\u00e9r",
            "post_code": 0
        },
        {
            "name": "Borsodchem F\u0151porta",
            "kind": "",
            "post_code": 0
        },
        {
            "name": "Budai Nagy Antal",
            "kind": "utca",
            "post_code": 0
        },
        {
            "name": "B\u00fckkalja",
            "kind": "utca",
            "post_code": 0
        },
        {
            "name": "Cs\u00e1k\u00e1ny",
            "kind": "utca",
            "post_code": 0
        },
        {
            "name": "Csalog\u00e1ny",
            "kind": "utca",
            "post_code": 0
        },
        {
            "name": "Csille",
            "kind": "utca",
            "post_code": 0
        },
        {
            "name": "Cs\u00f3k Istv\u00e1n",
            "kind": "utca",
            "post_code": 0
        },
        {
            "name": "Csokonai Vit\u00e9z Mih\u00e1ly",
            "kind": "utca",
            "post_code": 0
        },
        {
            "name": "Csontv\u00e1ry",
            "kind": "",
            "post_code": 0
        },
        {
            "name": "De\u00e1k Ferenc",
            "kind": "t\u00e9r",
            "post_code": 0
        },
        {
            "name": "Derkovits Gyula",
            "kind": "t\u00e9r",
            "post_code": 0
        },
        {
            "name": "Dob\u00f3 Istv\u00e1n",
            "kind": "t\u00e9r",
            "post_code": 0
        },
        {
            "name": "D\u00f3zsa Gy\u00f6rgy",
            "kind": "utca",
            "post_code": 0
        },
        {
            "name": "Egressy B\u00e9ni",
            "kind": "\u00fat",
            "post_code": 0
        },
        {
            "name": "Egres",
            "kind": "utca",
            "post_code": 0
        },
        {
            "name": "E\u00f6tv\u00f6s",
            "kind": "t\u00e9r",
            "post_code": 0
        },
        {
            "name": "\u00c9p\u00edt\u0151k",
            "kind": "\u00fatja",
            "post_code": 0
        },
        {
            "name": "Erd\u00e9sz",
            "kind": "utca",
            "post_code": 0
        },
        {
            "name": "Eszperant\u00f3",
            "kind": "\u00fat",
            "post_code": 0
        },
        {
            "name": "F\u0151",
            "kind": "t\u00e9r",
            "post_code": 0
        },
        {
            "name": "G\u00e1bor \u00c1ron",
            "kind": "utca",
            "post_code": 0
        },
        {
            "name": "Galagonya",
            "kind": "utca",
            "post_code": 0
        },
        {
            "name": "G\u00e9p\u00e9sz",
            "kind": "utca",
            "post_code": 0
        },
        {
            "name": "Gorkij",
            "kind": "utca",
            "post_code": 0
        },
        {
            "name": "Gyermekek",
            "kind": "\u00fatja",
            "post_code": 0
        },
        {
            "name": "Gy\u00f6ngyvir\u00e1g",
            "kind": "utca",
            "post_code": 0
        },
        {
            "name": "Gyulai P\u00e1l",
            "kind": "utca",
            "post_code": 0
        },
        {
            "name": "Hadik Andr\u00e1s",
            "kind": "utca",
            "post_code": 0
        },
        {
            "name": "H\u00e1m\u00e1n Kat\u00f3",
            "kind": "utca",
            "post_code": 0
        },
        {
            "name": "H\u00e1rsfa",
            "kind": "utca",
            "post_code": 0
        },
        {
            "name": "Hegyk\u00f6z",
            "kind": "utca",
            "post_code": 0
        },
        {
            "name": "Herbolyai",
            "kind": "\u00fat",
            "post_code": 0
        },
        {
            "name": "Herbolya R\u00e9gi Telep",
            "kind": "",
            "post_code": 0
        },
        {
            "name": "H\u00f3vir\u00e1g",
            "kind": "utca",
            "post_code": 0
        },
        {
            "name": "Ifj\u00famunk\u00e1s",
            "kind": "t\u00e9r",
            "post_code": 0
        },
        {
            "name": "II. R\u00e1k\u00f3czi Ferenc",
            "kind": "utca",
            "post_code": 0
        },
        {
            "name": "Illy\u00e9s Gyula",
            "kind": "utca",
            "post_code": 0
        },
        {
            "name": "Ipari",
            "kind": "\u00fat",
            "post_code": 0
        },
        {
            "name": "Irinyi J\u00e1nos",
            "kind": "utca",
            "post_code": 0
        },
        {
            "name": "Iskola",
            "kind": "k\u00f6z",
            "post_code": 0
        },
        {
            "name": "Iskola",
            "kind": "utca",
            "post_code": 0
        },
        {
            "name": "J\u00f3kai",
            "kind": "t\u00e9r",
            "post_code": 0
        },
        {
            "name": "J\u00f3 szerencs\u00e9t",
            "kind": "\u00fat",
            "post_code": 0
        },
        {
            "name": "Kacs\u00f3h Pongr\u00e1c",
            "kind": "utca",
            "post_code": 0
        },
        {
            "name": "K\u00e1lm\u00e1n Imre",
            "kind": "utca",
            "post_code": 0
        },
        {
            "name": "Kazinczy Ferenc",
            "kind": "t\u00e9r",
            "post_code": 0
        },
        {
            "name": "Keny\u00e9rgy\u00e1r",
            "kind": "utca",
            "post_code": 0
        },
        {
            "name": "Kert",
            "kind": "utca",
            "post_code": 0
        },
        {
            "name": "Kikelet",
            "kind": "k\u00f6z",
            "post_code": 0
        },
        {
            "name": "Kiserd\u0151",
            "kind": "sor",
            "post_code": 0
        },
        {
            "name": "Kiser\u0151m\u0171",
            "kind": "lak\u00f3telep",
            "post_code": 0
        },
        {
            "name": "Kisk\u00f6z",
            "kind": "utca",
            "post_code": 0
        },
        {
            "name": "Klapka Gy\u00f6rgy",
            "kind": "utca",
            "post_code": 0
        },
        {
            "name": "K\u00f6k\u00e9ny",
            "kind": "utca",
            "post_code": 0
        },
        {
            "name": "K\u00f6lcsey Ferenc",
            "kind": "utca",
            "post_code": 0
        },
        {
            "name": "Kossuth Lajos",
            "kind": "utca",
            "post_code": 0
        },
        {
            "name": "Kuruc",
            "kind": "utca",
            "post_code": 0
        },
        {
            "name": "Liliom",
            "kind": "utca",
            "post_code": 0
        },
        {
            "name": "Lor\u00e1ntffy Zsuzsanna",
            "kind": "utca",
            "post_code": 0
        },
        {
            "name": "M\u00e1jus 1.",
            "kind": "utca",
            "post_code": 0
        },
        {
            "name": "M\u00e1nyoki \u00c1d\u00e1m",
            "kind": "utca",
            "post_code": 0
        },
        {
            "name": "M\u00e1ty\u00e1s kir\u00e1ly",
            "kind": "\u00fat",
            "post_code": 0
        },
        {
            "name": "Miksz\u00e1th K\u00e1lm\u00e1n",
            "kind": "utca",
            "post_code": 0
        },
        {
            "name": "Mogyor\u00f3",
            "kind": "utca",
            "post_code": 0
        },
        {
            "name": "M\u00f3ra Ferenc",
            "kind": "utca",
            "post_code": 0
        },
        {
            "name": "M\u00f3ricz Zsigmond",
            "kind": "t\u00e9r",
            "post_code": 0
        },
        {
            "name": "Munk\u00e1csy Mih\u00e1ly",
            "kind": "t\u00e9r",
            "post_code": 0
        },
        {
            "name": "Munk\u00e1s",
            "kind": "utca",
            "post_code": 0
        },
        {
            "name": "M\u0171szer\u00e9sz",
            "kind": "utca",
            "post_code": 0
        },
        {
            "name": "Nagy Lajos",
            "kind": "utca",
            "post_code": 0
        },
        {
            "name": "Ny\u00e1rfa",
            "kind": "utca",
            "post_code": 0
        },
        {
            "name": "Pa\u00e1l L\u00e1szl\u00f3",
            "kind": "utca",
            "post_code": 0
        },
        {
            "name": "Patak",
            "kind": "utca",
            "post_code": 0
        },
        {
            "name": "Pattyanty\u00fas",
            "kind": "utca",
            "post_code": 0
        },
        {
            "name": "Pesti Barnab\u00e1s",
            "kind": "utca",
            "post_code": 0
        },
        {
            "name": "Pincesor",
            "kind": "",
            "post_code": 0
        },
        {
            "name": "Pollack Mih\u00e1ly",
            "kind": "utca",
            "post_code": 0
        },
        {
            "name": "Radn\u00f3ti Mikl\u00f3s",
            "kind": "t\u00e9r",
            "post_code": 0
        },
        {
            "name": "R\u00e1k\u00f3czi",
            "kind": "t\u00e9r",
            "post_code": 0
        },
        {
            "name": "Rezeda",
            "kind": "utca",
            "post_code": 0
        },
        {
            "name": "R\u00f3zsa",
            "kind": "utca",
            "post_code": 0
        },
        {
            "name": "Rutinp\u00e1lya",
            "kind": "",
            "post_code": 0
        },
        {
            "name": "S\u00e1gv\u00e1ri Endre",
            "kind": "t\u00e9r",
            "post_code": 0
        },
        {
            "name": "Saj\u00f3",
            "kind": "utca",
            "post_code": 0
        },
        {
            "name": "Sallai",
            "kind": "k\u00f6z",
            "post_code": 0
        },
        {
            "name": "Szab\u00f3 Ervin",
            "kind": "utca",
            "post_code": 0
        },
        {
            "name": "Sz\u00e9chenyi",
            "kind": "utca",
            "post_code": 0
        },
        {
            "name": "Szeder",
            "kind": "utca",
            "post_code": 0
        },
        {
            "name": "Szegf\u0171",
            "kind": "utca",
            "post_code": 0
        },
        {
            "name": "Szemere Bertalan",
            "kind": "t\u00e9r",
            "post_code": 0
        },
        {
            "name": "Szent Fl\u00f3ri\u00e1n",
            "kind": "t\u00e9r",
            "post_code": 0
        },
        {
            "name": "T\u00e1ncsics Mih\u00e1ly",
            "kind": "utca",
            "post_code": 0
        },
        {
            "name": "Tardonai",
            "kind": "\u00fat",
            "post_code": 0
        },
        {
            "name": "T\u00e1rna",
            "kind": "utca",
            "post_code": 0
        },
        {
            "name": "Tavasz",
            "kind": "utca",
            "post_code": 0
        },
        {
            "name": "Tervt\u00e1r\u00f3",
            "kind": "utca",
            "post_code": 0
        },
        {
            "name": "Th\u00f6k\u00f6ly Imre",
            "kind": "t\u00e9r",
            "post_code": 0
        },
        {
            "name": "T\u00f6lgyfa",
            "kind": "utca",
            "post_code": 0
        },
        {
            "name": "Tompa Mih\u00e1ly",
            "kind": "utca",
            "post_code": 0
        },
        {
            "name": "T\u00f3th \u00c1rp\u00e1d",
            "kind": "utca",
            "post_code": 0
        },
        {
            "name": "Tulip\u00e1n",
            "kind": "utca",
            "post_code": 0
        },
        {
            "name": "\u00daj \u00c9let",
            "kind": "utca",
            "post_code": 0
        },
        {
            "name": "Vadr\u00f3zsa",
            "kind": "utca",
            "post_code": 0
        },
        {
            "name": "Vadvir\u00e1g",
            "kind": "utca",
            "post_code": 0
        },
        {
            "name": "V\u00e1j\u00e1r",
            "kind": "utca",
            "post_code": 0
        },
        {
            "name": "Vajda J\u00e1nos",
            "kind": "utca",
            "post_code": 0
        },
        {
            "name": "Vak Botty\u00e1n",
            "kind": "utca",
            "post_code": 0
        },
        {
            "name": "V\u00e1mos Ilona",
            "kind": "utca",
            "post_code": 0
        },
        {
            "name": "Vas\u00fat",
            "kind": "utca",
            "post_code": 0
        },
        {
            "name": "Vasv\u00e1ri P\u00e1l",
            "kind": "t\u00e9r",
            "post_code": 0
        },
        {
            "name": "V\u00e9csetal",
            "kind": "tanya",
            "post_code": 0
        },
        {
            "name": "Vegy\u00e9sz",
            "kind": "utca",
            "post_code": 0
        },
        {
            "name": "Veres P\u00e9ter",
            "kind": "utca",
            "post_code": 0
        },
        {
            "name": "V\u00f6lgy",
            "kind": "utca",
            "post_code": 0
        },
        {
            "name": "Zempl\u00e9nyi",
            "kind": "utca",
            "post_code": 0
        },
        {
            "name": "Zr\u00ednyi Ilona",
            "kind": "utca",
            "post_code": 0
        }
    ]
}