{
    "codes": {
        "6000": [
            "Kecskem\u00e9t",
            null
        ],
        "6008": [
            "Kecskem\u00e9t",
            "M\u00e9ntelek"
        ],
        "6044": [
            "Kecskem\u00e9t",
            "Het\u00e9nyegyh\u00e1za"
        ]
    },
    "streets": [
        {
            "name": "445",
            "kind": "",
            "post_code": 0
        },
        {
            "name": "5",
            "kind": "",
            "post_code": 0
        },
        {
            "name": "\u00c1d\u00e1m Jen\u0151",
            "kind": "utca",
            "post_code": 0
        },
        {
            "name": "Ady Endre",
            "kind": "utca",
            "post_code": 0
        },
        {
            "name": "\u00c1fonya",
            "kind": "utca",
            "post_code": 0
        },
        {
            "name": "Agancs",
            "kind": "utca",
            "post_code": 0
        },
        {
            "name": "\u00c1g",
            "kind": "utca",
            "post_code": 0
        },
        {
            "name": "Agyag",
            "kind": "utca",
            "post_code": 0
        },
        {
            "name": "Ajtony",
            "kind": "utca",
            "post_code": 0
        },
        {
            "name": "Ak\u00e1cfa",
            "kind": "utca",
            "post_code": 0
        },
        {
            "name": "Ak\u00e1cos",
            "kind": "utca",
            "post_code": 0
        },
        {
            "name": "Ak\u00e1cvir\u00e1g",
            "kind": "utca",
            "post_code": 0
        },
        {
            "name": "Akad\u00e9mia",
            "kind": "k\u00f6r\u00fat",
            "post_code": 0
        },
        {
            "name": "Alkony",
            "kind": "utca",
            "post_code": 0
        },
        {
            "name": "Alkot\u00e1s",
            "kind": "utca",
            "post_code": 0
        },
        {
            "name": "Alkotm\u00e1ny",
            "kind": "utca",
            "post_code": 0
        },
        {
            "name": "Almafa",
            "kind": "utca",
            "post_code": 0
        },
        {
            "name": "Alma",
            "kind": "utca",
            "post_code": 0
        },
        {
            "name": "Almavir\u00e1g",
            "kind": "utca",
            "post_code": 0
        },
        {
            "name": "Alp\u00e1r",
            "kind": "utca",
            "post_code": 0
        },
        {
            "name": "Andor Ilona",
            "kind": "utca",
            "post_code": 0
        },
        {
            "name": "Ap\u00e1ly",
            "kind": "utca",
            "post_code": 0
        },
        {
            "name": "\u00c1prily Lajos",
            "kind": "utca",
            "post_code": 0
        },
        {
            "name": "Aracsi",
            "kind": "utca",
            "post_code": 0
        },
        {
            "name": "Aradi v\u00e9rtan\u00fak",
            "kind": "tere",
            "post_code": 0
        },
        {
            "name": "Aranybulla",
            "kind": "utca",
            "post_code": 0
        },
        {
            "name": "Aranyes\u0151",
            "kind": "utca",
            "post_code": 0
        },
        {
            "name": "Aranyforint",
            "kind": "utca",
            "post_code": 0
        },
        {
            "name": "Aranyhomok",
            "kind": "utca",
            "post_code": 0
        },
        {
            "name": "Arany J\u00e1nos",
            "kind": "utca",
            "post_code": 0
        },
        {
            "name": "Arat\u00f3",
            "kind": "utca",
            "post_code": 0
        },
        {
            "name": "\u00c1rnyas",
            "kind": "utca",
            "post_code": 0
        },
        {
            "name": "\u00c1rok",
            "kind": "utca",
            "post_code": 0
        },
        {
            "name": "\u00c1rp\u00e1d",
            "kind": "k\u00f6r\u00fat",
            "post_code": 0
        },
        {
            "name": "\u00c1rv\u00e1cska",
            "kind": "utca",
            "post_code": 0
        },
        {
            "name": "\u00c1rval\u00e1nyhaj",
            "kind": "utca",
            "post_code": 0
        },
        {
            "name": "Attila",
            "kind": "utca",
            "post_code": 0
        },
        {
            "name": "Avar",
            "kind": "utca",
            "post_code": 0
        },
        {
            "name": "Bab\u00e9r",
            "kind": "utca",
            "post_code": 0
        },
        {
            "name": "Babits Mih\u00e1ly",
            "kind": "utca",
            "post_code": 0
        },
        {
            "name": "B\u00e1cskai",
            "kind": "utca",
            "post_code": 0
        },
        {
            "name": "Badacsony",
            "kind": "utca",
            "post_code": 0
        },
        {
            "name": "Bagi L\u00e1szl\u00f3",
            "kind": "utca",
            "post_code": 0
        },
        {
            "name": "Bagoly",
            "kind": "utca",
            "post_code": 0
        },
        {
            "name": "Bajcsy-Zsilinszky Endre",
            "kind": "k\u00f6r\u00fat",
            "post_code": 0
        },
        {
            "name": "Bajza J\u00f3zsef",
            "kind": "utca",
            "post_code": 0
        },
        {
            "name": "Bak\u00f3cz Tam\u00e1s",
            "kind": "utca",
            "post_code": 0
        },
        {
            "name": "Bakule M\u00e1rton",
            "kind": "utca",
            "post_code": 0
        },
        {
            "name": "Balassi B\u00e1lint",
            "kind": "utca",
            "post_code": 0
        },
        {
            "name": "Balaton",
            "kind": "utca",
            "post_code": 0
        },
        {
            "name": "Balay",
            "kind": "utca",
            "post_code": 0
        },
        {
            "name": "B\u00e1lint S\u00e1ndor",
            "kind": "utca",
            "post_code": 0
        },
        {
            "name": "B\u00e1lv\u00e1ny",
            "kind": "utca",
            "post_code": 0
        },
        {
            "name": "Bambusz",
            "kind": "utca",
            "post_code": 0
        },
        {
            "name": "B\u00e1n\u00e1ti",
            "kind": "utca",
            "post_code": 0
        },
        {
            "name": "B\u00e1nffy",
            "kind": "utca",
            "post_code": 0
        },
        {
            "name": "B\u00e1nk B\u00e1n",
            "kind": "utca",
            "post_code": 0
        },
        {
            "name": "B\u00e1ns\u00e1g",
            "kind": "utca",
            "post_code": 0
        },
        {
            "name": "Barackos",
            "kind": "utca",
            "post_code": 0
        },
        {
            "name": "Bar\u00e1ts\u00e1g",
            "kind": "utca",
            "post_code": 0
        },
        {
            "name": "B\u00e1rdos Lajos",
            "kind": "utca",
            "post_code": 0
        },
        {
            "name": "Barka",
            "kind": "utca",
            "post_code": 0
        },
        {
            "name": "Baross",
            "kind": "utca",
            "post_code": 0
        },
        {
            "name": "B\u00e1rsonyka",
            "kind": "utca",
            "post_code": 0
        },
        {
            "name": "B\u00e1rtfa",
            "kind": "utca",
            "post_code": 0
        },
        {
            "name": "B\u00e1thori",
            "kind": "utca",
            "post_code": 0
        },
        {
            "name": "Batthy\u00e1ny",
            "kind": "utca",
            "post_code": 0
        },
        {
            "name": "Bazsar\u00f3zsa",
            "kind": "utca",
            "post_code": 0
        },
        {
            "name": "Beethoven",
            "kind": "utca",
            "post_code": 0
        },
        {
            "name": "Beg\u00f3nia",
            "kind": "utca",
            "post_code": 0
        },
        {
            "name": "B\u00e9ke",
            "kind": "fasor",
            "post_code": 0
        },
        {
            "name": "B\u00e9k\u00e9scsabai",
            "kind": "\u00fat",
            "post_code": 0
        },
        {
            "name": "B\u00e9ke",
            "kind": "utca",
            "post_code": 0
        },
        {
            "name": "Bels\u0151 Vacsihegyi",
            "kind": "\u00fat",
            "post_code": 0
        },
        {
            "name": "Bem",
            "kind": "utca",
            "post_code": 0
        },
        {
            "name": "Bencz\u00far Gyula",
            "kind": "utca",
            "post_code": 0
        },
        {
            "name": "Benedek Elek",
            "kind": "utca",
            "post_code": 0
        },
        {
            "name": "Beniczky",
            "kind": "utca",
            "post_code": 0
        },
        {
            "name": "Bercs\u00e9nyi",
            "kind": "utca",
            "post_code": 0
        },
        {
            "name": "B\u00e9rc",
            "kind": "utca",
            "post_code": 0
        },
        {
            "name": "Beregsz\u00e1szi",
            "kind": "utca",
            "post_code": 0
        },
        {
            "name": "Berek",
            "kind": "utca",
            "post_code": 0
        },
        {
            "name": "Beretty\u00f3",
            "kind": "utca",
            "post_code": 0
        },
        {
            "name": "Beretv\u00e1s",
            "kind": "k\u00f6z",
            "post_code": 0
        },
        {
            "name": "Berkenye",
            "kind": "utca",
            "post_code": 0
        },
        {
            "name": "Berlioz",
            "kind": "utca",
            "post_code": 0
        },
        {
            "name": "Bern\u00e1th J\u00e1nos",
            "kind": "utca",
            "post_code": 0
        },
        {
            "name": "Berzsenyi D\u00e1niel",
            "kind": "utca",
            "post_code": 0
        },
        {
            "name": "Beseny\u0151",
            "kind": "utca",
            "post_code": 0
        },
        {
            "name": "Bethlen",
            "kind": "k\u00f6r\u00fat",
            "post_code": 0
        },
        {
            "name": "Bethlen k\u00f6r\u00fct",
            "kind": "",
            "post_code": 0
        },
        {
            "name": "Bezer\u00e9dy",
            "kind": "utca",
            "post_code": 0
        },
        {
            "name": "Bib\u00f3 Istv\u00e1n",
            "kind": "utca",
            "post_code": 0
        },
        {
            "name": "B\u00edbor",
            "kind": "utca",
            "post_code": 0
        },
        {
            "name": "Bihar",
            "kind": "utca",
            "post_code": 0
        },
        {
            "name": "Bika",
            "kind": "k\u00f6z",
            "post_code": 0
        },
        {
            "name": "Bimb\u00f3",
            "kind": "utca",
            "post_code": 0
        },
        {
            "name": "B\u00edr\u00f3 Lajos",
            "kind": "utca",
            "post_code": 0
        },
        {
            "name": "Bocskai",
            "kind": "utca",
            "post_code": 0
        },
        {
            "name": "B\u00f3dog",
            "kind": "sor",
            "post_code": 0
        },
        {
            "name": "Bodzai",
            "kind": "utca",
            "post_code": 0
        },
        {
            "name": "Bog\u00e1r",
            "kind": "utca",
            "post_code": 0
        },
        {
            "name": "Bogl\u00e1rka",
            "kind": "utca",
            "post_code": 0
        },
        {
            "name": "Bogovics",
            "kind": "k\u00f6z",
            "post_code": 0
        },
        {
            "name": "Bojtorj\u00e1n",
            "kind": "utca",
            "post_code": 0
        },
        {
            "name": "Bokor",
            "kind": "utca",
            "post_code": 0
        },
        {
            "name": "Bokr\u00e9ta",
            "kind": "utca",
            "post_code": 0
        },
        {
            "name": "B\u00f6lcs\u0151de",
            "kind": "utca",
            "post_code": 0
        },
        {
            "name": "Boldogasszony",
            "kind": "t\u00e9r",
            "post_code": 0
        },
        {
            "name": "Boldog",
            "kind": "utca",
            "post_code": 0
        },
        {
            "name": "B\u00f6l\u00f6ni Gy\u00f6rgy",
            "kind": "utca",
            "post_code": 0
        },
        {
            "name": "Bolyai",
            "kind": "utca",
            "post_code": 0
        },
        {
            "name": "B\u00f3nis",
            "kind": "utca",
            "post_code": 0
        },
        {
            "name": "Borbolya",
            "kind": "utca",
            "post_code": 0
        },
        {
            "name": "Bor\u00f3ka",
            "kind": "utca",
            "post_code": 0
        },
        {
            "name": "Borosty\u00e1n",
            "kind": "utca",
            "post_code": 0
        },
        {
            "name": "Bors\u00e1nyi J\u00f3zsef",
            "kind": "utca",
            "post_code": 0
        },
        {
            "name": "Borsz\u00e9ki",
            "kind": "utca",
            "post_code": 0
        },
        {
            "name": "Borz",
            "kind": "utca",
            "post_code": 0
        },
        {
            "name": "B\u00f6sz\u00f6rm\u00e9nyi",
            "kind": "utca",
            "post_code": 0
        },
        {
            "name": "Botond",
            "kind": "utca",
            "post_code": 0
        },
        {
            "name": "Brass\u00f3i",
            "kind": "utca",
            "post_code": 0
        },
        {
            "name": "Brigad\u00e9ros",
            "kind": "utca",
            "post_code": 0
        },
        {
            "name": "Budai",
            "kind": "kapu",
            "post_code": 0
        },
        {
            "name": "Budai",
            "kind": "\u00fat",
            "post_code": 0
        },
        {
            "name": "Budai",
            "kind": "utca",
            "post_code": 0
        },
        {
            "name": "B\u00fckk\u00f6ny",
            "kind": "utca",
            "post_code": 0
        },
        {
            "name": "B\u00fckk\u00f6s",
            "kind": "utca",
            "post_code": 0
        },
        {
            "name": "Burga",
            "kind": "utca",
            "post_code": 0
        },
        {
            "name": "B\u00fazakal\u00e1sz",
            "kind": "utca",
            "post_code": 0
        },
        {
            "name": "B\u00faz\u00e1s Mih\u00e1ly",
            "kind": "utca",
            "post_code": 0
        },
        {
            "name": "B\u00fazaszentel\u0151",
            "kind": "utca",
            "post_code": 0
        },
        {
            "name": "B\u00fazavir\u00e1g",
            "kind": "utca",
            "post_code": 0
        },
        {
            "name": "Buzog\u00e1ny",
            "kind": "utca",
            "post_code": 0
        },
        {
            "name": "C\u00e9drus",
            "kind": "utca",
            "post_code": 0
        },
        {
            "name": "C\u00e9dulah\u00e1z",
            "kind": "utca",
            "post_code": 0
        },
        {
            "name": "Cegl\u00e9di",
            "kind": "\u00fat",
            "post_code": 0
        },
        {
            "name": "Cifra",
            "kind": "k\u00f6z",
            "post_code": 0
        },
        {
            "name": "Cikl\u00e1men",
            "kind": "utca",
            "post_code": 0
        },
        {
            "name": "Cimbalmos",
            "kind": "utca",
            "post_code": 0
        },
        {
            "name": "Citromf\u0171",
            "kind": "utca",
            "post_code": 0
        },
        {
            "name": "Corvina",
            "kind": "utca",
            "post_code": 0
        },
        {
            "name": "Corvin J\u00e1nos",
            "kind": "utca",
            "post_code": 0
        },
        {
            "name": "Csabagy\u00f6ngye",
            "kind": "utca",
            "post_code": 0
        },
        {
            "name": "Csaba",
            "kind": "utca",
            "post_code": 0
        },
        {
            "name": "Csabay G\u00e9za",
            "kind": "k\u00f6r\u00fat",
            "post_code": 0
        },
        {
            "name": "Cs\u00e1k\u00e1ny",
            "kind": "utca",
            "post_code": 0
        },
        {
            "name": "Cs\u00e1ktornyai",
            "kind": "utca",
            "post_code": 0
        },
        {
            "name": "Cs\u00e1ky",
            "kind": "utca",
            "post_code": 0
        },
        {
            "name": "Csal\u00e1nosi",
            "kind": "\u00fat",
            "post_code": 0
        },
        {
            "name": "Csalog\u00e1ny",
            "kind": "utca",
            "post_code": 0
        },
        {
            "name": "Cs\u00e1ng\u00f3",
            "kind": "utca",
            "post_code": 0
        },
        {
            "name": "Cs\u00e1nyi J\u00e1nos",
            "kind": "k\u00f6r\u00fat",
            "post_code": 0
        },
        {
            "name": "Cs\u00e1nyi",
            "kind": "utca",
            "post_code": 0
        },
        {
            "name": "Csap",
            "kind": "utca",
            "post_code": 0
        },
        {
            "name": "Cs\u00e1rda",
            "kind": "utca",
            "post_code": 0
        },
        {
            "name": "Csend",
            "kind": "utca",
            "post_code": 0
        },
        {
            "name": "Csengery",
            "kind": "utca",
            "post_code": 0
        },
        {
            "name": "Cseng\u0151",
            "kind": "utca",
            "post_code": 0
        },
        {
            "name": "Csenkesz",
            "kind": "utca",
            "post_code": 0
        },
        {
            "name": "Cser\u00e9p",
            "kind": "utca",
            "post_code": 0
        },
        {
            "name": "Cserhalom",
            "kind": "utca",
            "post_code": 0
        },
        {
            "name": "Cserh\u00e1t",
            "kind": "utca",
            "post_code": 0
        },
        {
            "name": "Cserje",
            "kind": "utca",
            "post_code": 0
        },
        {
            "name": "Csik\u00f3s",
            "kind": "utca",
            "post_code": 0
        },
        {
            "name": "Cs\u00edksomly\u00f3i",
            "kind": "utca",
            "post_code": 0
        },
        {
            "name": "Csillagf\u00e9ny",
            "kind": "utca",
            "post_code": 0
        },
        {
            "name": "Csillag",
            "kind": "utca",
            "post_code": 0
        },
        {
            "name": "Csill\u00e9ri",
            "kind": "utca",
            "post_code": 0
        },
        {
            "name": "Csipkebogy\u00f3",
            "kind": "utca",
            "post_code": 0
        },
        {
            "name": "Csipke",
            "kind": "utca",
            "post_code": 0
        },
        {
            "name": "Cs\u00f3k\u00e1s J\u00f3zsef",
            "kind": "utca",
            "post_code": 0
        },
        {
            "name": "Cs\u00f3ka",
            "kind": "utca",
            "post_code": 0
        },
        {
            "name": "Csokonai",
            "kind": "utca",
            "post_code": 0
        },
        {
            "name": "Csokor",
            "kind": "utca",
            "post_code": 0
        },
        {
            "name": "Csongor",
            "kind": "utca",
            "post_code": 0
        },
        {
            "name": "Csongr\u00e1di",
            "kind": "k\u00f6z",
            "post_code": 0
        },
        {
            "name": "Csongr\u00e1di",
            "kind": "\u00fat",
            "post_code": 0
        },
        {
            "name": "Csuk\u00e1s\u00e9ri",
            "kind": "utca",
            "post_code": 0
        },
        {
            "name": "Czollner",
            "kind": "k\u00f6z",
            "post_code": 0
        },
        {
            "name": "Czollner",
            "kind": "t\u00e9r",
            "post_code": 0
        },
        {
            "name": "Czuczor Gergely",
            "kind": "utca",
            "post_code": 0
        },
        {
            "name": "Daimler",
            "kind": "\u00fat",
            "post_code": 0
        },
        {
            "name": "D\u00e1lia",
            "kind": "utca",
            "post_code": 0
        },
        {
            "name": "Damjanich",
            "kind": "utca",
            "post_code": 0
        },
        {
            "name": "Dank\u00f3",
            "kind": "utca",
            "post_code": 0
        },
        {
            "name": "Dar\u00e1nyi Ign\u00e1c",
            "kind": "utca",
            "post_code": 0
        },
        {
            "name": "Dar\u00e1zs",
            "kind": "utca",
            "post_code": 0
        },
        {
            "name": "D\u00e1rda",
            "kind": "utca",
            "post_code": 0
        },
        {
            "name": "Darida J\u00f3zsef",
            "kind": "utca",
            "post_code": 0
        },
        {
            "name": "Dar\u00f3czi",
            "kind": "k\u00f6z",
            "post_code": 0
        },
        {
            "name": "Daru",
            "kind": "utca",
            "post_code": 0
        },
        {
            "name": "De\u00e1k Ferenc",
            "kind": "t\u00e9r",
            "post_code": 0
        },
        {
            "name": "Dell\u0151",
            "kind": "utca",
            "post_code": 0
        },
        {
            "name": "D\u00e9ryn\u00e9",
            "kind": "utca",
            "post_code": 0
        },
        {
            "name": "D\u00e9v\u00e9ny",
            "kind": "utca",
            "post_code": 0
        },
        {
            "name": "Di\u00f3fa",
            "kind": "utca",
            "post_code": 0
        },
        {
            "name": "Dob\u00f3 Istv\u00e1n",
            "kind": "k\u00f6r\u00fat",
            "post_code": 0
        },
        {
            "name": "Doh\u00e1ny",
            "kind": "utca",
            "post_code": 0
        },
        {
            "name": "Dohn\u00e1nyi Ern\u0151",
            "kind": "utca",
            "post_code": 0
        },
        {
            "name": "Domb",
            "kind": "lak\u00f3park",
            "post_code": 0
        },
        {
            "name": "Domby Lajos",
            "kind": "utca",
            "post_code": 0
        },
        {
            "name": "D\u00f6m\u00f6t\u00f6r",
            "kind": "utca",
            "post_code": 0
        },
        {
            "name": "Dong\u00f3",
            "kind": "utca",
            "post_code": 0
        },
        {
            "name": "D\u00f3zsa Gy\u00f6rgy",
            "kind": "\u00fat",
            "post_code": 0
        },
        {
            "name": "Dr\u00e1va",
            "kind": "utca",
            "post_code": 0
        },
        {
            "name": "Dr\u00e9gely",
            "kind": "utca",
            "post_code": 0
        },
        {
            "name": "Dr. Szobonya Zolt\u00e1n",
            "kind": "utca",
            "post_code": 0
        },
        {
            "name": "Dsida Jen\u0151",
            "kind": "utca",
            "post_code": 0
        },
        {
            "name": "Dugovics Titusz",
            "kind": "utca",
            "post_code": 0
        },
        {
            "name": "Dunaf\u00f6ldv\u00e1ri",
            "kind": "\u00fat",
            "post_code": 0
        },
        {
            "name": "Duna",
            "kind": "utca",
            "post_code": 0
        },
        {
            "name": "Egerv\u00e1r",
            "kind": "utca",
            "post_code": 0
        },
        {
            "name": "Egressy",
            "kind": "utca",
            "post_code": 0
        },
        {
            "name": "Egyet\u00e9rt\u00e9s",
            "kind": "utca",
            "post_code": 0
        },
        {
            "name": "\u00c9nekes",
            "kind": "utca",
            "post_code": 0
        },
        {
            "name": "E\u00f6tv\u00f6s",
            "kind": "utca",
            "post_code": 0
        },
        {
            "name": "Eper",
            "kind": "utca",
            "post_code": 0
        },
        {
            "name": "Epreskert",
            "kind": "utca",
            "post_code": 0
        },
        {
            "name": "Erdei Ferenc",
            "kind": "t\u00e9r",
            "post_code": 0
        },
        {
            "name": "Erd\u00e9sz",
            "kind": "utca",
            "post_code": 0
        },
        {
            "name": "Erd\u0151f\u00f6ld",
            "kind": "utca",
            "post_code": 0
        },
        {
            "name": "Erd\u0151",
            "kind": "k\u00f6z",
            "post_code": 0
        },
        {
            "name": "Erd\u0151si Imre",
            "kind": "utca",
            "post_code": 0
        },
        {
            "name": "Erd\u0151",
            "kind": "utca",
            "post_code": 0
        },
        {
            "name": "Erkel Ferenc",
            "kind": "utca",
            "post_code": 0
        },
        {
            "name": "Erzs\u00e9bet",
            "kind": "k\u00f6r\u00fat",
            "post_code": 0
        },
        {
            "name": "Erzs\u00e9bet",
            "kind": "utca",
            "post_code": 0
        },
        {
            "name": "Estike",
            "kind": "utca",
            "post_code": 0
        },
        {
            "name": "\u00c9szaki",
            "kind": "k\u00f6r\u00fat",
            "post_code": 0
        },
        {
            "name": "Esze Tam\u00e1s",
            "kind": "utca",
            "post_code": 0
        },
        {
            "name": "Eszperant\u00f3",
            "kind": "utca",
            "post_code": 0
        },
        {
            "name": "Ez\u00fcstd\u00e9n\u00e1r",
            "kind": "utca",
            "post_code": 0
        },
        {
            "name": "Ez\u00fcstfeny\u0151",
            "kind": "utca",
            "post_code": 0
        },
        {
            "name": "F\u00e1c\u00e1n",
            "kind": "utca",
            "post_code": 0
        },
        {
            "name": "Fadrusz J\u00e1nos",
            "kind": "utca",
            "post_code": 0
        },
        {
            "name": "Fagyal",
            "kind": "utca",
            "post_code": 0
        },
        {
            "name": "Fagy\u00f6ngy",
            "kind": "utca",
            "post_code": 0
        },
        {
            "name": "F\u00e1klya",
            "kind": "utca",
            "post_code": 0
        },
        {
            "name": "Fanto",
            "kind": "k\u00f6z",
            "post_code": 0
        },
        {
            "name": "Farag\u00f3 B\u00e9la",
            "kind": "fasor",
            "post_code": 0
        },
        {
            "name": "Farag\u00f3",
            "kind": "utca",
            "post_code": 0
        },
        {
            "name": "F\u00e1tyolka",
            "kind": "utca",
            "post_code": 0
        },
        {
            "name": "Fazekas",
            "kind": "k\u00f6z",
            "post_code": 0
        },
        {
            "name": "Fazekas Mih\u00e1ly",
            "kind": "utca",
            "post_code": 0
        },
        {
            "name": "Fecske",
            "kind": "utca",
            "post_code": 0
        },
        {
            "name": "Feh\u00e9r",
            "kind": "utca",
            "post_code": 0
        },
        {
            "name": "Feh\u00e9rv\u00e1ri",
            "kind": "utca",
            "post_code": 0
        },
        {
            "name": "Felber Istv\u00e1n",
            "kind": "utca",
            "post_code": 0
        },
        {
            "name": "Felh\u0151",
            "kind": "utca",
            "post_code": 0
        },
        {
            "name": "Fels\u0151kom\u00e1rnok",
            "kind": "utca",
            "post_code": 0
        },
        {
            "name": "F\u00e9nyes Adolf",
            "kind": "utca",
            "post_code": 0
        },
        {
            "name": "Feny\u0151",
            "kind": "utca",
            "post_code": 0
        },
        {
            "name": "F\u00e9ny",
            "kind": "utca",
            "post_code": 0
        },
        {
            "name": "Fenyves",
            "kind": "utca",
            "post_code": 0
        },
        {
            "name": "Ferencsik J\u00e1nos",
            "kind": "utca",
            "post_code": 0
        },
        {
            "name": "Ferenczy Ida",
            "kind": "utca",
            "post_code": 0
        },
        {
            "name": "Ferenczy",
            "kind": "utca",
            "post_code": 0
        },
        {
            "name": "Fest\u0151",
            "kind": "utca",
            "post_code": 0
        },
        {
            "name": "F\u00e9szek",
            "kind": "utca",
            "post_code": 0
        },
        {
            "name": "Fodros",
            "kind": "utca",
            "post_code": 0
        },
        {
            "name": "Fogaras",
            "kind": "utca",
            "post_code": 0
        },
        {
            "name": "Foly\u00f3ka",
            "kind": "sor",
            "post_code": 0
        },
        {
            "name": "Folyond\u00e1r",
            "kind": "utca",
            "post_code": 0
        },
        {
            "name": "Forradalom",
            "kind": "utca",
            "post_code": 0
        },
        {
            "name": "Forr\u00e1s",
            "kind": "utca",
            "post_code": 0
        },
        {
            "name": "F\u0151",
            "kind": "utca",
            "post_code": 0
        },
        {
            "name": "Frangep\u00e1n",
            "kind": "s\u00e9t\u00e1ny",
            "post_code": 0
        },
        {
            "name": "Frankel Le\u00f3",
            "kind": "utca",
            "post_code": 0
        },
        {
            "name": "Fr\u00e1ter Gy\u00f6rgy",
            "kind": "utca",
            "post_code": 0
        },
        {
            "name": "Fr\u00e9zia",
            "kind": "utca",
            "post_code": 0
        },
        {
            "name": "F\u00fclem\u00fcle",
            "kind": "utca",
            "post_code": 0
        },
        {
            "name": "F\u00fcrd\u0151",
            "kind": "utca",
            "post_code": 0
        },
        {
            "name": "F\u00fcrj",
            "kind": "utca",
            "post_code": 0
        },
        {
            "name": "F\u00fcst Mil\u00e1n",
            "kind": "utca",
            "post_code": 0
        },
        {
            "name": "Fut\u00e1r",
            "kind": "utca",
            "post_code": 0
        },
        {
            "name": "Fuvar",
            "kind": "utca",
            "post_code": 0
        },
        {
            "name": "F\u00fczes",
            "kind": "utca",
            "post_code": 0
        },
        {
            "name": "F\u0171zf\u00e1s",
            "kind": "k\u00f6z",
            "post_code": 0
        },
        {
            "name": "F\u0171zfa",
            "kind": "utca",
            "post_code": 0
        },
        {
            "name": "G\u00e1bor \u00c1ron",
            "kind": "utca",
            "post_code": 0
        },
        {
            "name": "G\u00e1bor D\u00e9nes",
            "kind": "utca",
            "post_code": 0
        },
        {
            "name": "Galagonya",
            "kind": "utca",
            "post_code": 0
        },
        {
            "name": "Galamb",
            "kind": "utca",
            "post_code": 0
        },
        {
            "name": "Garai Zolt\u00e1n",
            "kind": "utca",
            "post_code": 0
        },
        {
            "name": "Garam",
            "kind": "utca",
            "post_code": 0
        },
        {
            "name": "Garay",
            "kind": "utca",
            "post_code": 0
        },
        {
            "name": "G\u00e1rdonyi G\u00e9za",
            "kind": "utca",
            "post_code": 0
        },
        {
            "name": "G\u00e1sp\u00e1r Andr\u00e1s",
            "kind": "k\u00f6r\u00fat",
            "post_code": 0
        },
        {
            "name": "G\u00e1t",
            "kind": "utca",
            "post_code": 0
        },
        {
            "name": "Gazdik",
            "kind": "k\u00f6z",
            "post_code": 0
        },
        {
            "name": "G\u00e1zl\u00f3",
            "kind": "utca",
            "post_code": 0
        },
        {
            "name": "G\u00e1z",
            "kind": "utca",
            "post_code": 0
        },
        {
            "name": "Georg Knorr",
            "kind": "utca",
            "post_code": 0
        },
        {
            "name": "Gerbera",
            "kind": "utca",
            "post_code": 0
        },
        {
            "name": "Gerecse",
            "kind": "utca",
            "post_code": 0
        },
        {
            "name": "Gerlice",
            "kind": "utca",
            "post_code": 0
        },
        {
            "name": "Gesztenyefa",
            "kind": "utca",
            "post_code": 0
        },
        {
            "name": "G\u00e9za fejedelem",
            "kind": "k\u00f6r\u00fat",
            "post_code": 0
        },
        {
            "name": "G\u00f6dr\u00f6stemet\u0151",
            "kind": "utca",
            "post_code": 0
        },
        {
            "name": "G\u00f6d",
            "kind": "utca",
            "post_code": 0
        },
        {
            "name": "Gokartp\u00e1lya",
            "kind": "",
            "post_code": 0
        },
        {
            "name": "G\u00f3lya",
            "kind": "utca",
            "post_code": 0
        },
        {
            "name": "Gomba",
            "kind": "utca",
            "post_code": 0
        },
        {
            "name": "G\u00f6rbe",
            "kind": "utca",
            "post_code": 0
        },
        {
            "name": "G\u00f6rgey Art\u00far",
            "kind": "utca",
            "post_code": 0
        },
        {
            "name": "G\u00f6r\u00f6gtemplom",
            "kind": "utca",
            "post_code": 0
        },
        {
            "name": "G\u0151zhaj\u00f3",
            "kind": "utca",
            "post_code": 0
        },
        {
            "name": "G\u0151zmalom",
            "kind": "utca",
            "post_code": 0
        },
        {
            "name": "Gr\u00e1nit",
            "kind": "utca",
            "post_code": 0
        },
        {
            "name": "Gyalog",
            "kind": "k\u00f6z",
            "post_code": 0
        },
        {
            "name": "Gy\u00e9m\u00e1nt",
            "kind": "utca",
            "post_code": 0
        },
        {
            "name": "Gyenes Istv\u00e1n",
            "kind": "utca",
            "post_code": 0
        },
        {
            "name": "Gyergy\u00f3i",
            "kind": "utca",
            "post_code": 0
        },
        {
            "name": "Gyimesi",
            "kind": "utca",
            "post_code": 0
        },
        {
            "name": "Gy\u00f6k\u00e9r",
            "kind": "utca",
            "post_code": 0
        },
        {
            "name": "Gy\u00f6ngyh\u00e1z",
            "kind": "utca",
            "post_code": 0
        },
        {
            "name": "Gy\u00f6ngy\u00f6s",
            "kind": "k\u00f6z",
            "post_code": 0
        },
        {
            "name": "Gy\u00f6ngy",
            "kind": "utca",
            "post_code": 0
        },
        {
            "name": "Gy\u00f6ngyvir\u00e1g",
            "kind": "utca",
            "post_code": 0
        },
        {
            "name": "Gyop\u00e1ros",
            "kind": "utca",
            "post_code": 0
        },
        {
            "name": "Gy\u0151zelem",
            "kind": "utca",
            "post_code": 0
        },
        {
            "name": "Gyulai P\u00e1l",
            "kind": "utca",
            "post_code": 0
        },
        {
            "name": "Gy\u00fcm\u00f6lcs",
            "kind": "utca",
            "post_code": 0
        },
        {
            "name": "Hajagos",
            "kind": "utca",
            "post_code": 0
        },
        {
            "name": "Hajd\u00fa",
            "kind": "utca",
            "post_code": 0
        },
        {
            "name": "Hajnal",
            "kind": "utca",
            "post_code": 0
        },
        {
            "name": "Haj\u00f3",
            "kind": "utca",
            "post_code": 0
        },
        {
            "name": "Halasi",
            "kind": "\u00fat",
            "post_code": 0
        },
        {
            "name": "Hal\u00e1sz",
            "kind": "utca",
            "post_code": 0
        },
        {
            "name": "Halom",
            "kind": "utca",
            "post_code": 0
        },
        {
            "name": "Hangulat",
            "kind": "utca",
            "post_code": 0
        },
        {
            "name": "Hans\u00e1g",
            "kind": "utca",
            "post_code": 0
        },
        {
            "name": "Hanusz Istv\u00e1n",
            "kind": "utca",
            "post_code": 0
        },
        {
            "name": "Harang",
            "kind": "utca",
            "post_code": 0
        },
        {
            "name": "Harangvir\u00e1g",
            "kind": "utca",
            "post_code": 0
        },
        {
            "name": "Hargita",
            "kind": "utca",
            "post_code": 0
        },
        {
            "name": "Hark\u00e1ly",
            "kind": "utca",
            "post_code": 0
        },
        {
            "name": "Harmat",
            "kind": "utca",
            "post_code": 0
        },
        {
            "name": "Harm\u00f3nia",
            "kind": "utca",
            "post_code": 0
        },
        {
            "name": "H\u00e1rsfa",
            "kind": "sor",
            "post_code": 0
        },
        {
            "name": "H\u00e1rsfa",
            "kind": "utca",
            "post_code": 0
        },
        {
            "name": "Harsona",
            "kind": "utca",
            "post_code": 0
        },
        {
            "name": "Hat\u00e1r",
            "kind": "utca",
            "post_code": 0
        },
        {
            "name": "Hatty\u00fa",
            "kind": "utca",
            "post_code": 0
        },
        {
            "name": "Heged\u0171s",
            "kind": "k\u00f6z",
            "post_code": 0
        },
        {
            "name": "Hegy",
            "kind": "utca",
            "post_code": 0
        },
        {
            "name": "Helikon",
            "kind": "utca",
            "post_code": 0
        },
        {
            "name": "Herman Ott\u00f3",
            "kind": "t\u00e9r",
            "post_code": 0
        },
        {
            "name": "Hern\u00e1d",
            "kind": "utca",
            "post_code": 0
        },
        {
            "name": "Het\u00e9ny vez\u00e9r",
            "kind": "utca",
            "post_code": 0
        },
        {
            "name": "H\u00e9tvez\u00e9r",
            "kind": "utca",
            "post_code": 0
        },
        {
            "name": "H\u00e9v\u00edz",
            "kind": "utca",
            "post_code": 0
        },
        {
            "name": "H\u00edd",
            "kind": "utca",
            "post_code": 0
        },
        {
            "name": "H\u00edn\u00e1r",
            "kind": "utca",
            "post_code": 0
        },
        {
            "name": "Hitel",
            "kind": "utca",
            "post_code": 0
        },
        {
            "name": "Hock J\u00e1nos",
            "kind": "utca",
            "post_code": 0
        },
        {
            "name": "Hoffman J\u00e1nos",
            "kind": "utca",
            "post_code": 0
        },
        {
            "name": "Holdf\u00e9ny",
            "kind": "utca",
            "post_code": 0
        },
        {
            "name": "Hold",
            "kind": "utca",
            "post_code": 0
        },
        {
            "name": "Holl\u00f3",
            "kind": "utca",
            "post_code": 0
        },
        {
            "name": "Homokk\u0151",
            "kind": "utca",
            "post_code": 0
        },
        {
            "name": "Homokszem",
            "kind": "utca",
            "post_code": 0
        },
        {
            "name": "Homokt\u00f6vis",
            "kind": "utca",
            "post_code": 0
        },
        {
            "name": "Homok",
            "kind": "utca",
            "post_code": 0
        },
        {
            "name": "Honfoglal\u00e1s",
            "kind": "t\u00e9r",
            "post_code": 0
        },
        {
            "name": "Honv\u00e9d",
            "kind": "utca",
            "post_code": 0
        },
        {
            "name": "Horg\u00e1sz",
            "kind": "utca",
            "post_code": 0
        },
        {
            "name": "Hornyik J\u00e1nos",
            "kind": "k\u00f6r\u00fat",
            "post_code": 0
        },
        {
            "name": "Horog",
            "kind": "utca",
            "post_code": 0
        },
        {
            "name": "Hortenzia",
            "kind": "utca",
            "post_code": 0
        },
        {
            "name": "Horv\u00e1th Cyrill",
            "kind": "t\u00e9r",
            "post_code": 0
        },
        {
            "name": "Horv\u00e1th D\u00f6me",
            "kind": "k\u00f6r\u00fat",
            "post_code": 0
        },
        {
            "name": "Hossz\u00fa",
            "kind": "utca",
            "post_code": 0
        },
        {
            "name": "H\u00f3vir\u00e1g",
            "kind": "utca",
            "post_code": 0
        },
        {
            "name": "Hull\u00e1m",
            "kind": "utca",
            "post_code": 0
        },
        {
            "name": "Hunor",
            "kind": "utca",
            "post_code": 0
        },
        {
            "name": "Hunyadi J\u00e1nos",
            "kind": "t\u00e9r",
            "post_code": 0
        },
        {
            "name": "Hunyadi J\u00e1nos",
            "kind": "utca",
            "post_code": 0
        },
        {
            "name": "H\u0171s\u00e9g",
            "kind": "utca",
            "post_code": 0
        },
        {
            "name": "Husz\u00e1r",
            "kind": "utca",
            "post_code": 0
        },
        {
            "name": "Huszka Lajos",
            "kind": "utca",
            "post_code": 0
        },
        {
            "name": "Ibolya",
            "kind": "utca",
            "post_code": 0
        },
        {
            "name": "Ifj\u00fas\u00e1g",
            "kind": "\u00fatja",
            "post_code": 0
        },
        {
            "name": "III. B\u00e9la",
            "kind": "k\u00f6r\u00fat",
            "post_code": 0
        },
        {
            "name": "Illatos",
            "kind": "utca",
            "post_code": 0
        },
        {
            "name": "Illy\u00e9s Gyula",
            "kind": "utca",
            "post_code": 0
        },
        {
            "name": "Ilona",
            "kind": "utca",
            "post_code": 0
        },
        {
            "name": "Ipar",
            "kind": "utca",
            "post_code": 0
        },
        {
            "name": "Ipoly",
            "kind": "sor",
            "post_code": 0
        },
        {
            "name": "Ipoly",
            "kind": "utca",
            "post_code": 0
        },
        {
            "name": "Ir\u00e1nyi Istv\u00e1n",
            "kind": "utca",
            "post_code": 0
        },
        {
            "name": "Irinyi",
            "kind": "utca",
            "post_code": 0
        },
        {
            "name": "\u00cdrisz",
            "kind": "utca",
            "post_code": 0
        },
        {
            "name": "Irsai Oliv\u00e9r",
            "kind": "utca",
            "post_code": 0
        },
        {
            "name": "Isaszegi",
            "kind": "utca",
            "post_code": 0
        },
        {
            "name": "Iskola",
            "kind": "utca",
            "post_code": 0
        },
        {
            "name": "Isp\u00e1n",
            "kind": "utca",
            "post_code": 0
        },
        {
            "name": "Istv\u00e1n",
            "kind": "utca",
            "post_code": 0
        },
        {
            "name": "Iv\u00e1nyi Gr\u00fcnwald B\u00e9la",
            "kind": "utca",
            "post_code": 0
        },
        {
            "name": "Izs\u00e1ki",
            "kind": "\u00fat",
            "post_code": 0
        },
        {
            "name": "Izz\u00f3",
            "kind": "utca",
            "post_code": 0
        },
        {
            "name": "J\u00e1cint",
            "kind": "utca",
            "post_code": 0
        },
        {
            "name": "J\u00e1nos vit\u00e9z",
            "kind": "utca",
            "post_code": 0
        },
        {
            "name": "Janus Pannonius",
            "kind": "utca",
            "post_code": 0
        },
        {
            "name": "J\u00e1rd\u00e1nyi P\u00e1l",
            "kind": "utca",
            "post_code": 0
        },
        {
            "name": "J\u00e1sz",
            "kind": "utca",
            "post_code": 0
        },
        {
            "name": "J\u00e1zmin",
            "kind": "utca",
            "post_code": 0
        },
        {
            "name": "Jegenyefa",
            "kind": "utca",
            "post_code": 0
        },
        {
            "name": "J\u00e9gvir\u00e1g",
            "kind": "utca",
            "post_code": 0
        },
        {
            "name": "Jelky Andr\u00e1s",
            "kind": "utca",
            "post_code": 0
        },
        {
            "name": "Jogar",
            "kind": "utca",
            "post_code": 0
        },
        {
            "name": "J\u00f3kai",
            "kind": "utca",
            "post_code": 0
        },
        {
            "name": "J\u00f3sika",
            "kind": "utca",
            "post_code": 0
        },
        {
            "name": "J\u00f3zsef Attila",
            "kind": "utca",
            "post_code": 0
        },
        {
            "name": "Juhar",
            "kind": "utca",
            "post_code": 0
        },
        {
            "name": "Juh\u00e1sz",
            "kind": "utca",
            "post_code": 0
        },
        {
            "name": "Kacsa",
            "kind": "k\u00f6z",
            "post_code": 0
        },
        {
            "name": "Kacs\u00f3h Pongr\u00e1c",
            "kind": "utca",
            "post_code": 0
        },
        {
            "name": "Kada Elek",
            "kind": "utca",
            "post_code": 0
        },
        {
            "name": "Kadafalva",
            "kind": "tanya",
            "post_code": 0
        },
        {
            "name": "Kadafalvi",
            "kind": "\u00fat",
            "post_code": 0
        },
        {
            "name": "Kadarka",
            "kind": "utca",
            "post_code": 0
        },
        {
            "name": "Kaffka Margit",
            "kind": "utca",
            "post_code": 0
        },
        {
            "name": "Kagyl\u00f3",
            "kind": "utca",
            "post_code": 0
        },
        {
            "name": "Kakas",
            "kind": "k\u00f6z",
            "post_code": 0
        },
        {
            "name": "Kakukkf\u0171",
            "kind": "utca",
            "post_code": 0
        },
        {
            "name": "Kalap",
            "kind": "utca",
            "post_code": 0
        },
        {
            "name": "Kal\u00e1sz",
            "kind": "utca",
            "post_code": 0
        },
        {
            "name": "Kalm\u00e1r",
            "kind": "k\u00f6z",
            "post_code": 0
        },
        {
            "name": "Kalocsa",
            "kind": "utca",
            "post_code": 0
        },
        {
            "name": "K\u00e1lvin",
            "kind": "t\u00e9r",
            "post_code": 0
        },
        {
            "name": "Kamilla",
            "kind": "utca",
            "post_code": 0
        },
        {
            "name": "Kand\u00f3 K\u00e1lm\u00e1n",
            "kind": "utca",
            "post_code": 0
        },
        {
            "name": "Kanizsa",
            "kind": "utca",
            "post_code": 0
        },
        {
            "name": "Kanyar",
            "kind": "utca",
            "post_code": 0
        },
        {
            "name": "Kap\u00e1s",
            "kind": "utca",
            "post_code": 0
        },
        {
            "name": "Kapisztr\u00e1n J\u00e1nos",
            "kind": "utca",
            "post_code": 0
        },
        {
            "name": "K\u00e1polna",
            "kind": "utca",
            "post_code": 0
        },
        {
            "name": "K\u00e1poszt\u00e1s",
            "kind": "k\u00f6z",
            "post_code": 0
        },
        {
            "name": "Kapt\u00e1r",
            "kind": "utca",
            "post_code": 0
        },
        {
            "name": "Kar\u00e1t",
            "kind": "utca",
            "post_code": 0
        },
        {
            "name": "Kard",
            "kind": "utca",
            "post_code": 0
        },
        {
            "name": "Karinthy Frigyes",
            "kind": "utca",
            "post_code": 0
        },
        {
            "name": "K\u00e1roli G\u00e1sp\u00e1r",
            "kind": "utca",
            "post_code": 0
        },
        {
            "name": "K\u00e1rolyi",
            "kind": "utca",
            "post_code": 0
        },
        {
            "name": "K\u00e1rp\u00e1t",
            "kind": "utca",
            "post_code": 0
        },
        {
            "name": "Kassai",
            "kind": "utca",
            "post_code": 0
        },
        {
            "name": "Kass\u00e1k Lajos",
            "kind": "utca",
            "post_code": 0
        },
        {
            "name": "Kaszap",
            "kind": "utca",
            "post_code": 0
        },
        {
            "name": "Kasza",
            "kind": "utca",
            "post_code": 0
        },
        {
            "name": "Katona J\u00f3zsef",
            "kind": "park",
            "post_code": 0
        },
        {
            "name": "Katona J\u00f3zsef",
            "kind": "t\u00e9r",
            "post_code": 0
        },
        {
            "name": "Katona J\u00f3zsef",
            "kind": "utca",
            "post_code": 0
        },
        {
            "name": "Katona Zsigmond",
            "kind": "utca",
            "post_code": 0
        },
        {
            "name": "Kavics",
            "kind": "utca",
            "post_code": 0
        },
        {
            "name": "Kazal",
            "kind": "utca",
            "post_code": 0
        },
        {
            "name": "Kazinczy",
            "kind": "utca",
            "post_code": 0
        },
        {
            "name": "Kecske",
            "kind": "k\u00f6z",
            "post_code": 0
        },
        {
            "name": "Kecskem\u00e9ti",
            "kind": "\u00fat",
            "post_code": 0
        },
        {
            "name": "Kecskem\u00e9ti V\u00e9gh Mih\u00e1ly",
            "kind": "t\u00e9r",
            "post_code": 0
        },
        {
            "name": "K\u00e9kestet\u0151",
            "kind": "utca",
            "post_code": 0
        },
        {
            "name": "K\u00e9kfest\u0151",
            "kind": "utca",
            "post_code": 0
        },
        {
            "name": "Kelemen L\u00e1szl\u00f3",
            "kind": "utca",
            "post_code": 0
        },
        {
            "name": "Kenderessy",
            "kind": "utca",
            "post_code": 0
        },
        {
            "name": "Kerekes",
            "kind": "utca",
            "post_code": 0
        },
        {
            "name": "Keresked\u0151",
            "kind": "utca",
            "post_code": 0
        },
        {
            "name": "Kereszt",
            "kind": "\u00fat",
            "post_code": 0
        },
        {
            "name": "Kereszt",
            "kind": "utca",
            "post_code": 0
        },
        {
            "name": "Kerk\u00e1poly",
            "kind": "utca",
            "post_code": 0
        },
        {
            "name": "Kertalja",
            "kind": "utca",
            "post_code": 0
        },
        {
            "name": "Kert\u00e9sz",
            "kind": "utca",
            "post_code": 0
        },
        {
            "name": "K\u00e9ttemplom",
            "kind": "k\u00f6z",
            "post_code": 0
        },
        {
            "name": "Kikelet",
            "kind": "utca",
            "post_code": 0
        },
        {
            "name": "Kinizsi",
            "kind": "utca",
            "post_code": 0
        },
        {
            "name": "Kisdobos",
            "kind": "utca",
            "post_code": 0
        },
        {
            "name": "Kiserd\u0151",
            "kind": "utca",
            "post_code": 0
        },
        {
            "name": "Kisfaludy",
            "kind": "utca",
            "post_code": 0
        },
        {
            "name": "Kis Heged\u0171s",
            "kind": "k\u00f6z",
            "post_code": 0
        },
        {
            "name": "Kiskert",
            "kind": "t\u00e9r",
            "post_code": 0
        },
        {
            "name": "Kiskert",
            "kind": "utca",
            "post_code": 0
        },
        {
            "name": "Kisk\u0151r\u00f6si",
            "kind": "\u00fat",
            "post_code": 0
        },
        {
            "name": "Kis",
            "kind": "k\u00f6z",
            "post_code": 0
        },
        {
            "name": "Kiskunf\u00e9legyh\u00e1zai",
            "kind": "\u00fat",
            "post_code": 0
        },
        {
            "name": "Kiskun",
            "kind": "utca",
            "post_code": 0
        },
        {
            "name": "Kisny\u00edri",
            "kind": "utca",
            "post_code": 0
        },
        {
            "name": "Kistemplom",
            "kind": "utca",
            "post_code": 0
        },
        {
            "name": "Kis",
            "kind": "utca",
            "post_code": 0
        },
        {
            "name": "Klapka",
            "kind": "utca",
            "post_code": 0
        },
        {
            "name": "Klauz\u00e1l G\u00e1bor",
            "kind": "t\u00e9r",
            "post_code": 0
        },
        {
            "name": "Klebelsberg Kuno",
            "kind": "utca",
            "post_code": 0
        },
        {
            "name": "K\u00f3csag",
            "kind": "utca",
            "post_code": 0
        },
        {
            "name": "Kocsis P\u00e1l",
            "kind": "utca",
            "post_code": 0
        },
        {
            "name": "Kod\u00e1ly Zolt\u00e1n",
            "kind": "t\u00e9r",
            "post_code": 0
        },
        {
            "name": "Kodol\u00e1nyi J\u00e1nos",
            "kind": "utca",
            "post_code": 0
        },
        {
            "name": "K\u0151farag\u00f3",
            "kind": "utca",
            "post_code": 0
        },
        {
            "name": "Koh\u00e1ry Istv\u00e1n",
            "kind": "k\u00f6r\u00fat",
            "post_code": 0
        },
        {
            "name": "K\u0151h\u00edd",
            "kind": "utca",
            "post_code": 0
        },
        {
            "name": "K\u00f6k\u00e9ny",
            "kind": "utca",
            "post_code": 0
        },
        {
            "name": "K\u00f6k\u00f6rcsin",
            "kind": "utca",
            "post_code": 0
        },
        {
            "name": "K\u00f6lcsey",
            "kind": "utca",
            "post_code": 0
        },
        {
            "name": "Kolostor",
            "kind": "utca",
            "post_code": 0
        },
        {
            "name": "Kolozsv\u00e1ri",
            "kind": "",
            "post_code": 0
        },
        {
            "name": "K\u00f6nyves K\u00e1lm\u00e1n",
            "kind": "k\u00f6r\u00fat",
            "post_code": 0
        },
        {
            "name": "Kopp\u00e1ny",
            "kind": "utca",
            "post_code": 0
        },
        {
            "name": "Korh\u00e1nk\u00f6zi",
            "kind": "\u00fat",
            "post_code": 0
        },
        {
            "name": "K\u00f3rh\u00e1z",
            "kind": "utca",
            "post_code": 0
        },
        {
            "name": "K\u0151ris",
            "kind": "utca",
            "post_code": 0
        },
        {
            "name": "Korona",
            "kind": "utca",
            "post_code": 0
        },
        {
            "name": "K\u0151r\u00f6si Csoma S\u00e1ndor",
            "kind": "utca",
            "post_code": 0
        },
        {
            "name": "K\u00f6r\u00f6si",
            "kind": "\u00fat",
            "post_code": 0
        },
        {
            "name": "Kors\u00f3",
            "kind": "utca",
            "post_code": 0
        },
        {
            "name": "K\u00f6rtefa",
            "kind": "utca",
            "post_code": 0
        },
        {
            "name": "K\u00f3s K\u00e1roly",
            "kind": "utca",
            "post_code": 0
        },
        {
            "name": "Kossuth",
            "kind": "k\u00f6r\u00fat",
            "post_code": 0
        },
        {
            "name": "Kossuth Lajos",
            "kind": "utca",
            "post_code": 0
        },
        {
            "name": "Kossuth",
            "kind": "t\u00e9r",
            "post_code": 0
        },
        {
            "name": "K\u0151szeg",
            "kind": "utca",
            "post_code": 0
        },
        {
            "name": "Kosztol\u00e1nyi Dezs\u0151",
            "kind": "utca",
            "post_code": 0
        },
        {
            "name": "K\u0151v\u00e1g\u00f3",
            "kind": "utca",
            "post_code": 0
        },
        {
            "name": "K\u00f6z\u00e9p",
            "kind": "utca",
            "post_code": 0
        },
        {
            "name": "Krist\u00e1ly",
            "kind": "t\u00e9r",
            "post_code": 0
        },
        {
            "name": "K\u00fck\u00fcll\u0151",
            "kind": "utca",
            "post_code": 0
        },
        {
            "name": "Kullai",
            "kind": "k\u00f6z",
            "post_code": 0
        },
        {
            "name": "K\u00fcls\u0151-Szegedi",
            "kind": "\u00fat",
            "post_code": 0
        },
        {
            "name": "Kupa",
            "kind": "utca",
            "post_code": 0
        },
        {
            "name": "K\u00fcrt",
            "kind": "utca",
            "post_code": 0
        },
        {
            "name": "Kuruc",
            "kind": "k\u00f6r\u00fat",
            "post_code": 0
        },
        {
            "name": "Kurucz",
            "kind": "t\u00e9r",
            "post_code": 0
        },
        {
            "name": "Kvarc",
            "kind": "utca",
            "post_code": 0
        },
        {
            "name": "Labdar\u00f3zsa",
            "kind": "utca",
            "post_code": 0
        },
        {
            "name": "Lad\u00e1nybenei",
            "kind": "\u00fat",
            "post_code": 0
        },
        {
            "name": "Lajta L\u00e1szl\u00f3",
            "kind": "utca",
            "post_code": 0
        },
        {
            "name": "Lajta",
            "kind": "utca",
            "post_code": 0
        },
        {
            "name": "L\u00e1nch\u00edd",
            "kind": "utca",
            "post_code": 0
        },
        {
            "name": "Lant",
            "kind": "utca",
            "post_code": 0
        },
        {
            "name": "L\u00e1szl\u00f3 K\u00e1roly",
            "kind": "utca",
            "post_code": 0
        },
        {
            "name": "Lechner \u00d6d\u00f6n",
            "kind": "utca",
            "post_code": 0
        },
        {
            "name": "Legenda",
            "kind": "utca",
            "post_code": 0
        },
        {
            "name": "Lehel",
            "kind": "utca",
            "post_code": 0
        },
        {
            "name": "Lepke",
            "kind": "utca",
            "post_code": 0
        },
        {
            "name": "Lev\u00e9l",
            "kind": "utca",
            "post_code": 0
        },
        {
            "name": "Levendula",
            "kind": "utca",
            "post_code": 0
        },
        {
            "name": "Lez\u00e1rt gyalog\u00e1tkel\u0151",
            "kind": "",
            "post_code": 0
        },
        {
            "name": "LHKE 12R",
            "kind": "",
            "post_code": 0
        },
        {
            "name": "LHKE 30L",
            "kind": "",
            "post_code": 0
        },
        {
            "name": "Ligetsz\u00e9pe",
            "kind": "utca",
            "post_code": 0
        },
        {
            "name": "Liget",
            "kind": "utca",
            "post_code": 0
        },
        {
            "name": "Lik\u0151rgy\u00e1ri",
            "kind": "\u00fat",
            "post_code": 0
        },
        {
            "name": "Lilaak\u00e1c",
            "kind": "utca",
            "post_code": 0
        },
        {
            "name": "Liliom",
            "kind": "k\u00f6z",
            "post_code": 0
        },
        {
            "name": "Liliom",
            "kind": "utca",
            "post_code": 0
        },
        {
            "name": "Liszt Ferenc",
            "kind": "utca",
            "post_code": 0
        },
        {
            "name": "L\u0151csei",
            "kind": "utca",
            "post_code": 0
        },
        {
            "name": "Lombos",
            "kind": "utca",
            "post_code": 0
        },
        {
            "name": "L\u00f3r\u00e1ntffy Zsuzsanna",
            "kind": "utca",
            "post_code": 0
        },
        {
            "name": "Losonczy",
            "kind": "utca",
            "post_code": 0
        },
        {
            "name": "Lovag",
            "kind": "utca",
            "post_code": 0
        },
        {
            "name": "L\u00f3verseny",
            "kind": "utca",
            "post_code": 0
        },
        {
            "name": "Lucfeny\u0151",
            "kind": "utca",
            "post_code": 0
        },
        {
            "name": "Lugas",
            "kind": "sor",
            "post_code": 0
        },
        {
            "name": "Luk\u00e1cs Gy\u00f6rgy",
            "kind": "utca",
            "post_code": 0
        },
        {
            "name": "Lunk\u00e1nyi J\u00e1nos",
            "kind": "utca",
            "post_code": 0
        },
        {
            "name": "Luther",
            "kind": "k\u00f6z",
            "post_code": 0
        },
        {
            "name": "Mad\u00e1ch Imre",
            "kind": "utca",
            "post_code": 0
        },
        {
            "name": "Mad\u00e1r",
            "kind": "utca",
            "post_code": 0
        },
        {
            "name": "Magt\u00e1r",
            "kind": "utca",
            "post_code": 0
        },
        {
            "name": "Magvet\u0151",
            "kind": "utca",
            "post_code": 0
        },
        {
            "name": "Magyar",
            "kind": "utca",
            "post_code": 0
        },
        {
            "name": "Maj\u00e1lis",
            "kind": "utca",
            "post_code": 0
        },
        {
            "name": "M\u00e1lna",
            "kind": "utca",
            "post_code": 0
        },
        {
            "name": "Malom",
            "kind": "k\u00f6z",
            "post_code": 0
        },
        {
            "name": "M\u00e1lyva",
            "kind": "utca",
            "post_code": 0
        },
        {
            "name": "Mandula",
            "kind": "utca",
            "post_code": 0
        },
        {
            "name": "M\u00e1rai S\u00e1ndor",
            "kind": "utca",
            "post_code": 0
        },
        {
            "name": "M\u00e1rcius 15.",
            "kind": "utca",
            "post_code": 0
        },
        {
            "name": "Margar\u00e9ta",
            "kind": "utca",
            "post_code": 0
        },
        {
            "name": "Margit",
            "kind": "utca",
            "post_code": 0
        },
        {
            "name": "M\u00e1ria",
            "kind": "k\u00f6r\u00fat",
            "post_code": 0
        },
        {
            "name": "M\u00e1ria",
            "kind": "utca",
            "post_code": 0
        },
        {
            "name": "M\u00e1rkus G\u00e9za",
            "kind": "utca",
            "post_code": 0
        },
        {
            "name": "Maros",
            "kind": "utca",
            "post_code": 0
        },
        {
            "name": "Marozsi",
            "kind": "utca",
            "post_code": 0
        },
        {
            "name": "Martinovics",
            "kind": "utca",
            "post_code": 0
        },
        {
            "name": "M\u00e1rt\u00edrok",
            "kind": "\u00fatja",
            "post_code": 0
        },
        {
            "name": "M\u00e1rton \u00c1ron",
            "kind": "utca",
            "post_code": 0
        },
        {
            "name": "Martos Fl\u00f3ra",
            "kind": "utca",
            "post_code": 0
        },
        {
            "name": "M\u00e1rv\u00e1ny",
            "kind": "utca",
            "post_code": 0
        },
        {
            "name": "Mathi\u00e1sz J\u00e1nos",
            "kind": "utca",
            "post_code": 0
        },
        {
            "name": "Matis K\u00e1lm\u00e1n",
            "kind": "utca",
            "post_code": 0
        },
        {
            "name": "Matk\u00f3i",
            "kind": "\u00fat",
            "post_code": 0
        },
        {
            "name": "M\u00e1tra",
            "kind": "utca",
            "post_code": 0
        },
        {
            "name": "M\u00e1ty\u00e1si",
            "kind": "utca",
            "post_code": 0
        },
        {
            "name": "M\u00e1ty\u00e1s kir\u00e1ly",
            "kind": "k\u00f6r\u00fat",
            "post_code": 0
        },
        {
            "name": "M\u00e9cses",
            "kind": "utca",
            "post_code": 0
        },
        {
            "name": "M\u00e9csvir\u00e1g",
            "kind": "utca",
            "post_code": 0
        },
        {
            "name": "Meggyfa",
            "kind": "utca",
            "post_code": 0
        },
        {
            "name": "Meggy",
            "kind": "utca",
            "post_code": 0
        },
        {
            "name": "M\u00e9h\u00e9sz",
            "kind": "utca",
            "post_code": 0
        },
        {
            "name": "Melinda",
            "kind": "utca",
            "post_code": 0
        },
        {
            "name": "M\u00e9rleg",
            "kind": "utca",
            "post_code": 0
        },
        {
            "name": "Mester",
            "kind": "utca",
            "post_code": 0
        },
        {
            "name": "M\u00e9sz\u00e1ros L\u00e1z\u00e1r",
            "kind": "t\u00e9r",
            "post_code": 0
        },
        {
            "name": "M\u00e9sz\u00f6ly Gyula",
            "kind": "\u00fat",
            "post_code": 0
        },
        {
            "name": "M\u00e9sz\u00f6ly Gyula",
            "kind": "utca",
            "post_code": 0
        },
        {
            "name": "Mezei",
            "kind": "utca",
            "post_code": 0
        },
        {
            "name": "Mez\u0151fi",
            "kind": "utca",
            "post_code": 0
        },
        {
            "name": "Mez\u0151sz\u00e9l",
            "kind": "sor",
            "post_code": 0
        },
        {
            "name": "Mih\u00f3",
            "kind": "utca",
            "post_code": 0
        },
        {
            "name": "Mikes Kelemen",
            "kind": "utca",
            "post_code": 0
        },
        {
            "name": "Mikl\u00f3s Gyula",
            "kind": "utca",
            "post_code": 0
        },
        {
            "name": "Mikl\u00f3stelepi",
            "kind": "\u00fat",
            "post_code": 0
        },
        {
            "name": "Miksz\u00e1th K\u00e1lm\u00e1n",
            "kind": "k\u00f6r\u00fat",
            "post_code": 0
        },
        {
            "name": "Mim\u00f3za",
            "kind": "utca",
            "post_code": 0
        },
        {
            "name": "Mindszenti",
            "kind": "k\u00f6r\u00fat",
            "post_code": 0
        },
        {
            "name": "Mogyor\u00f3",
            "kind": "utca",
            "post_code": 0
        },
        {
            "name": "Moha",
            "kind": "utca",
            "post_code": 0
        },
        {
            "name": "M\u00f3kus",
            "kind": "utca",
            "post_code": 0
        },
        {
            "name": "Momofuku",
            "kind": "utca",
            "post_code": 0
        },
        {
            "name": "Monostori",
            "kind": "utca",
            "post_code": 0
        },
        {
            "name": "M\u00f3ra Ferenc",
            "kind": "utca",
            "post_code": 0
        },
        {
            "name": "M\u00f3ricz Zsigmond",
            "kind": "utca",
            "post_code": 0
        },
        {
            "name": "Mozart",
            "kind": "utca",
            "post_code": 0
        },
        {
            "name": "Mozs\u00e1r",
            "kind": "utca",
            "post_code": 0
        },
        {
            "name": "M\u0171kerti",
            "kind": "s\u00e9t\u00e1ny",
            "post_code": 0
        },
        {
            "name": "Munk\u00e1csy Mih\u00e1ly",
            "kind": "utca",
            "post_code": 0
        },
        {
            "name": "Murak\u00f6zy J\u00e1nos",
            "kind": "utca",
            "post_code": 0
        },
        {
            "name": "Mur\u00e1nyi",
            "kind": "utca",
            "post_code": 0
        },
        {
            "name": "Musk\u00e1tli",
            "kind": "utca",
            "post_code": 0
        },
        {
            "name": "Muskot\u00e1ly",
            "kind": "utca",
            "post_code": 0
        },
        {
            "name": "M\u0171v\u00e9sz",
            "kind": "utca",
            "post_code": 0
        },
        {
            "name": "N\u00e1dasdi K\u00e1lm\u00e1n",
            "kind": "utca",
            "post_code": 0
        },
        {
            "name": "N\u00e1das",
            "kind": "utca",
            "post_code": 0
        },
        {
            "name": "N\u00e1dor",
            "kind": "utca",
            "post_code": 0
        },
        {
            "name": "Nagyenyed",
            "kind": "utca",
            "post_code": 0
        },
        {
            "name": "Nagyk\u00f6r\u00f6si",
            "kind": "\u00fat",
            "post_code": 0
        },
        {
            "name": "Nagyk\u0151r\u00f6si",
            "kind": "utca",
            "post_code": 0
        },
        {
            "name": "Nagy Lajos kir\u00e1ly",
            "kind": "k\u00f6r\u00fat",
            "post_code": 0
        },
        {
            "name": "Nagy L\u00e1szl\u00f3",
            "kind": "utca",
            "post_code": 0
        },
        {
            "name": "Nagyv\u00e1radi",
            "kind": "utca",
            "post_code": 0
        },
        {
            "name": "Napf\u00e9ny",
            "kind": "utca",
            "post_code": 0
        },
        {
            "name": "Napkelet",
            "kind": "utca",
            "post_code": 0
        },
        {
            "name": "Napraforg\u00f3",
            "kind": "utca",
            "post_code": 0
        },
        {
            "name": "Napsug\u00e1r",
            "kind": "utca",
            "post_code": 0
        },
        {
            "name": "Nap",
            "kind": "utca",
            "post_code": 0
        },
        {
            "name": "N\u00e1rcisz",
            "kind": "utca",
            "post_code": 0
        },
        {
            "name": "Neb\u00e1ncsvir\u00e1g",
            "kind": "utca",
            "post_code": 0
        },
        {
            "name": "Nefelejcs",
            "kind": "utca",
            "post_code": 0
        },
        {
            "name": "Nekt\u00e1r",
            "kind": "utca",
            "post_code": 0
        },
        {
            "name": "Nemesszeghy M\u00e1rta",
            "kind": "utca",
            "post_code": 0
        },
        {
            "name": "N\u00e9meth L\u00e1szl\u00f3",
            "kind": "utca",
            "post_code": 0
        },
        {
            "name": "N\u00e9pdal",
            "kind": "utca",
            "post_code": 0
        },
        {
            "name": "Nom\u00e1d",
            "kind": "utca",
            "post_code": 0
        },
        {
            "name": "Noszlopy G\u00e1sp\u00e1r",
            "kind": "park",
            "post_code": 0
        },
        {
            "name": "Ny\u00e1rfa",
            "kind": "utca",
            "post_code": 0
        },
        {
            "name": "Ny\u00e1r",
            "kind": "utca",
            "post_code": 0
        },
        {
            "name": "Nyereg",
            "kind": "utca",
            "post_code": 0
        },
        {
            "name": "Ny\u00edl",
            "kind": "utca",
            "post_code": 0
        },
        {
            "name": "Ny\u00edrfa",
            "kind": "utca",
            "post_code": 0
        },
        {
            "name": "Ny\u00edri",
            "kind": "\u00fat",
            "post_code": 0
        },
        {
            "name": "Ny\u00edr\u0151 J\u00f3zsef",
            "kind": "k\u00f6z",
            "post_code": 0
        },
        {
            "name": "Nyitra",
            "kind": "utca",
            "post_code": 0
        },
        {
            "name": "Nyomda",
            "kind": "utca",
            "post_code": 0
        },
        {
            "name": "\u00d6b\u00f6l",
            "kind": "utca",
            "post_code": 0
        },
        {
            "name": "Obsitos",
            "kind": "utca",
            "post_code": 0
        },
        {
            "name": "Ojtozi",
            "kind": "utca",
            "post_code": 0
        },
        {
            "name": "Olimpia",
            "kind": "utca",
            "post_code": 0
        },
        {
            "name": "Olt",
            "kind": "utca",
            "post_code": 0
        },
        {
            "name": "Oltv\u00e1ny",
            "kind": "utca",
            "post_code": 0
        },
        {
            "name": "\u00d6nt\u00f6z\u0151",
            "kind": "utca",
            "post_code": 0
        },
        {
            "name": "Orchidea",
            "kind": "utca",
            "post_code": 0
        },
        {
            "name": "Orgona",
            "kind": "utca",
            "post_code": 0
        },
        {
            "name": "\u00d6rk\u00e9ny Istv\u00e1n",
            "kind": "utca",
            "post_code": 0
        },
        {
            "name": "\u0150rtorony",
            "kind": "utca",
            "post_code": 0
        },
        {
            "name": "\u00d6sv\u00e9ny",
            "kind": "utca",
            "post_code": 0
        },
        {
            "name": "\u0150szibarack",
            "kind": "utca",
            "post_code": 0
        },
        {
            "name": "\u0150szir\u00f3zsa",
            "kind": "utca",
            "post_code": 0
        },
        {
            "name": "\u0150sz",
            "kind": "utca",
            "post_code": 0
        },
        {
            "name": "\u00d3temet\u0151",
            "kind": "utca",
            "post_code": 0
        },
        {
            "name": "\u0150z",
            "kind": "utca",
            "post_code": 0
        },
        {
            "name": "Pablo Casals",
            "kind": "utca",
            "post_code": 0
        },
        {
            "name": "Pacsirta",
            "kind": "utca",
            "post_code": 0
        },
        {
            "name": "P\u00e1fr\u00e1ny",
            "kind": "utca",
            "post_code": 0
        },
        {
            "name": "Pajt\u00e1s",
            "kind": "utca",
            "post_code": 0
        },
        {
            "name": "Pajzs",
            "kind": "utca",
            "post_code": 0
        },
        {
            "name": "P\u00e1kozdi csata",
            "kind": "utca",
            "post_code": 0
        },
        {
            "name": "Pal\u00e1st",
            "kind": "utca",
            "post_code": 0
        },
        {
            "name": "Paletta",
            "kind": "utca",
            "post_code": 0
        },
        {
            "name": "Pall\u00f3 Imre",
            "kind": "utca",
            "post_code": 0
        },
        {
            "name": "P\u00e1lma",
            "kind": "utca",
            "post_code": 0
        },
        {
            "name": "Palota",
            "kind": "utca",
            "post_code": 0
        },
        {
            "name": "P\u00e1pai Vinc\u00e9n\u00e9",
            "kind": "utca",
            "post_code": 0
        },
        {
            "name": "Paprika",
            "kind": "utca",
            "post_code": 0
        },
        {
            "name": "P\u00e1rk\u00e1ny",
            "kind": "utca",
            "post_code": 0
        },
        {
            "name": "P\u00e1rtos Gyula",
            "kind": "utca",
            "post_code": 0
        },
        {
            "name": "P\u00e1sthy K\u00e1roly",
            "kind": "",
            "post_code": 0
        },
        {
            "name": "P\u00e1sztor",
            "kind": "utca",
            "post_code": 0
        },
        {
            "name": "P\u00e1szt\u00f3y",
            "kind": "utca",
            "post_code": 0
        },
        {
            "name": "Patak",
            "kind": "utca",
            "post_code": 0
        },
        {
            "name": "P\u00e1va",
            "kind": "utca",
            "post_code": 0
        },
        {
            "name": "P\u00e1zm\u00e1ny P\u00e9ter",
            "kind": "utca",
            "post_code": 0
        },
        {
            "name": "P\u00e1zsit",
            "kind": "utca",
            "post_code": 0
        },
        {
            "name": "P\u00e9csv\u00e1rad",
            "kind": "utca",
            "post_code": 0
        },
        {
            "name": "Pelik\u00e1n",
            "kind": "utca",
            "post_code": 0
        },
        {
            "name": "Perc",
            "kind": "utca",
            "post_code": 0
        },
        {
            "name": "Perczel M\u00f3r",
            "kind": "utca",
            "post_code": 0
        },
        {
            "name": "P\u00e9ter",
            "kind": "utca",
            "post_code": 0
        },
        {
            "name": "Pet\u0151fi S\u00e1ndor",
            "kind": "utca",
            "post_code": 0
        },
        {
            "name": "Petrovics Istv\u00e1n",
            "kind": "utca",
            "post_code": 0
        },
        {
            "name": "Pet\u00fania",
            "kind": "utca",
            "post_code": 0
        },
        {
            "name": "Pet\u00far b\u00e1n",
            "kind": "utca",
            "post_code": 0
        },
        {
            "name": "Piarist\u00e1k",
            "kind": "tere",
            "post_code": 0
        },
        {
            "name": "Pilinszky J\u00e1nos",
            "kind": "utca",
            "post_code": 0
        },
        {
            "name": "Pillang\u00f3",
            "kind": "utca",
            "post_code": 0
        },
        {
            "name": "Pipacsmez\u0151",
            "kind": "utca",
            "post_code": 0
        },
        {
            "name": "Pipacs",
            "kind": "utca",
            "post_code": 0
        },
        {
            "name": "Pirosarany",
            "kind": "utca",
            "post_code": 0
        },
        {
            "name": "Plat\u00e1n",
            "kind": "utca",
            "post_code": 0
        },
        {
            "name": "Platter J\u00e1nos",
            "kind": "utca",
            "post_code": 0
        },
        {
            "name": "Platthy",
            "kind": "utca",
            "post_code": 0
        },
        {
            "name": "Pl\u00e9b\u00e1nia",
            "kind": "k\u00f6z",
            "post_code": 0
        },
        {
            "name": "Popr\u00e1d",
            "kind": "utca",
            "post_code": 0
        },
        {
            "name": "P\u00f3sa Lajos",
            "kind": "utca",
            "post_code": 0
        },
        {
            "name": "Posta",
            "kind": "utca",
            "post_code": 0
        },
        {
            "name": "Pozsonyi",
            "kind": "utca",
            "post_code": 0
        },
        {
            "name": "Pr\u00e9sh\u00e1z",
            "kind": "utca",
            "post_code": 0
        },
        {
            "name": "Pusk\u00e1s Tivadar",
            "kind": "utca",
            "post_code": 0
        },
        {
            "name": "P\u00fcsp\u00f6k",
            "kind": "utca",
            "post_code": 0
        },
        {
            "name": "Pusztaszeri",
            "kind": "utca",
            "post_code": 0
        },
        {
            "name": "Putnoki J\u00e1nos",
            "kind": "utca",
            "post_code": 0
        },
        {
            "name": "R\u00e1ba",
            "kind": "utca",
            "post_code": 0
        },
        {
            "name": "Radn\u00f3ti Mikl\u00f3s",
            "kind": "utca",
            "post_code": 0
        },
        {
            "name": "R\u00e1k\u00f3czi",
            "kind": "\u00fat",
            "post_code": 0
        },
        {
            "name": "Rakt\u00e1r",
            "kind": "utca",
            "post_code": 0
        },
        {
            "name": "R\u00e1v\u00e1gy",
            "kind": "t\u00e9r",
            "post_code": 0
        },
        {
            "name": "Reile G\u00e9za",
            "kind": "utca",
            "post_code": 0
        },
        {
            "name": "Rem\u00e9ny",
            "kind": "utca",
            "post_code": 0
        },
        {
            "name": "Repk\u00e9ny",
            "kind": "utca",
            "post_code": 0
        },
        {
            "name": "Rept\u00e9ri",
            "kind": "lak\u00f3telep",
            "post_code": 0
        },
        {
            "name": "Rept\u00e9ri",
            "kind": "\u00fat",
            "post_code": 0
        },
        {
            "name": "R\u00e9t",
            "kind": "utca",
            "post_code": 0
        },
        {
            "name": "R\u00e9v\u00e9sz Imre",
            "kind": "utca",
            "post_code": 0
        },
        {
            "name": "Reviczky Gyula",
            "kind": "utca",
            "post_code": 0
        },
        {
            "name": "Rezeda",
            "kind": "utca",
            "post_code": 0
        },
        {
            "name": "Rezg\u0151",
            "kind": "utca",
            "post_code": 0
        },
        {
            "name": "Rig\u00f3",
            "kind": "k\u00f6z",
            "post_code": 0
        },
        {
            "name": "Rig\u00f3",
            "kind": "utca",
            "post_code": 0
        },
        {
            "name": "R\u00f3na",
            "kind": "utca",
            "post_code": 0
        },
        {
            "name": "Rosta",
            "kind": "utca",
            "post_code": 0
        },
        {
            "name": "Rozmaring",
            "kind": "utca",
            "post_code": 0
        },
        {
            "name": "R\u00f3zsabarack",
            "kind": "utca",
            "post_code": 0
        },
        {
            "name": "R\u00f3zsabokor",
            "kind": "utca",
            "post_code": 0
        },
        {
            "name": "R\u00f3zsafa",
            "kind": "utca",
            "post_code": 0
        },
        {
            "name": "R\u00f3zsaliget",
            "kind": "utca",
            "post_code": 0
        },
        {
            "name": "R\u00f3zsa",
            "kind": "utca",
            "post_code": 0
        },
        {
            "name": "R\u00f3zsav\u00f6lgyi",
            "kind": "t\u00e9r",
            "post_code": 0
        },
        {
            "name": "Rozsny\u00f3i",
            "kind": "utca",
            "post_code": 0
        },
        {
            "name": "R\u00fcgy",
            "kind": "utca",
            "post_code": 0
        },
        {
            "name": "S\u00e1fr\u00e1ny",
            "kind": "utca",
            "post_code": 0
        },
        {
            "name": "Saj\u00f3",
            "kind": "utca",
            "post_code": 0
        },
        {
            "name": "S\u00e1ntha Gy\u00f6rgy",
            "kind": "k\u00f6z",
            "post_code": 0
        },
        {
            "name": "Sarkanty\u00fa",
            "kind": "utca",
            "post_code": 0
        },
        {
            "name": "S\u00e1rk\u00e1ny",
            "kind": "utca",
            "post_code": 0
        },
        {
            "name": "Sarl\u00f3",
            "kind": "utca",
            "post_code": 0
        },
        {
            "name": "Sarolta",
            "kind": "\u00fat",
            "post_code": 0
        },
        {
            "name": "Sarolta",
            "kind": "utca",
            "post_code": 0
        },
        {
            "name": "S\u00e1rospatak",
            "kind": "utca",
            "post_code": 0
        },
        {
            "name": "S\u00e1rv\u00e1r",
            "kind": "utca",
            "post_code": 0
        },
        {
            "name": "S\u00e1s",
            "kind": "utca",
            "post_code": 0
        },
        {
            "name": "Segesv\u00e1ri",
            "kind": "utca",
            "post_code": 0
        },
        {
            "name": "Sell\u0151",
            "kind": "utca",
            "post_code": 0
        },
        {
            "name": "Selyem",
            "kind": "utca",
            "post_code": 0
        },
        {
            "name": "Semmelweis",
            "kind": "utca",
            "post_code": 0
        },
        {
            "name": "Serf\u0151z\u0151",
            "kind": "utca",
            "post_code": 0
        },
        {
            "name": "Serleg",
            "kind": "utca",
            "post_code": 0
        },
        {
            "name": "S\u00e9t\u00e1l\u00f3",
            "kind": "utca",
            "post_code": 0
        },
        {
            "name": "S\u00e9tat\u00e9r",
            "kind": "utca",
            "post_code": 0
        },
        {
            "name": "Sikl\u00f3s",
            "kind": "utca",
            "post_code": 0
        },
        {
            "name": "Simonyi",
            "kind": "utca",
            "post_code": 0
        },
        {
            "name": "Sink\u00f3 Ervin",
            "kind": "utca",
            "post_code": 0
        },
        {
            "name": "Si\u00f3",
            "kind": "utca",
            "post_code": 0
        },
        {
            "name": "Sir\u00e1ly",
            "kind": "utca",
            "post_code": 0
        },
        {
            "name": "Smetana",
            "kind": "t\u00e9r",
            "post_code": 0
        },
        {
            "name": "Smetana",
            "kind": "utca",
            "post_code": 0
        },
        {
            "name": "S\u00f3hord\u00f3",
            "kind": "\u00fat",
            "post_code": 0
        },
        {
            "name": "S\u00f3lyom",
            "kind": "utca",
            "post_code": 0
        },
        {
            "name": "Soml\u00f3",
            "kind": "utca",
            "post_code": 0
        },
        {
            "name": "S\u00f6rh\u00e1z",
            "kind": "utca",
            "post_code": 0
        },
        {
            "name": "Sosztakovics",
            "kind": "utca",
            "post_code": 0
        },
        {
            "name": "S\u00f6v\u00e9ny",
            "kind": "utca",
            "post_code": 0
        },
        {
            "name": "S\u00f3vir\u00e1g",
            "kind": "utca",
            "post_code": 0
        },
        {
            "name": "Sport",
            "kind": "utca",
            "post_code": 0
        },
        {
            "name": "St\u00e1dium",
            "kind": "utca",
            "post_code": 0
        },
        {
            "name": "Str\u00e1zsa",
            "kind": "utca",
            "post_code": 0
        },
        {
            "name": "Sug\u00e1r",
            "kind": "utca",
            "post_code": 0
        },
        {
            "name": "Sulyok",
            "kind": "utca",
            "post_code": 0
        },
        {
            "name": "Sutus",
            "kind": "sor",
            "post_code": 0
        },
        {
            "name": "Szabadkai",
            "kind": "utca",
            "post_code": 0
        },
        {
            "name": "Szabad",
            "kind": "utca",
            "post_code": 0
        },
        {
            "name": "Szab\u00f3 K\u00e1lm\u00e1n",
            "kind": "utca",
            "post_code": 0
        },
        {
            "name": "Szab\u00f3 L\u0151rinc",
            "kind": "utca",
            "post_code": 0
        },
        {
            "name": "Szalag",
            "kind": "utca",
            "post_code": 0
        },
        {
            "name": "Sz\u00e1mad\u00f3",
            "kind": "utca",
            "post_code": 0
        },
        {
            "name": "Szam\u00f3ca",
            "kind": "utca",
            "post_code": 0
        },
        {
            "name": "Szamos",
            "kind": "utca",
            "post_code": 0
        },
        {
            "name": "Sz\u00e1rcsa",
            "kind": "utca",
            "post_code": 0
        },
        {
            "name": "Szarkal\u00e1b",
            "kind": "utca",
            "post_code": 0
        },
        {
            "name": "Szarka",
            "kind": "utca",
            "post_code": 0
        },
        {
            "name": "Sz\u00e1rny",
            "kind": "utca",
            "post_code": 0
        },
        {
            "name": "Szarvas",
            "kind": "utca",
            "post_code": 0
        },
        {
            "name": "Sz\u00e1va",
            "kind": "utca",
            "post_code": 0
        },
        {
            "name": "Sz\u00e1zszorsz\u00e9p",
            "kind": "utca",
            "post_code": 0
        },
        {
            "name": "Szeben",
            "kind": "utca",
            "post_code": 0
        },
        {
            "name": "Sz\u00e9chenyi Istv\u00e1n",
            "kind": "s\u00e9t\u00e1ny",
            "post_code": 0
        },
        {
            "name": "Sz\u00e9chenyi",
            "kind": "k\u00f6r\u00fat",
            "post_code": 0
        },
        {
            "name": "Sz\u00e9chenyi",
            "kind": "t\u00e9r",
            "post_code": 0
        },
        {
            "name": "Sz\u00e9chy",
            "kind": "utca",
            "post_code": 0
        },
        {
            "name": "Szeder",
            "kind": "utca",
            "post_code": 0
        },
        {
            "name": "Szegedi",
            "kind": "\u00fat",
            "post_code": 0
        },
        {
            "name": "Szegf\u0171",
            "kind": "utca",
            "post_code": 0
        },
        {
            "name": "Sz\u00e9kely Bertalan",
            "kind": "utca",
            "post_code": 0
        },
        {
            "name": "Sz\u00e9kelyfon\u00f3",
            "kind": "utca",
            "post_code": 0
        },
        {
            "name": "Sz\u00e9kelytelepi",
            "kind": "utca",
            "post_code": 0
        },
        {
            "name": "Sz\u00e9kt\u00f3",
            "kind": "utca",
            "post_code": 0
        },
        {
            "name": "Sz\u00e9les",
            "kind": "k\u00f6z",
            "post_code": 0
        },
        {
            "name": "Szell\u0151",
            "kind": "utca",
            "post_code": 0
        },
        {
            "name": "Sz\u00e9lmalom",
            "kind": "utca",
            "post_code": 0
        },
        {
            "name": "Szemere Bertalan",
            "kind": "utca",
            "post_code": 0
        },
        {
            "name": "Sz\u00e9na",
            "kind": "utca",
            "post_code": 0
        },
        {
            "name": "Szent Gell\u00e9rt",
            "kind": "utca",
            "post_code": 0
        },
        {
            "name": "Szent-Gy\u00f6rgyi Albert",
            "kind": "utca",
            "post_code": 0
        },
        {
            "name": "Szent Imre",
            "kind": "utca",
            "post_code": 0
        },
        {
            "name": "Szent Istv\u00e1n",
            "kind": "k\u00f6r\u00fat",
            "post_code": 0
        },
        {
            "name": "Szent L\u00e1szl\u00f3",
            "kind": "k\u00f6r\u00fat",
            "post_code": 0
        },
        {
            "name": "Szent Mikl\u00f3s",
            "kind": "utca",
            "post_code": 0
        },
        {
            "name": "Sz\u00e9p Ilonka",
            "kind": "utca",
            "post_code": 0
        },
        {
            "name": "Sz\u00e9p",
            "kind": "utca",
            "post_code": 0
        },
        {
            "name": "Sz\u00e9r\u0171skert",
            "kind": "utca",
            "post_code": 0
        },
        {
            "name": "Sziget",
            "kind": "utca",
            "post_code": 0
        },
        {
            "name": "Szigliget",
            "kind": "utca",
            "post_code": 0
        },
        {
            "name": "Szil\u00e1dy K\u00e1roly",
            "kind": "utca",
            "post_code": 0
        },
        {
            "name": "Szil\u00e1gyi Erzs\u00e9bet",
            "kind": "utca",
            "post_code": 0
        },
        {
            "name": "Szilfa",
            "kind": "utca",
            "post_code": 0
        },
        {
            "name": "Szimferopol",
            "kind": "t\u00e9r",
            "post_code": 0
        },
        {
            "name": "Szinyei Merse P\u00e1l",
            "kind": "utca",
            "post_code": 0
        },
        {
            "name": "Szirom",
            "kind": "utca",
            "post_code": 0
        },
        {
            "name": "Szitak\u00f6t\u0151",
            "kind": "",
            "post_code": 0
        },
        {
            "name": "Szitak\u00f6t\u0151",
            "kind": "utca",
            "post_code": 0
        },
        {
            "name": "Sziv\u00e1rv\u00e1ny",
            "kind": "utca",
            "post_code": 0
        },
        {
            "name": "Sz\u00edv\u00f3s",
            "kind": "utca",
            "post_code": 0
        },
        {
            "name": "Sz\u00edv",
            "kind": "utca",
            "post_code": 0
        },
        {
            "name": "Szlemenics",
            "kind": "k\u00f6z",
            "post_code": 0
        },
        {
            "name": "Szlemenics",
            "kind": "utca",
            "post_code": 0
        },
        {
            "name": "Sz\u00f6cske",
            "kind": "utca",
            "post_code": 0
        },
        {
            "name": "Szolnoki",
            "kind": "\u00fat",
            "post_code": 0
        },
        {
            "name": "Sz\u0151l\u0151f\u00fcrt",
            "kind": "utca",
            "post_code": 0
        },
        {
            "name": "Sz\u0151l\u0151skert",
            "kind": "utca",
            "post_code": 0
        },
        {
            "name": "Sz\u0151l\u0151szem",
            "kind": "utca",
            "post_code": 0
        },
        {
            "name": "Sz\u0151l\u0151",
            "kind": "utca",
            "post_code": 0
        },
        {
            "name": "Szondy",
            "kind": "utca",
            "post_code": 0
        },
        {
            "name": "Sz\u00f6vets\u00e9g",
            "kind": "t\u00e9r",
            "post_code": 0
        },
        {
            "name": "Sz\u00f6vets\u00e9g",
            "kind": "utca",
            "post_code": 0
        },
        {
            "name": "Sztravinszkij",
            "kind": "utca",
            "post_code": 0
        },
        {
            "name": "Sz\u00fcl\u0151f\u00f6ld",
            "kind": "utca",
            "post_code": 0
        },
        {
            "name": "Szult\u00e1n",
            "kind": "utca",
            "post_code": 0
        },
        {
            "name": "Sz\u00fcret",
            "kind": "utca",
            "post_code": 0
        },
        {
            "name": "Tab\u00e1n",
            "kind": "utca",
            "post_code": 0
        },
        {
            "name": "Talf\u00e1ja",
            "kind": "k\u00f6z",
            "post_code": 0
        },
        {
            "name": "Talf\u00e1ja",
            "kind": "tanya",
            "post_code": 0
        },
        {
            "name": "Taliga",
            "kind": "utca",
            "post_code": 0
        },
        {
            "name": "T\u00e1ltos",
            "kind": "utca",
            "post_code": 0
        },
        {
            "name": "Tam\u00e1si \u00c1ron",
            "kind": "utca",
            "post_code": 0
        },
        {
            "name": "T\u00e1ncsics Mih\u00e1ly",
            "kind": "utca",
            "post_code": 0
        },
        {
            "name": "Tanu",
            "kind": "k\u00f6z",
            "post_code": 0
        },
        {
            "name": "Tat\u00e1r",
            "kind": "sor",
            "post_code": 0
        },
        {
            "name": "Tatay Andr\u00e1s",
            "kind": "utca",
            "post_code": 0
        },
        {
            "name": "T\u00e1tika",
            "kind": "utca",
            "post_code": 0
        },
        {
            "name": "T\u00e1tra",
            "kind": "utca",
            "post_code": 0
        },
        {
            "name": "Tavaszmez\u0151",
            "kind": "utca",
            "post_code": 0
        },
        {
            "name": "Tavasz",
            "kind": "utca",
            "post_code": 0
        },
        {
            "name": "Tavir\u00f3zsa",
            "kind": "utca",
            "post_code": 0
        },
        {
            "name": "T\u00e9glagy\u00e1r",
            "kind": "utca",
            "post_code": 0
        },
        {
            "name": "T\u00e9gl\u00e1s",
            "kind": "utca",
            "post_code": 0
        },
        {
            "name": "Teleki L\u00e1szl\u00f3",
            "kind": "utca",
            "post_code": 0
        },
        {
            "name": "Teleki P\u00e1l",
            "kind": "t\u00e9r",
            "post_code": 0
        },
        {
            "name": "T\u00e9l",
            "kind": "utca",
            "post_code": 0
        },
        {
            "name": "Temes",
            "kind": "t\u00e9r",
            "post_code": 0
        },
        {
            "name": "Th\u00f6k\u00f6ly",
            "kind": "\u00fat",
            "post_code": 0
        },
        {
            "name": "Tiborc",
            "kind": "utca",
            "post_code": 0
        },
        {
            "name": "Tihany",
            "kind": "utca",
            "post_code": 0
        },
        {
            "name": "T\u00edm\u00e1r",
            "kind": "utca",
            "post_code": 0
        },
        {
            "name": "Tin\u00f3di",
            "kind": "utca",
            "post_code": 0
        },
        {
            "name": "Tiszafa",
            "kind": "utca",
            "post_code": 0
        },
        {
            "name": "Tisza",
            "kind": "utca",
            "post_code": 0
        },
        {
            "name": "Tiszavir\u00e1g",
            "kind": "utca",
            "post_code": 0
        },
        {
            "name": "Tizedes",
            "kind": "utca",
            "post_code": 0
        },
        {
            "name": "Toldi",
            "kind": "utca",
            "post_code": 0
        },
        {
            "name": "T\u00f6lgyesi",
            "kind": "utca",
            "post_code": 0
        },
        {
            "name": "T\u00f6lgyfa",
            "kind": "utca",
            "post_code": 0
        },
        {
            "name": "Tolnai",
            "kind": "utca",
            "post_code": 0
        },
        {
            "name": "Tomori P\u00e1l",
            "kind": "utca",
            "post_code": 0
        },
        {
            "name": "T\u00f6m\u00f6rk\u00e9ny Istv\u00e1n",
            "kind": "utca",
            "post_code": 0
        },
        {
            "name": "Tompa Mih\u00e1ly",
            "kind": "utca",
            "post_code": 0
        },
        {
            "name": "T\u00f3part",
            "kind": "utca",
            "post_code": 0
        },
        {
            "name": "Tordai",
            "kind": "utca",
            "post_code": 0
        },
        {
            "name": "Torock\u00f3i",
            "kind": "utca",
            "post_code": 0
        },
        {
            "name": "T\u00f6r\u00f6k",
            "kind": "utca",
            "post_code": 0
        },
        {
            "name": "Torony",
            "kind": "utca",
            "post_code": 0
        },
        {
            "name": "T\u00f6rv\u00e9nyk\u00f6nyv",
            "kind": "utca",
            "post_code": 0
        },
        {
            "name": "Toscanini",
            "kind": "utca",
            "post_code": 0
        },
        {
            "name": "T\u00f3th \u00c1rp\u00e1d",
            "kind": "utca",
            "post_code": 0
        },
        {
            "name": "T\u00f3th L\u00e1szl\u00f3",
            "kind": "s\u00e9t\u00e1ny",
            "post_code": 0
        },
        {
            "name": "T\u00f6vis",
            "kind": "utca",
            "post_code": 0
        },
        {
            "name": "Traf\u00f3",
            "kind": "utca",
            "post_code": 0
        },
        {
            "name": "Trombita",
            "kind": "utca",
            "post_code": 0
        },
        {
            "name": "T\u00fccs\u00f6k",
            "kind": "utca",
            "post_code": 0
        },
        {
            "name": "Tulip\u00e1n",
            "kind": "utca",
            "post_code": 0
        },
        {
            "name": "T\u00fcnd\u00e9rf\u00fcrt",
            "kind": "utca",
            "post_code": 0
        },
        {
            "name": "T\u00fcnd\u00e9rr\u00f3zsa",
            "kind": "utca",
            "post_code": 0
        },
        {
            "name": "T\u0171ske",
            "kind": "utca",
            "post_code": 0
        },
        {
            "name": "Tusn\u00e1d",
            "kind": "utca",
            "post_code": 0
        },
        {
            "name": "T\u00fcz\u00e9r",
            "kind": "utca",
            "post_code": 0
        },
        {
            "name": "T\u00fazok",
            "kind": "utca",
            "post_code": 0
        },
        {
            "name": "T\u0171zolt\u00f3",
            "kind": "utca",
            "post_code": 0
        },
        {
            "name": "Udvarhelyi",
            "kind": "utca",
            "post_code": 0
        },
        {
            "name": "\u00dajerd\u0151",
            "kind": "utca",
            "post_code": 0
        },
        {
            "name": "\u00dajvid\u00e9k",
            "kind": "t\u00e9r",
            "post_code": 0
        },
        {
            "name": "\u00dajvil\u00e1g",
            "kind": "utca",
            "post_code": 0
        },
        {
            "name": "Ungv\u00e1ri",
            "kind": "utca",
            "post_code": 0
        },
        {
            "name": "\u00darihegy",
            "kind": "",
            "post_code": 0
        },
        {
            "name": "\u00darr\u00e9t",
            "kind": "tanya",
            "post_code": 0
        },
        {
            "name": "Usz\u00e1ly",
            "kind": "utca",
            "post_code": 0
        },
        {
            "name": "Uzsoki",
            "kind": "utca",
            "post_code": 0
        },
        {
            "name": "Vacsi-hegy",
            "kind": "",
            "post_code": 0
        },
        {
            "name": "Vacsi",
            "kind": "k\u00f6z",
            "post_code": 0
        },
        {
            "name": "Vacsi",
            "kind": "utca",
            "post_code": 0
        },
        {
            "name": "V\u00e1czi J\u00e1nos",
            "kind": "utca",
            "post_code": 0
        },
        {
            "name": "Vadalma",
            "kind": "utca",
            "post_code": 0
        },
        {
            "name": "Vadaskert",
            "kind": "utca",
            "post_code": 0
        },
        {
            "name": "Vad\u00e1sz",
            "kind": "utca",
            "post_code": 0
        },
        {
            "name": "Vadk\u00f6rte",
            "kind": "utca",
            "post_code": 0
        },
        {
            "name": "Vadr\u00f3zsa",
            "kind": "utca",
            "post_code": 0
        },
        {
            "name": "Vadsz\u0151l\u0151",
            "kind": "utca",
            "post_code": 0
        },
        {
            "name": "Vadvir\u00e1g",
            "kind": "utca",
            "post_code": 0
        },
        {
            "name": "Vadv\u00edz",
            "kind": "utca",
            "post_code": 0
        },
        {
            "name": "V\u00e1g\u00f3",
            "kind": "utca",
            "post_code": 0
        },
        {
            "name": "Vajdahunyad",
            "kind": "utca",
            "post_code": 0
        },
        {
            "name": "Vajda J\u00e1nos",
            "kind": "utca",
            "post_code": 0
        },
        {
            "name": "Vak Botty\u00e1n",
            "kind": "utca",
            "post_code": 0
        },
        {
            "name": "V\u00e1lyogvet\u0151",
            "kind": "utca",
            "post_code": 0
        },
        {
            "name": "V\u00e1ndor",
            "kind": "utca",
            "post_code": 0
        },
        {
            "name": "V\u00e1rmegye",
            "kind": "utca",
            "post_code": 0
        },
        {
            "name": "V\u00e1rpalota",
            "kind": "utca",
            "post_code": 0
        },
        {
            "name": "V\u00e1s\u00e1rhelyi P\u00e1l",
            "kind": "utca",
            "post_code": 0
        },
        {
            "name": "V\u00e1s\u00e1r",
            "kind": "utca",
            "post_code": 0
        },
        {
            "name": "Vasp\u00e1lya",
            "kind": "utca",
            "post_code": 0
        },
        {
            "name": "Vas\u00fat",
            "kind": "utca",
            "post_code": 0
        },
        {
            "name": "Vasv\u00e1ri Ferenc",
            "kind": "utca",
            "post_code": 0
        },
        {
            "name": "V\u00e9gv\u00e1r",
            "kind": "utca",
            "post_code": 0
        },
        {
            "name": "Vereckei",
            "kind": "utca",
            "post_code": 0
        },
        {
            "name": "Veres P\u00e9ter",
            "kind": "utca",
            "post_code": 0
        },
        {
            "name": "Ver\u0151f\u00e9ny",
            "kind": "utca",
            "post_code": 0
        },
        {
            "name": "Veronika",
            "kind": "utca",
            "post_code": 0
        },
        {
            "name": "V\u00e9rtes",
            "kind": "utca",
            "post_code": 0
        },
        {
            "name": "Vez\u00e9r",
            "kind": "utca",
            "post_code": 0
        },
        {
            "name": "Vik\u00e1r B\u00e9la",
            "kind": "utca",
            "post_code": 0
        },
        {
            "name": "Vil\u00e1gos",
            "kind": "utca",
            "post_code": 0
        },
        {
            "name": "Vil\u00e1g",
            "kind": "utca",
            "post_code": 0
        },
        {
            "name": "Viola",
            "kind": "utca",
            "post_code": 0
        },
        {
            "name": "Vir\u00e1goskert",
            "kind": "utca",
            "post_code": 0
        },
        {
            "name": "Vir\u00e1gos",
            "kind": "utca",
            "post_code": 0
        },
        {
            "name": "Vir\u00e1gv\u00f6lgy",
            "kind": "utca",
            "post_code": 0
        },
        {
            "name": "Visegr\u00e1di",
            "kind": "utca",
            "post_code": 0
        },
        {
            "name": "Vit\u00e9z J\u00e1nos",
            "kind": "utca",
            "post_code": 0
        },
        {
            "name": "Vitorla",
            "kind": "utca",
            "post_code": 0
        },
        {
            "name": "V\u00edzaknai",
            "kind": "utca",
            "post_code": 0
        },
        {
            "name": "V\u00edziorgona",
            "kind": "utca",
            "post_code": 0
        },
        {
            "name": "V\u00edzm\u0171",
            "kind": "utca",
            "post_code": 0
        },
        {
            "name": "V\u00edz\u00f6nt\u0151",
            "kind": "utca",
            "post_code": 0
        },
        {
            "name": "V\u00f6lgy",
            "kind": "utca",
            "post_code": 0
        },
        {
            "name": "V\u00f6r\u00f6sbegy",
            "kind": "utca",
            "post_code": 0
        },
        {
            "name": "V\u00f6r\u00f6smarty",
            "kind": "utca",
            "post_code": 0
        },
        {
            "name": "W\u00e9ber Ede",
            "kind": "utca",
            "post_code": 0
        },
        {
            "name": "Weiner Le\u00f3",
            "kind": "utca",
            "post_code": 0
        },
        {
            "name": "Wessel\u00e9nyi",
            "kind": "utca",
            "post_code": 0
        },
        {
            "name": "Ybl Mikl\u00f3s",
            "kind": "utca",
            "post_code": 0
        },
        {
            "name": "Z\u00e1goni",
            "kind": "utca",
            "post_code": 0
        },
        {
            "name": "Zalagy\u00f6ngye",
            "kind": "utca",
            "post_code": 0
        },
        {
            "name": "Zal\u00e1n",
            "kind": "utca",
            "post_code": 0
        },
        {
            "name": "Z\u00e1polya J\u00e1nos",
            "kind": "utca",
            "post_code": 0
        },
        {
            "name": "Z\u00e1por",
            "kind": "utca",
            "post_code": 0
        },
        {
            "name": "Z\u00e1szl\u00f3",
            "kind": "utca",
            "post_code": 0
        },
        {
            "name": "Zeng\u0151",
            "kind": "utca",
            "post_code": 0
        },
        {
            "name": "Zentai",
            "kind": "utca",
            "post_code": 0
        },
        {
            "name": "Zimay L\u00e1szl\u00f3",
            "kind": "utca",
            "post_code": 0
        },
        {
            "name": "Z\u00f6ldfa",
            "kind": "utca",
            "post_code": 0
        },
        {
            "name": "Z\u00f6ldike",
            "kind": "utca",
            "post_code": 0
        },
        {
            "name": "Z\u00f6ldk\u00fat",
            "kind": "utca",
            "post_code": 0
        },
        {
            "name": "Zr\u00ednyi Ilona",
            "kind": "utca",
            "post_code": 0
        },
        {
            "name": "Zs\u00e1lya",
            "kind": "utca",
            "post_code": 0
        },
        {
            "name": "Zsigmond Ferenc",
            "kind": "utca",
            "post_code": 0
        },
        {
            "name": "Zsilip",
            "kind": "utca",
            "post_code": 0
        },
        {
            "name": "Zsin\u00f3r",
            "kind": "utca",
            "post_code": 0
        },
        {
            "name": "Zsoldos",
            "kind": "utca",
            "post_code": 0
        },
        {
            "name": "Kossuth",
            "kind": "t\u00e9r",
            "post_code": 0
        }
    ]
}