{
    "codes": {
        "3396": [
            "Kerecsend",
            null
        ]
    },
    "streets": [
        {
            "name": "Arany J\u00e1nos",
            "kind": "utca",
            "post_code": 0
        },
        {
            "name": "Bereksori",
            "kind": "utca",
            "post_code": 0
        },
        {
            "name": "Dank\u00f3 Pista",
            "kind": "utca",
            "post_code": 0
        },
        {
            "name": "Demj\u00e9ni",
            "kind": "\u00fat",
            "post_code": 0
        },
        {
            "name": "F\u00e1c\u00e1nos",
            "kind": "utca",
            "post_code": 0
        },
        {
            "name": "F\u0151",
            "kind": "utca",
            "post_code": 0
        },
        {
            "name": "F\u00fczesabonyi",
            "kind": "\u00fat",
            "post_code": 0
        },
        {
            "name": "G\u00e1rdonyi G\u00e9za",
            "kind": "utca",
            "post_code": 0
        },
        {
            "name": "J\u00f3kai M\u00f3r",
            "kind": "utca",
            "post_code": 0
        },
        {
            "name": "J\u00f3zsef Attila",
            "kind": "utca",
            "post_code": 0
        },
        {
            "name": "Kisk\u00f6z",
            "kind": "",
            "post_code": 0
        },
        {
            "name": "Kossuth Lajos",
            "kind": "utca",
            "post_code": 0
        },
        {
            "name": "Magyari K\u00e1roly",
            "kind": "utca",
            "post_code": 0
        },
        {
            "name": "Pacsirta",
            "kind": "utca",
            "post_code": 0
        },
        {
            "name": "Pataki",
            "kind": "utca",
            "post_code": 0
        },
        {
            "name": "Pet\u0151fi S\u00e1ndor",
            "kind": "utca",
            "post_code": 0
        },
        {
            "name": "V\u00e1ci Mih\u00e1ly",
            "kind": "utca",
            "post_code": 0
        },
        {
            "name": "Vit\u00e9z",
            "kind": "utca",
            "post_code": 0
        }
    ]
}