{
    "codes": {
        "3009": [
            "Kerekharaszt",
            null
        ]
    },
    "streets": [
        {
            "name": "Alkotm\u00e1ny",
            "kind": "utca",
            "post_code": 0
        },
        {
            "name": "Bimb\u00f3",
            "kind": "utca",
            "post_code": 0
        },
        {
            "name": "Bug\u00e1t P\u00e1l",
            "kind": "utca",
            "post_code": 0
        },
        {
            "name": "Csillag",
            "kind": "utca",
            "post_code": 0
        },
        {
            "name": "Erkel Ferenc",
            "kind": "t\u00e9r",
            "post_code": 0
        },
        {
            "name": "Hajnal",
            "kind": "utca",
            "post_code": 0
        },
        {
            "name": "Her\u00e9di",
            "kind": "\u00fat",
            "post_code": 0
        },
        {
            "name": "Kartali",
            "kind": "\u00fat",
            "post_code": 0
        },
        {
            "name": "Kerekharaszti",
            "kind": "pihen\u0151",
            "post_code": 0
        },
        {
            "name": "Kerekharaszti",
            "kind": "\u00fat",
            "post_code": 0
        },
        {
            "name": "Musk\u00e1tli",
            "kind": "utca",
            "post_code": 0
        },
        {
            "name": "Orgona",
            "kind": "utca",
            "post_code": 0
        },
        {
            "name": "Sport",
            "kind": "utca",
            "post_code": 0
        },
        {
            "name": "Vadvir\u00e1g",
            "kind": "utca",
            "post_code": 0
        }
    ]
}