{
    "codes": {
        "8360": [
            "Keszthely",
            null
        ]
    },
    "streets": [
        {
            "name": "Ady Endre",
            "kind": "utca",
            "post_code": 0
        },
        {
            "name": "Als\u00f3p\u00e1hoki",
            "kind": "\u00fat",
            "post_code": 0
        },
        {
            "name": "Ap\u00e1t",
            "kind": "utca",
            "post_code": 0
        },
        {
            "name": "Arany J\u00e1nos",
            "kind": "utca",
            "post_code": 0
        },
        {
            "name": "\u00c1rnyas",
            "kind": "k\u00f6z",
            "post_code": 0
        },
        {
            "name": "\u00c1rnyas",
            "kind": "\u00fatja",
            "post_code": 0
        },
        {
            "name": "\u00c1rp\u00e1d-h\u00e1zi Szent Erzs\u00e9bet",
            "kind": "t\u00e9r",
            "post_code": 0
        },
        {
            "name": "\u00c1rp\u00e1d",
            "kind": "utca",
            "post_code": 0
        },
        {
            "name": "\u00c1rv\u00e1cska",
            "kind": "k\u00f6z",
            "post_code": 0
        },
        {
            "name": "Asb\u00f3th",
            "kind": "utca",
            "post_code": 0
        },
        {
            "name": "Bajcsy-Zsilinszky",
            "kind": "utca",
            "post_code": 0
        },
        {
            "name": "Bakacs",
            "kind": "utca",
            "post_code": 0
        },
        {
            "name": "Balassi B\u00e1lint",
            "kind": "utca",
            "post_code": 0
        },
        {
            "name": "Balaton",
            "kind": "utca",
            "post_code": 0
        },
        {
            "name": "Balogh Ferenc",
            "kind": "utca",
            "post_code": 0
        },
        {
            "name": "Barlang",
            "kind": "utca",
            "post_code": 0
        },
        {
            "name": "Baross G\u00e1bor",
            "kind": "utca",
            "post_code": 0
        },
        {
            "name": "B\u00e1stya",
            "kind": "utca",
            "post_code": 0
        },
        {
            "name": "B\u00e1thory",
            "kind": "utca",
            "post_code": 0
        },
        {
            "name": "Bats\u00e1nyi",
            "kind": "utca",
            "post_code": 0
        },
        {
            "name": "B\u00e9csi kapu",
            "kind": "utca",
            "post_code": 0
        },
        {
            "name": "Bem J\u00f3zsef",
            "kind": "utca",
            "post_code": 0
        },
        {
            "name": "Bercs\u00e9nyi Mikl\u00f3s",
            "kind": "utca",
            "post_code": 0
        },
        {
            "name": "B\u00e9ri Balogh \u00c1d\u00e1m",
            "kind": "\u00fat",
            "post_code": 0
        },
        {
            "name": "Berki s\u00e9ta\u00fat",
            "kind": "",
            "post_code": 0
        },
        {
            "name": "Berzsenyi D\u00e1niel",
            "kind": "utca",
            "post_code": 0
        },
        {
            "name": "Bessenyei",
            "kind": "utca",
            "post_code": 0
        },
        {
            "name": "Bikedi",
            "kind": "sor",
            "post_code": 0
        },
        {
            "name": "Bokr\u00e9ta",
            "kind": "utca",
            "post_code": 0
        },
        {
            "name": "Bolyai",
            "kind": "utca",
            "post_code": 0
        },
        {
            "name": "Borb\u00e1s Vince",
            "kind": "s\u00e9t\u00e1ny",
            "post_code": 0
        },
        {
            "name": "Bor\u00f3k\u00e1s",
            "kind": "utca",
            "post_code": 0
        },
        {
            "name": "Bottyah\u00e1ti",
            "kind": "utca",
            "post_code": 0
        },
        {
            "name": "B\u00fazavir\u00e1g",
            "kind": "utca",
            "post_code": 0
        },
        {
            "name": "Buzog\u00e1ny",
            "kind": "utca",
            "post_code": 0
        },
        {
            "name": "CARDO (\u00c9-D-i r\u00f3mai castrum \u00fatja)",
            "kind": "",
            "post_code": 0
        },
        {
            "name": "Cholnoky Jen\u0151",
            "kind": "utca",
            "post_code": 0
        },
        {
            "name": "C\u00edmer",
            "kind": "k\u00f6z",
            "post_code": 0
        },
        {
            "name": "Csabagy\u00f6ngye",
            "kind": "utca",
            "post_code": 0
        },
        {
            "name": "Cs\u00e1k Gy\u00f6rgy",
            "kind": "utca",
            "post_code": 0
        },
        {
            "name": "Cs\u00e1nyi L\u00e1szl\u00f3",
            "kind": "utca",
            "post_code": 0
        },
        {
            "name": "Csap\u00e1s",
            "kind": "utca",
            "post_code": 0
        },
        {
            "name": "Cs\u00e1rda",
            "kind": "utca",
            "post_code": 0
        },
        {
            "name": "Csendes",
            "kind": "k\u00f6z",
            "post_code": 0
        },
        {
            "name": "Cserszegi",
            "kind": "\u00fat",
            "post_code": 0
        },
        {
            "name": "Cserszeg",
            "kind": "utca",
            "post_code": 0
        },
        {
            "name": "Cs\u00edk Ferenc",
            "kind": "s\u00e9t\u00e1ny",
            "post_code": 0
        },
        {
            "name": "Csizmadia",
            "kind": "utca",
            "post_code": 0
        },
        {
            "name": "Cs\u00f3kak\u0151",
            "kind": "utca",
            "post_code": 0
        },
        {
            "name": "Cs\u00f3k Istv\u00e1n",
            "kind": "utca",
            "post_code": 0
        },
        {
            "name": "Csokonai",
            "kind": "utca",
            "post_code": 0
        },
        {
            "name": "Damay K\u00e1lm\u00e1n",
            "kind": "utca",
            "post_code": 0
        },
        {
            "name": "Damjanich",
            "kind": "utca",
            "post_code": 0
        },
        {
            "name": "Dank\u00f3",
            "kind": "utca",
            "post_code": 0
        },
        {
            "name": "De\u00e1k Ferenc",
            "kind": "utca",
            "post_code": 0
        },
        {
            "name": "DECUMANA (K-NYI-i r\u00f3mai castrum \u00fatja)",
            "kind": "",
            "post_code": 0
        },
        {
            "name": "Deininger Imre",
            "kind": "utca",
            "post_code": 0
        },
        {
            "name": "Delden",
            "kind": "t\u00e9r",
            "post_code": 0
        },
        {
            "name": "D\u00e9ryn\u00e9",
            "kind": "utca",
            "post_code": 0
        },
        {
            "name": "Di\u00f3fa",
            "kind": "k\u00f6z",
            "post_code": 0
        },
        {
            "name": "Di\u00f3fa",
            "kind": "utca",
            "post_code": 0
        },
        {
            "name": "Dob\u00f3 Istv\u00e1n",
            "kind": "utca",
            "post_code": 0
        },
        {
            "name": "D\u00f3zsa Gy\u00f6rgy",
            "kind": "utca",
            "post_code": 0
        },
        {
            "name": "Dr. Vajkai Aur\u00e9l",
            "kind": "utca",
            "post_code": 0
        },
        {
            "name": "Egry J\u00f3zsef",
            "kind": "utca",
            "post_code": 0
        },
        {
            "name": "Entz G\u00e9za",
            "kind": "s\u00e9t\u00e1ny",
            "post_code": 0
        },
        {
            "name": "E\u00f6tv\u00f6s",
            "kind": "utca",
            "post_code": 0
        },
        {
            "name": "Epreskert",
            "kind": "\u00fat",
            "post_code": 0
        },
        {
            "name": "Erd\u00e9sz",
            "kind": "utca",
            "post_code": 0
        },
        {
            "name": "Erkel Ferenc",
            "kind": "utca",
            "post_code": 0
        },
        {
            "name": "Erzs\u00e9bet kir\u00e1lyn\u00e9",
            "kind": "\u00fatja",
            "post_code": 0
        },
        {
            "name": "Esze Tam\u00e1s",
            "kind": "utca",
            "post_code": 0
        },
        {
            "name": "Faludi",
            "kind": "utca",
            "post_code": 0
        },
        {
            "name": "F\u00e1y Andr\u00e1s",
            "kind": "utca",
            "post_code": 0
        },
        {
            "name": "Fecske",
            "kind": "utca",
            "post_code": 0
        },
        {
            "name": "Fej\u00e9r Gy\u00f6rgy",
            "kind": "utca",
            "post_code": 0
        },
        {
            "name": "Fen\u00e9ki",
            "kind": "\u00fat",
            "post_code": 0
        },
        {
            "name": "Fenyves",
            "kind": "utca",
            "post_code": 0
        },
        {
            "name": "Festetics all\u00e9",
            "kind": "",
            "post_code": 0
        },
        {
            "name": "Festetics Gy\u00f6rgy",
            "kind": "utca",
            "post_code": 0
        },
        {
            "name": "Fodor",
            "kind": "utca",
            "post_code": 0
        },
        {
            "name": "F\u0151",
            "kind": "t\u00e9r",
            "post_code": 0
        },
        {
            "name": "Frech Mikl\u00f3s",
            "kind": "utca",
            "post_code": 0
        },
        {
            "name": "F\u00fclem\u00fcle",
            "kind": "utca",
            "post_code": 0
        },
        {
            "name": "Fuvaros",
            "kind": "utca",
            "post_code": 0
        },
        {
            "name": "F\u00fcveskert",
            "kind": "utca",
            "post_code": 0
        },
        {
            "name": "Gagarin",
            "kind": "utca",
            "post_code": 0
        },
        {
            "name": "Galamb",
            "kind": "utca",
            "post_code": 0
        },
        {
            "name": "Gelencs\u00e9r",
            "kind": "utca",
            "post_code": 0
        },
        {
            "name": "Georgikon",
            "kind": "utca",
            "post_code": 0
        },
        {
            "name": "Goldmark K\u00e1roly",
            "kind": "utca",
            "post_code": 0
        },
        {
            "name": "Gy\u00f6ngyvir\u00e1g",
            "kind": "k\u00f6z",
            "post_code": 0
        },
        {
            "name": "Gy\u00f6ngyvir\u00e1g",
            "kind": "utca",
            "post_code": 0
        },
        {
            "name": "Gy\u00f6pi",
            "kind": "\u00fat",
            "post_code": 0
        },
        {
            "name": "Gy\u00f6rgy b\u00edr\u00f3",
            "kind": "utca",
            "post_code": 0
        },
        {
            "name": "Gy\u00f6r\u00f6k Gy\u00f6rgy",
            "kind": "utca",
            "post_code": 0
        },
        {
            "name": "Hajnal",
            "kind": "k\u00f6z",
            "post_code": 0
        },
        {
            "name": "Hajnal",
            "kind": "utca",
            "post_code": 0
        },
        {
            "name": "Hajn\u00f3czi",
            "kind": "utca",
            "post_code": 0
        },
        {
            "name": "Hancz\u00f3k",
            "kind": "utca",
            "post_code": 0
        },
        {
            "name": "Helikon",
            "kind": "k\u00f6z",
            "post_code": 0
        },
        {
            "name": "Helikon",
            "kind": "utca",
            "post_code": 0
        },
        {
            "name": "Herman Ott\u00f3",
            "kind": "utca",
            "post_code": 0
        },
        {
            "name": "H\u00e9v\u00edzi",
            "kind": "\u00fat",
            "post_code": 0
        },
        {
            "name": "H\u00e9v\u00edzi",
            "kind": "utca",
            "post_code": 0
        },
        {
            "name": "Hon",
            "kind": "utca",
            "post_code": 0
        },
        {
            "name": "Honv\u00e9d",
            "kind": "utca",
            "post_code": 0
        },
        {
            "name": "H\u00f3vir\u00e1g",
            "kind": "utca",
            "post_code": 0
        },
        {
            "name": "Hunyadi",
            "kind": "utca",
            "post_code": 0
        },
        {
            "name": "Ibolya",
            "kind": "k\u00f6z",
            "post_code": 0
        },
        {
            "name": "Ibolya",
            "kind": "utca",
            "post_code": 0
        },
        {
            "name": "Ifj\u00fas\u00e1g",
            "kind": "\u00fatja",
            "post_code": 0
        },
        {
            "name": "Ipar",
            "kind": "utca",
            "post_code": 0
        },
        {
            "name": "Iskola",
            "kind": "utca",
            "post_code": 0
        },
        {
            "name": "Jank\u00f3 J\u00e1nos",
            "kind": "utca",
            "post_code": 0
        },
        {
            "name": "Jegenye",
            "kind": "utca",
            "post_code": 0
        },
        {
            "name": "J\u00f3kai",
            "kind": "utca",
            "post_code": 0
        },
        {
            "name": "J\u00f3zsef Attila",
            "kind": "utca",
            "post_code": 0
        },
        {
            "name": "Kacs\u00f3h Pongr\u00e1c",
            "kind": "utca",
            "post_code": 0
        },
        {
            "name": "K\u00e1roly Gyula",
            "kind": "utca",
            "post_code": 0
        },
        {
            "name": "K\u00e1rp\u00e1t",
            "kind": "utca",
            "post_code": 0
        },
        {
            "name": "Kast\u00e9ly",
            "kind": "utca",
            "post_code": 0
        },
        {
            "name": "Katona J\u00f3zsef",
            "kind": "utca",
            "post_code": 0
        },
        {
            "name": "Kazinczy Ferenc",
            "kind": "utca",
            "post_code": 0
        },
        {
            "name": "Kering\u0151",
            "kind": "utca",
            "post_code": 0
        },
        {
            "name": "Keszthelyi",
            "kind": "\u00fat",
            "post_code": 0
        },
        {
            "name": "Keszthelyi",
            "kind": "utca",
            "post_code": 0
        },
        {
            "name": "Kil\u00e1t\u00f3",
            "kind": "utca",
            "post_code": 0
        },
        {
            "name": "Kinizsi P\u00e1l",
            "kind": "utca",
            "post_code": 0
        },
        {
            "name": "K\u00eds\u00e9rleti",
            "kind": "utca",
            "post_code": 0
        },
        {
            "name": "Kisfaludy",
            "kind": "utca",
            "post_code": 0
        },
        {
            "name": "Kis",
            "kind": "utca",
            "post_code": 0
        },
        {
            "name": "Klempka K\u00e1roly",
            "kind": "k\u00f6z",
            "post_code": 0
        },
        {
            "name": "Klenya K\u00e1roly",
            "kind": "k\u00f6z",
            "post_code": 0
        },
        {
            "name": "K\u00f3csag",
            "kind": "utca",
            "post_code": 0
        },
        {
            "name": "Kod\u00e1ly Zolt\u00e1n",
            "kind": "utca",
            "post_code": 0
        },
        {
            "name": "Kopon\u00e1ni",
            "kind": "utca",
            "post_code": 0
        },
        {
            "name": "Korona",
            "kind": "utca",
            "post_code": 0
        },
        {
            "name": "Kossuth Lajos",
            "kind": "utca",
            "post_code": 0
        },
        {
            "name": "Kozmav\u00f6lgyi",
            "kind": "\u00fat",
            "post_code": 0
        },
        {
            "name": "Kulcs\u00e1r F\u00e1bi\u00e1n",
            "kind": "k\u00f6z",
            "post_code": 0
        },
        {
            "name": "K\u00fcls\u0151zsidi",
            "kind": "utca",
            "post_code": 0
        },
        {
            "name": "Laczkovics",
            "kind": "utca",
            "post_code": 0
        },
        {
            "name": "Laky Demeter",
            "kind": "k\u00f6z",
            "post_code": 0
        },
        {
            "name": "Lehel",
            "kind": "utca",
            "post_code": 0
        },
        {
            "name": "Lib\u00e1s",
            "kind": "utca",
            "post_code": 0
        },
        {
            "name": "Liliom",
            "kind": "utca",
            "post_code": 0
        },
        {
            "name": "Lippay G\u00e1sp\u00e1r",
            "kind": "\u00fat",
            "post_code": 0
        },
        {
            "name": "Lipp Vilmos",
            "kind": "k\u00f6z",
            "post_code": 0
        },
        {
            "name": "Liszt Ferenc",
            "kind": "utca",
            "post_code": 0
        },
        {
            "name": "L\u00f3czy Lajos",
            "kind": "utca",
            "post_code": 0
        },
        {
            "name": "L\u0151t\u00e9ri",
            "kind": "utca",
            "post_code": 0
        },
        {
            "name": "Lovassy S\u00e1ndor",
            "kind": "utca",
            "post_code": 0
        },
        {
            "name": "Mad\u00e1ch",
            "kind": "utca",
            "post_code": 0
        },
        {
            "name": "Magvet\u0151",
            "kind": "utca",
            "post_code": 0
        },
        {
            "name": "Magyar",
            "kind": "utca",
            "post_code": 0
        },
        {
            "name": "Malom",
            "kind": "utca",
            "post_code": 0
        },
        {
            "name": "Mandula",
            "kind": "utca",
            "post_code": 0
        },
        {
            "name": "Martinovics",
            "kind": "utca",
            "post_code": 0
        },
        {
            "name": "M\u00e1rt\u00edrok",
            "kind": "\u00fatja",
            "post_code": 0
        },
        {
            "name": "M\u00e1ty\u00e1s kir\u00e1ly",
            "kind": "utca",
            "post_code": 0
        },
        {
            "name": "Meggyfa",
            "kind": "utca",
            "post_code": 0
        },
        {
            "name": "M\u00e9ly",
            "kind": "utca",
            "post_code": 0
        },
        {
            "name": "M\u00e9nes",
            "kind": "utca",
            "post_code": 0
        },
        {
            "name": "M\u00f3ra Ferenc",
            "kind": "utca",
            "post_code": 0
        },
        {
            "name": "M\u00f3ricz Zsigmond",
            "kind": "utca",
            "post_code": 0
        },
        {
            "name": "Munk\u00e1csy",
            "kind": "utca",
            "post_code": 0
        },
        {
            "name": "Munk\u00e1s",
            "kind": "utca",
            "post_code": 0
        },
        {
            "name": "M\u00fazeum",
            "kind": "utca",
            "post_code": 0
        },
        {
            "name": "N\u00e1das",
            "kind": "k\u00f6z",
            "post_code": 0
        },
        {
            "name": "N\u00e1dor",
            "kind": "utca",
            "post_code": 0
        },
        {
            "name": "Nagy Imre",
            "kind": "utca",
            "post_code": 0
        },
        {
            "name": "Nagy Lajos kir\u00e1ly",
            "kind": "utca",
            "post_code": 0
        },
        {
            "name": "Nagyv\u00e1thy J\u00e1nos",
            "kind": "utca",
            "post_code": 0
        },
        {
            "name": "Napf\u00e9ny",
            "kind": "k\u00f6z",
            "post_code": 0
        },
        {
            "name": "Napf\u00e9ny",
            "kind": "sor",
            "post_code": 0
        },
        {
            "name": "Napf\u00fcrd\u0151",
            "kind": "utca",
            "post_code": 0
        },
        {
            "name": "Napsug\u00e1r",
            "kind": "utca",
            "post_code": 0
        },
        {
            "name": "Ny\u00e1rfa",
            "kind": "utca",
            "post_code": 0
        },
        {
            "name": "Ny\u00e1r",
            "kind": "utca",
            "post_code": 0
        },
        {
            "name": "\u00d6v",
            "kind": "utca",
            "post_code": 0
        },
        {
            "name": "Pacsirta",
            "kind": "utca",
            "post_code": 0
        },
        {
            "name": "Pajta alja",
            "kind": "utca",
            "post_code": 0
        },
        {
            "name": "Palotai",
            "kind": "utca",
            "post_code": 0
        },
        {
            "name": "P\u00e1l",
            "kind": "utca",
            "post_code": 0
        },
        {
            "name": "Pammer Istv\u00e1n",
            "kind": "utca",
            "post_code": 0
        },
        {
            "name": "Park",
            "kind": "utca",
            "post_code": 0
        },
        {
            "name": "Patk\u00f3",
            "kind": "k\u00f6z",
            "post_code": 0
        },
        {
            "name": "Patk\u00f3",
            "kind": "utca",
            "post_code": 0
        },
        {
            "name": "P\u00e1zm\u00e1ny P\u00e9ter",
            "kind": "utca",
            "post_code": 0
        },
        {
            "name": "Pethe Ferenc",
            "kind": "utca",
            "post_code": 0
        },
        {
            "name": "Peth\u0151",
            "kind": "utca",
            "post_code": 0
        },
        {
            "name": "Pet\u0151fi",
            "kind": "utca",
            "post_code": 0
        },
        {
            "name": "Piac",
            "kind": "t\u00e9r",
            "post_code": 0
        },
        {
            "name": "Pilik\u00e1ni",
            "kind": "utca",
            "post_code": 0
        },
        {
            "name": "Pipacs",
            "kind": "utca",
            "post_code": 0
        },
        {
            "name": "Pip\u00e1skert",
            "kind": "utca",
            "post_code": 0
        },
        {
            "name": "Porkol\u00e1b",
            "kind": "utca",
            "post_code": 0
        },
        {
            "name": "R\u00e1k\u00f3czi",
            "kind": "t\u00e9r",
            "post_code": 0
        },
        {
            "name": "R\u00e1k\u00f3czi",
            "kind": "\u00fat",
            "post_code": 0
        },
        {
            "name": "R\u00e1k\u00f3czi",
            "kind": "utca",
            "post_code": 0
        },
        {
            "name": "Rezi",
            "kind": "\u00fat",
            "post_code": 0
        },
        {
            "name": "Rezi",
            "kind": "utca",
            "post_code": 0
        },
        {
            "name": "Rig\u00f3",
            "kind": "utca",
            "post_code": 0
        },
        {
            "name": "R\u00f3mai",
            "kind": "utca",
            "post_code": 0
        },
        {
            "name": "R\u00f3zsalugas",
            "kind": "",
            "post_code": 0
        },
        {
            "name": "R\u00f3zsa",
            "kind": "utca",
            "post_code": 0
        },
        {
            "name": "Ruszek J\u00f3zsef",
            "kind": "utca",
            "post_code": 0
        },
        {
            "name": "S\u00e1gi J\u00e1nos",
            "kind": "utca",
            "post_code": 0
        },
        {
            "name": "Schwarz D\u00e1vid",
            "kind": "utca",
            "post_code": 0
        },
        {
            "name": "Sebessy K\u00e1lm\u00e1n",
            "kind": "k\u00f6z",
            "post_code": 0
        },
        {
            "name": "Semmelweis Ign\u00e1c",
            "kind": "utca",
            "post_code": 0
        },
        {
            "name": "Sir\u00e1ly",
            "kind": "utca",
            "post_code": 0
        },
        {
            "name": "Sk\u00e1la",
            "kind": "k\u00f6z",
            "post_code": 0
        },
        {
            "name": "S\u00f3haj all\u00e9",
            "kind": "utca",
            "post_code": 0
        },
        {
            "name": "S\u00f6m\u00f6gyei",
            "kind": "\u00fat",
            "post_code": 0
        },
        {
            "name": "Sopron",
            "kind": "utca",
            "post_code": 0
        },
        {
            "name": "S\u00f6rh\u00e1z",
            "kind": "utca",
            "post_code": 0
        },
        {
            "name": "Stromfeld Aur\u00e9l",
            "kind": "utca",
            "post_code": 0
        },
        {
            "name": "Sujk\u00f3",
            "kind": "utca",
            "post_code": 0
        },
        {
            "name": "Szalaszt\u00f3",
            "kind": "utca",
            "post_code": 0
        },
        {
            "name": "Sz\u00e9chenyi",
            "kind": "utca",
            "post_code": 0
        },
        {
            "name": "Szegf\u0171",
            "kind": "utca",
            "post_code": 0
        },
        {
            "name": "Szendrey Julianna",
            "kind": "utca",
            "post_code": 0
        },
        {
            "name": "Szendreytelepi",
            "kind": "\u00fat",
            "post_code": 0
        },
        {
            "name": "Szent Erzs\u00e9bet",
            "kind": "\u00fat",
            "post_code": 0
        },
        {
            "name": "Szent J\u00f3zsef",
            "kind": "utca",
            "post_code": 0
        },
        {
            "name": "Szent Mikl\u00f3s",
            "kind": "utca",
            "post_code": 0
        },
        {
            "name": "Szerecz Imre",
            "kind": "k\u00f6z",
            "post_code": 0
        },
        {
            "name": "Szigony",
            "kind": "utca",
            "post_code": 0
        },
        {
            "name": "Sz\u00fcret",
            "kind": "utca",
            "post_code": 0
        },
        {
            "name": "T\u00e1ncsics Mih\u00e1ly",
            "kind": "utca",
            "post_code": 0
        },
        {
            "name": "Tapolcai",
            "kind": "\u00fat",
            "post_code": 0
        },
        {
            "name": "Tavasz",
            "kind": "utca",
            "post_code": 0
        },
        {
            "name": "Tessedik S\u00e1muel",
            "kind": "utca",
            "post_code": 0
        },
        {
            "name": "Tipeg\u0151",
            "kind": "k\u00f6z",
            "post_code": 0
        },
        {
            "name": "Tipeg\u0151",
            "kind": "\u00fatja",
            "post_code": 0
        },
        {
            "name": "Toldi Mikl\u00f3s",
            "kind": "utca",
            "post_code": 0
        },
        {
            "name": "Tomaji",
            "kind": "sor",
            "post_code": 0
        },
        {
            "name": "Tompa Mih\u00e1ly",
            "kind": "utca",
            "post_code": 0
        },
        {
            "name": "Tulip\u00e1n",
            "kind": "utca",
            "post_code": 0
        },
        {
            "name": "T\u00fcnd\u00e9rlak",
            "kind": "\u00fat",
            "post_code": 0
        },
        {
            "name": "Unterberger",
            "kind": "utca",
            "post_code": 0
        },
        {
            "name": "Vadaskerti",
            "kind": "\u00fat",
            "post_code": 0
        },
        {
            "name": "Vak Botty\u00e1n",
            "kind": "utca",
            "post_code": 0
        },
        {
            "name": "V\u00e1rosh\u00e1z",
            "kind": "utca",
            "post_code": 0
        },
        {
            "name": "V\u00e1rv\u00f6lgyi",
            "kind": "utca",
            "post_code": 0
        },
        {
            "name": "V\u00e1s\u00e1r",
            "kind": "t\u00e9r",
            "post_code": 0
        },
        {
            "name": "Vass Mikl\u00f3s",
            "kind": "utca",
            "post_code": 0
        },
        {
            "name": "Vaszary Kolos",
            "kind": "utca",
            "post_code": 0
        },
        {
            "name": "V\u00e9dett feny\u0151sor",
            "kind": "",
            "post_code": 0
        },
        {
            "name": "Ver\u00e9bhegy",
            "kind": "utca",
            "post_code": 0
        },
        {
            "name": "Viola",
            "kind": "utca",
            "post_code": 0
        },
        {
            "name": "V\u00f6r\u00f6smarty",
            "kind": "utca",
            "post_code": 0
        },
        {
            "name": "Z\u00e1mor",
            "kind": "utca",
            "post_code": 0
        },
        {
            "name": "Zeppelin",
            "kind": "t\u00e9r",
            "post_code": 0
        },
        {
            "name": "Z\u00f6ldmez\u0151",
            "kind": "utca",
            "post_code": 0
        },
        {
            "name": "Zr\u00ednyi Mikl\u00f3s",
            "kind": "utca",
            "post_code": 0
        },
        {
            "name": "Zsidi",
            "kind": "\u00fat",
            "post_code": 0
        },
        {
            "name": "F\u0151",
            "kind": "t\u00e9r",
            "post_code": 0
        }
    ]
}