{
    "codes": {
        "9234": [
            "Kisbodak",
            null
        ]
    },
    "streets": [
        {
            "name": "Arany J\u00e1nos",
            "kind": "utca",
            "post_code": 0
        },
        {
            "name": "B\u00e9ke",
            "kind": "utca",
            "post_code": 0
        },
        {
            "name": "Felszabadul\u00e1s",
            "kind": "utca",
            "post_code": 0
        },
        {
            "name": "J\u00f3zsef Attila",
            "kind": "utca",
            "post_code": 0
        },
        {
            "name": "Kossuth Lajos",
            "kind": "utca",
            "post_code": 0
        },
        {
            "name": "Pet\u0151fi S\u00e1ndor",
            "kind": "utca",
            "post_code": 0
        },
        {
            "name": "Szabads\u00e1g",
            "kind": "utca",
            "post_code": 0
        },
        {
            "name": "T\u0151zike",
            "kind": "utca",
            "post_code": 0
        }
    ]
}