{
    "codes": {
        "6400": [
            "Kiskunhalas",
            " "
        ]
    },
    "streets": [
        {
            "name": "\u00c1chim Andr\u00e1s",
            "kind": "utca",
            "post_code": 0
        },
        {
            "name": "Ady Endre",
            "kind": "utca",
            "post_code": 0
        },
        {
            "name": "\u00c1g",
            "kind": "utca",
            "post_code": 0
        },
        {
            "name": "Ak\u00e1c",
            "kind": "k\u00f6z",
            "post_code": 0
        },
        {
            "name": "Alkony",
            "kind": "utca",
            "post_code": 0
        },
        {
            "name": "Alkotm\u00e1ny",
            "kind": "utca",
            "post_code": 0
        },
        {
            "name": "\u00c1llom\u00e1s",
            "kind": "utca",
            "post_code": 0
        },
        {
            "name": "\u00c1lmos",
            "kind": "utca",
            "post_code": 0
        },
        {
            "name": "Alulj\u00e1r\u00f3",
            "kind": "",
            "post_code": 0
        },
        {
            "name": "Arany J\u00e1nos",
            "kind": "utca",
            "post_code": 0
        },
        {
            "name": "\u00c1rok",
            "kind": "utca",
            "post_code": 0
        },
        {
            "name": "\u00c1rp\u00e1d",
            "kind": "utca",
            "post_code": 0
        },
        {
            "name": "\u00c1rv\u00e1cska",
            "kind": "utca",
            "post_code": 0
        },
        {
            "name": "\u00c1rval\u00e1nyhaj",
            "kind": "utca",
            "post_code": 0
        },
        {
            "name": "\u00c1tl\u00f3s",
            "kind": "\u00fat",
            "post_code": 0
        },
        {
            "name": "Attila",
            "kind": "utca",
            "post_code": 0
        },
        {
            "name": "Avar",
            "kind": "utca",
            "post_code": 0
        },
        {
            "name": "B\u00e1cskai",
            "kind": "utca",
            "post_code": 0
        },
        {
            "name": "Bacs\u00f3 L\u00e1szl\u00f3",
            "kind": "utca",
            "post_code": 0
        },
        {
            "name": "Bajcsy-Zsilinszky",
            "kind": "utca",
            "post_code": 0
        },
        {
            "name": "Bajn\u00e1r",
            "kind": "utca",
            "post_code": 0
        },
        {
            "name": "Bajnok",
            "kind": "utca",
            "post_code": 0
        },
        {
            "name": "Bajza",
            "kind": "utca",
            "post_code": 0
        },
        {
            "name": "Balajthy D\u00e9nes",
            "kind": "utca",
            "post_code": 0
        },
        {
            "name": "B\u00e1lv\u00e1ny",
            "kind": "utca",
            "post_code": 0
        },
        {
            "name": "B\u00e1negyh\u00e1za",
            "kind": "utca",
            "post_code": 0
        },
        {
            "name": "Bang\u00f3 P\u00e9ter",
            "kind": "utca",
            "post_code": 0
        },
        {
            "name": "Baranyai Ferenc",
            "kind": "utca",
            "post_code": 0
        },
        {
            "name": "Baross",
            "kind": "utca",
            "post_code": 0
        },
        {
            "name": "B\u00e1stya",
            "kind": "utca",
            "post_code": 0
        },
        {
            "name": "B\u00e1thory",
            "kind": "utca",
            "post_code": 0
        },
        {
            "name": "Batthy\u00e1ny",
            "kind": "utca",
            "post_code": 0
        },
        {
            "name": "Bedekovich L\u0151rinc",
            "kind": "utca",
            "post_code": 0
        },
        {
            "name": "B\u00e9ke",
            "kind": "utca",
            "post_code": 0
        },
        {
            "name": "Bem",
            "kind": "utca",
            "post_code": 0
        },
        {
            "name": "Bercs\u00e9nyi",
            "kind": "utca",
            "post_code": 0
        },
        {
            "name": "Berki Viola",
            "kind": "utca",
            "post_code": 0
        },
        {
            "name": "Berzsenyi",
            "kind": "utca",
            "post_code": 0
        },
        {
            "name": "Bessenyei",
            "kind": "t\u00e9r",
            "post_code": 0
        },
        {
            "name": "Bethlen G\u00e1bor",
            "kind": "t\u00e9r",
            "post_code": 0
        },
        {
            "name": "Bimb\u00f3",
            "kind": "utca",
            "post_code": 0
        },
        {
            "name": "Bocskai",
            "kind": "utca",
            "post_code": 0
        },
        {
            "name": "Bodza",
            "kind": "utca",
            "post_code": 0
        },
        {
            "name": "Bojt\u00e1r",
            "kind": "utca",
            "post_code": 0
        },
        {
            "name": "Bokor",
            "kind": "utca",
            "post_code": 0
        },
        {
            "name": "Bokr\u00e9ta",
            "kind": "utca",
            "post_code": 0
        },
        {
            "name": "Bornemissza Gergely",
            "kind": "utca",
            "post_code": 0
        },
        {
            "name": "Bor\u00f3ka",
            "kind": "utca",
            "post_code": 0
        },
        {
            "name": "Borz",
            "kind": "utca",
            "post_code": 0
        },
        {
            "name": "Botond",
            "kind": "utca",
            "post_code": 0
        },
        {
            "name": "Br\u00e1zay K\u00e1lm\u00e1n",
            "kind": "utca",
            "post_code": 0
        },
        {
            "name": "Brinkus Lajos",
            "kind": "utca",
            "post_code": 0
        },
        {
            "name": "Budai Nagy Antal",
            "kind": "utca",
            "post_code": 0
        },
        {
            "name": "Bud\u00e1r",
            "kind": "utca",
            "post_code": 0
        },
        {
            "name": "B\u00fckk\u00f6ny\u00f6s",
            "kind": "utca",
            "post_code": 0
        },
        {
            "name": "Csalog\u00e1ny",
            "kind": "utca",
            "post_code": 0
        },
        {
            "name": "Csap",
            "kind": "utca",
            "post_code": 0
        },
        {
            "name": "Csendes",
            "kind": "k\u00f6z",
            "post_code": 0
        },
        {
            "name": "Cser\u00e9ny",
            "kind": "utca",
            "post_code": 0
        },
        {
            "name": "Cserepes",
            "kind": "utca",
            "post_code": 0
        },
        {
            "name": "Csereszny\u00e9s",
            "kind": "utca",
            "post_code": 0
        },
        {
            "name": "Csiga",
            "kind": "utca",
            "post_code": 0
        },
        {
            "name": "Csillag",
            "kind": "utca",
            "post_code": 0
        },
        {
            "name": "Csipke",
            "kind": "utca",
            "post_code": 0
        },
        {
            "name": "Csokonai",
            "kind": "utca",
            "post_code": 0
        },
        {
            "name": "Cs\u00f3nak",
            "kind": "utca",
            "post_code": 0
        },
        {
            "name": "Czuczor",
            "kind": "utca",
            "post_code": 0
        },
        {
            "name": "D\u00e1lia",
            "kind": "utca",
            "post_code": 0
        },
        {
            "name": "Damjanich",
            "kind": "utca",
            "post_code": 0
        },
        {
            "name": "De\u00e1k Ferenc",
            "kind": "utca",
            "post_code": 0
        },
        {
            "name": "Dek\u00e1ni \u00c1rp\u00e1d",
            "kind": "utca",
            "post_code": 0
        },
        {
            "name": "Di\u00f3szegi Bal\u00e1zs",
            "kind": "utca",
            "post_code": 0
        },
        {
            "name": "Dob\u00f3",
            "kind": "utca",
            "post_code": 0
        },
        {
            "name": "Dob",
            "kind": "utca",
            "post_code": 0
        },
        {
            "name": "D\u00f3zsa Gy\u00f6rgy",
            "kind": "utca",
            "post_code": 0
        },
        {
            "name": "Dr. Monszpart L\u00e1szl\u00f3",
            "kind": "utca",
            "post_code": 0
        },
        {
            "name": "Dr. Nagy M\u00f3r",
            "kind": "utca",
            "post_code": 0
        },
        {
            "name": "Dugonics",
            "kind": "utca",
            "post_code": 0
        },
        {
            "name": "E\u00f6tv\u00f6s",
            "kind": "utca",
            "post_code": 0
        },
        {
            "name": "Eperd",
            "kind": "utca",
            "post_code": 0
        },
        {
            "name": "Epreskert",
            "kind": "utca",
            "post_code": 0
        },
        {
            "name": "Erdei",
            "kind": "t\u00e9r",
            "post_code": 0
        },
        {
            "name": "Erzs\u00e9bet kir\u00e1lyn\u00e9",
            "kind": "t\u00e9r",
            "post_code": 0
        },
        {
            "name": "Esk\u00fc",
            "kind": "t\u00e9r",
            "post_code": 0
        },
        {
            "name": "Esze Tam\u00e1s",
            "kind": "lak\u00f3telep",
            "post_code": 0
        },
        {
            "name": "F\u00e1c\u00e1n",
            "kind": "utca",
            "post_code": 0
        },
        {
            "name": "Fakop\u00e1cs",
            "kind": "utca",
            "post_code": 0
        },
        {
            "name": "Fazekas Mih\u00e1ly",
            "kind": "utca",
            "post_code": 0
        },
        {
            "name": "Fecske",
            "kind": "utca",
            "post_code": 0
        },
        {
            "name": "Fej\u00e9rf\u00f6ld",
            "kind": "utca",
            "post_code": 0
        },
        {
            "name": "F\u00e9legyh\u00e1zi",
            "kind": "\u00fat",
            "post_code": 0
        },
        {
            "name": "Fel\u00fclj\u00e1r\u00f3",
            "kind": "",
            "post_code": 0
        },
        {
            "name": "Feny\u0151",
            "kind": "utca",
            "post_code": 0
        },
        {
            "name": "Fridrich Lajos",
            "kind": "utca",
            "post_code": 0
        },
        {
            "name": "F\u0171r\u00e9sz",
            "kind": "utca",
            "post_code": 0
        },
        {
            "name": "Fut\u00f3",
            "kind": "utca",
            "post_code": 0
        },
        {
            "name": "F\u0171z\u00e9r",
            "kind": "utca",
            "post_code": 0
        },
        {
            "name": "F\u00fczes",
            "kind": "utca",
            "post_code": 0
        },
        {
            "name": "Ga\u00e1l Lajos",
            "kind": "utca",
            "post_code": 0
        },
        {
            "name": "G\u00e1bor \u00c1ron",
            "kind": "utca",
            "post_code": 0
        },
        {
            "name": "Galagonya",
            "kind": "utca",
            "post_code": 0
        },
        {
            "name": "Galamb",
            "kind": "utca",
            "post_code": 0
        },
        {
            "name": "G\u00e1rdonyi G\u00e9za",
            "kind": "utca",
            "post_code": 0
        },
        {
            "name": "Gerle",
            "kind": "utca",
            "post_code": 0
        },
        {
            "name": "Gimn\u00e1zium",
            "kind": "utca",
            "post_code": 0
        },
        {
            "name": "G\u00f3lya",
            "kind": "utca",
            "post_code": 0
        },
        {
            "name": "G\u00f3zon",
            "kind": "utca",
            "post_code": 0
        },
        {
            "name": "Gr\u00f3sz Ferenc",
            "kind": "utca",
            "post_code": 0
        },
        {
            "name": "Gubori",
            "kind": "utca",
            "post_code": 0
        },
        {
            "name": "Gyapj\u00fa",
            "kind": "utca",
            "post_code": 0
        },
        {
            "name": "Gy\u00e1rf\u00e1s Istv\u00e1n",
            "kind": "utca",
            "post_code": 0
        },
        {
            "name": "Gyep",
            "kind": "utca",
            "post_code": 0
        },
        {
            "name": "Gy\u00f6ngyvir\u00e1g",
            "kind": "utca",
            "post_code": 0
        },
        {
            "name": "Hajnal",
            "kind": "utca",
            "post_code": 0
        },
        {
            "name": "Haj\u00f3",
            "kind": "utca",
            "post_code": 0
        },
        {
            "name": "Hal\u00e1szcs\u00e1rda",
            "kind": "utca",
            "post_code": 0
        },
        {
            "name": "Harangostelep",
            "kind": "utca",
            "post_code": 0
        },
        {
            "name": "Harangos",
            "kind": "t\u00e9r",
            "post_code": 0
        },
        {
            "name": "H\u00e1rsfa",
            "kind": "utca",
            "post_code": 0
        },
        {
            "name": "Hat\u00e1r",
            "kind": "utca",
            "post_code": 0
        },
        {
            "name": "Hatty\u00fa",
            "kind": "utca",
            "post_code": 0
        },
        {
            "name": "Henger",
            "kind": "utca",
            "post_code": 0
        },
        {
            "name": "H\u00edd",
            "kind": "utca",
            "post_code": 0
        },
        {
            "name": "H\u00edmz\u0151",
            "kind": "utca",
            "post_code": 0
        },
        {
            "name": "H\u00edrn\u00f6k",
            "kind": "utca",
            "post_code": 0
        },
        {
            "name": "H\u00f3di G\u00e9za",
            "kind": "utca",
            "post_code": 0
        },
        {
            "name": "Hold",
            "kind": "utca",
            "post_code": 0
        },
        {
            "name": "Holl\u00f3",
            "kind": "utca",
            "post_code": 0
        },
        {
            "name": "Homok",
            "kind": "utca",
            "post_code": 0
        },
        {
            "name": "Honv\u00e9d",
            "kind": "utca",
            "post_code": 0
        },
        {
            "name": "H\u0151s\u00f6k",
            "kind": "tere",
            "post_code": 0
        },
        {
            "name": "Hunyadi",
            "kind": "utca",
            "post_code": 0
        },
        {
            "name": "Husz\u00e1r",
            "kind": "utca",
            "post_code": 0
        },
        {
            "name": "Ibolya",
            "kind": "utca",
            "post_code": 0
        },
        {
            "name": "Imreh M\u00e1ria",
            "kind": "utca",
            "post_code": 0
        },
        {
            "name": "Iparsz\u0151l\u0151k",
            "kind": "\u00fatja",
            "post_code": 0
        },
        {
            "name": "Izabella",
            "kind": "utca",
            "post_code": 0
        },
        {
            "name": "J\u00e1cint",
            "kind": "utca",
            "post_code": 0
        },
        {
            "name": "J\u00e1r\u00f3sz\u00e9k",
            "kind": "utca",
            "post_code": 0
        },
        {
            "name": "Jegenye",
            "kind": "utca",
            "post_code": 0
        },
        {
            "name": "J\u00f3kai",
            "kind": "utca",
            "post_code": 0
        },
        {
            "name": "J\u00f3sika",
            "kind": "utca",
            "post_code": 0
        },
        {
            "name": "J\u00f3zsef Attila",
            "kind": "utca",
            "post_code": 0
        },
        {
            "name": "Juhar",
            "kind": "utca",
            "post_code": 0
        },
        {
            "name": "Kadarka",
            "kind": "utca",
            "post_code": 0
        },
        {
            "name": "Kalap",
            "kind": "utca",
            "post_code": 0
        },
        {
            "name": "K\u00e1lvin",
            "kind": "t\u00e9r",
            "post_code": 0
        },
        {
            "name": "Kamilla",
            "kind": "utca",
            "post_code": 0
        },
        {
            "name": "Kanizsa",
            "kind": "t\u00e9r",
            "post_code": 0
        },
        {
            "name": "Karacs Ter\u00e9z",
            "kind": "utca",
            "post_code": 0
        },
        {
            "name": "Kar\u00e1nyi s\u00edk",
            "kind": "\u00fatja",
            "post_code": 0
        },
        {
            "name": "K\u00e1r\u00e1sz",
            "kind": "utca",
            "post_code": 0
        },
        {
            "name": "Kard",
            "kind": "utca",
            "post_code": 0
        },
        {
            "name": "Kardvir\u00e1g",
            "kind": "utca",
            "post_code": 0
        },
        {
            "name": "K\u00e1rm\u00e1n",
            "kind": "utca",
            "post_code": 0
        },
        {
            "name": "K\u00e1roly",
            "kind": "utca",
            "post_code": 0
        },
        {
            "name": "K\u00e1rp\u00e1t",
            "kind": "utca",
            "post_code": 0
        },
        {
            "name": "Kassa",
            "kind": "utca",
            "post_code": 0
        },
        {
            "name": "Katona J\u00f3zsef",
            "kind": "utca",
            "post_code": 0
        },
        {
            "name": "Kazal",
            "kind": "utca",
            "post_code": 0
        },
        {
            "name": "Kazinczy",
            "kind": "utca",
            "post_code": 0
        },
        {
            "name": "Keceli",
            "kind": "\u00fat",
            "post_code": 0
        },
        {
            "name": "Kert\u00e9sz",
            "kind": "utca",
            "post_code": 0
        },
        {
            "name": "K\u00e9ve",
            "kind": "utca",
            "post_code": 0
        },
        {
            "name": "Kiffer",
            "kind": "utca",
            "post_code": 0
        },
        {
            "name": "K\u00edgy\u00f3",
            "kind": "utca",
            "post_code": 0
        },
        {
            "name": "Kinizsi",
            "kind": "utca",
            "post_code": 0
        },
        {
            "name": "Kisfaludy",
            "kind": "utca",
            "post_code": 0
        },
        {
            "name": "Kismarton",
            "kind": "utca",
            "post_code": 0
        },
        {
            "name": "Kmeth S\u00e1ndor",
            "kind": "utca",
            "post_code": 0
        },
        {
            "name": "K\u00f6k\u00e9ny",
            "kind": "utca",
            "post_code": 0
        },
        {
            "name": "K\u00f6lcsey",
            "kind": "utca",
            "post_code": 0
        },
        {
            "name": "Kolmann",
            "kind": "utca",
            "post_code": 0
        },
        {
            "name": "Kopolyai",
            "kind": "\u00fat",
            "post_code": 0
        },
        {
            "name": "Kopolya",
            "kind": "k\u00f6z",
            "post_code": 0
        },
        {
            "name": "Korda Imre",
            "kind": "utca",
            "post_code": 0
        },
        {
            "name": "K\u00f3rh\u00e1z",
            "kind": "utca",
            "post_code": 0
        },
        {
            "name": "K\u00f6r\u00f6si",
            "kind": "\u00fat",
            "post_code": 0
        },
        {
            "name": "K\u0151r\u00f6si",
            "kind": "\u00fat",
            "post_code": 0
        },
        {
            "name": "Korvin",
            "kind": "utca",
            "post_code": 0
        },
        {
            "name": "Kos\u00e1r",
            "kind": "utca",
            "post_code": 0
        },
        {
            "name": "Kossuth",
            "kind": "utca",
            "post_code": 0
        },
        {
            "name": "K\u00f6t\u00f6nyi",
            "kind": "\u00fat",
            "post_code": 0
        },
        {
            "name": "Kov\u00e1cs P\u00e1l",
            "kind": "t\u00e9r",
            "post_code": 0
        },
        {
            "name": "K\u00f6z\u00e9ps\u0151ipartelep",
            "kind": "tanya",
            "post_code": 0
        },
        {
            "name": "K\u00f6zt\u00e1rsas\u00e1g",
            "kind": "utca",
            "post_code": 0
        },
        {
            "name": "Kun kapit\u00e1ny",
            "kind": "utca",
            "post_code": 0
        },
        {
            "name": "Kun",
            "kind": "t\u00e9r",
            "post_code": 0
        },
        {
            "name": "Kuruc vit\u00e9zek",
            "kind": "tere",
            "post_code": 0
        },
        {
            "name": "Lakatos Vince",
            "kind": "utca",
            "post_code": 0
        },
        {
            "name": "Laktanya",
            "kind": "utca",
            "post_code": 0
        },
        {
            "name": "Lap\u00e1ly",
            "kind": "utca",
            "post_code": 0
        },
        {
            "name": "Latab\u00e1r",
            "kind": "utca",
            "post_code": 0
        },
        {
            "name": "Lehel",
            "kind": "utca",
            "post_code": 0
        },
        {
            "name": "Lepke",
            "kind": "utca",
            "post_code": 0
        },
        {
            "name": "Levendula",
            "kind": "utca",
            "post_code": 0
        },
        {
            "name": "Liget",
            "kind": "utca",
            "post_code": 0
        },
        {
            "name": "Lomb",
            "kind": "utca",
            "post_code": 0
        },
        {
            "name": "L\u0151t\u00e9r",
            "kind": "utca",
            "post_code": 0
        },
        {
            "name": "Lovag",
            "kind": "utca",
            "post_code": 0
        },
        {
            "name": "Lovarda",
            "kind": "utca",
            "post_code": 0
        },
        {
            "name": "Lugas",
            "kind": "k\u00f6z",
            "post_code": 0
        },
        {
            "name": "Magyar",
            "kind": "utca",
            "post_code": 0
        },
        {
            "name": "Majsai",
            "kind": "\u00fat",
            "post_code": 0
        },
        {
            "name": "M\u00e1jus 1",
            "kind": "t\u00e9r",
            "post_code": 0
        },
        {
            "name": "Malom",
            "kind": "sor",
            "post_code": 0
        },
        {
            "name": "M\u00e1lyva",
            "kind": "utca",
            "post_code": 0
        },
        {
            "name": "Margar\u00e9ta",
            "kind": "utca",
            "post_code": 0
        },
        {
            "name": "Markovics M\u00e1ria",
            "kind": "utca",
            "post_code": 0
        },
        {
            "name": "M\u00e1rt\u00edrok",
            "kind": "\u00fatja",
            "post_code": 0
        },
        {
            "name": "M\u00e1ty\u00e1s",
            "kind": "t\u00e9r",
            "post_code": 0
        },
        {
            "name": "M\u00e1zsa",
            "kind": "utca",
            "post_code": 0
        },
        {
            "name": "M\u00e9rleg",
            "kind": "utca",
            "post_code": 0
        },
        {
            "name": "M\u00e9sz\u00e1ros L\u00e1z\u00e1r",
            "kind": "utca",
            "post_code": 0
        },
        {
            "name": "Mocs\u00e1ri Lajos",
            "kind": "utca",
            "post_code": 0
        },
        {
            "name": "Moln\u00e1r",
            "kind": "utca",
            "post_code": 0
        },
        {
            "name": "Munk\u00e1cs",
            "kind": "utca",
            "post_code": 0
        },
        {
            "name": "Musk\u00e1tli",
            "kind": "utca",
            "post_code": 0
        },
        {
            "name": "N\u00e1d",
            "kind": "utca",
            "post_code": 0
        },
        {
            "name": "Nagy Czirok L\u00e1szl\u00f3",
            "kind": "utca",
            "post_code": 0
        },
        {
            "name": "Nagy K\u00e1lm\u00e1n",
            "kind": "utca",
            "post_code": 0
        },
        {
            "name": "Nagy Szeder Istv\u00e1n",
            "kind": "utca",
            "post_code": 0
        },
        {
            "name": "Nap",
            "kind": "utca",
            "post_code": 0
        },
        {
            "name": "Nefelejcs",
            "kind": "utca",
            "post_code": 0
        },
        {
            "name": "Nemzet\u0151r",
            "kind": "utca",
            "post_code": 0
        },
        {
            "name": "Ny\u00e1rfa",
            "kind": "utca",
            "post_code": 0
        },
        {
            "name": "Ny\u00e1r",
            "kind": "utca",
            "post_code": 0
        },
        {
            "name": "Ny\u00edl",
            "kind": "utca",
            "post_code": 0
        },
        {
            "name": "Ny\u00edrfa",
            "kind": "utca",
            "post_code": 0
        },
        {
            "name": "Ny\u00fal",
            "kind": "utca",
            "post_code": 0
        },
        {
            "name": "Olajb\u00e1ny\u00e1sz",
            "kind": "utca",
            "post_code": 0
        },
        {
            "name": "Olajosok",
            "kind": "\u00fatja",
            "post_code": 0
        },
        {
            "name": "Orm\u00e1ns\u00e1g",
            "kind": "utca",
            "post_code": 0
        },
        {
            "name": "\u0150s\u00f6k",
            "kind": "tere",
            "post_code": 0
        },
        {
            "name": "\u0150sz",
            "kind": "utca",
            "post_code": 0
        },
        {
            "name": "\u00d3",
            "kind": "utca",
            "post_code": 0
        },
        {
            "name": "Pacsirta",
            "kind": "utca",
            "post_code": 0
        },
        {
            "name": "P\u00e1fr\u00e1ny",
            "kind": "utca",
            "post_code": 0
        },
        {
            "name": "P\u00e1k\u00e1sz",
            "kind": "utca",
            "post_code": 0
        },
        {
            "name": "P\u00e1lma",
            "kind": "t\u00e9r",
            "post_code": 0
        },
        {
            "name": "Pand\u00far",
            "kind": "utca",
            "post_code": 0
        },
        {
            "name": "Parti",
            "kind": "utca",
            "post_code": 0
        },
        {
            "name": "P\u00e1sztor",
            "kind": "utca",
            "post_code": 0
        },
        {
            "name": "Patk\u00f3",
            "kind": "utca",
            "post_code": 0
        },
        {
            "name": "Pattanty\u00fas",
            "kind": "utca",
            "post_code": 0
        },
        {
            "name": "Perc",
            "kind": "k\u00f6z",
            "post_code": 0
        },
        {
            "name": "Peterka J\u00f3zsef",
            "kind": "utca",
            "post_code": 0
        },
        {
            "name": "Pet\u0151fi",
            "kind": "utca",
            "post_code": 0
        },
        {
            "name": "Pipacs",
            "kind": "utca",
            "post_code": 0
        },
        {
            "name": "Pipa",
            "kind": "utca",
            "post_code": 0
        },
        {
            "name": "Plat\u00e1n",
            "kind": "utca",
            "post_code": 0
        },
        {
            "name": "Polg\u00e1r",
            "kind": "utca",
            "post_code": 0
        },
        {
            "name": "Posta",
            "kind": "utca",
            "post_code": 0
        },
        {
            "name": "Pozsony",
            "kind": "utca",
            "post_code": 0
        },
        {
            "name": "Pr\u00e1ger \u00c1brah\u00e1m",
            "kind": "utca",
            "post_code": 0
        },
        {
            "name": "Radn\u00f3ti Mikl\u00f3s",
            "kind": "utca",
            "post_code": 0
        },
        {
            "name": "R\u00e1k\u00f3czi",
            "kind": "t\u00e9r",
            "post_code": 0
        },
        {
            "name": "Rakod\u00f3",
            "kind": "utca",
            "post_code": 0
        },
        {
            "name": "Rege",
            "kind": "utca",
            "post_code": 0
        },
        {
            "name": "R\u00e9t",
            "kind": "utca",
            "post_code": 0
        },
        {
            "name": "R\u00e9v\u00e9sz Gy\u00f6rgy",
            "kind": "utca",
            "post_code": 0
        },
        {
            "name": "Rezeda",
            "kind": "utca",
            "post_code": 0
        },
        {
            "name": "R\u00f3ka",
            "kind": "utca",
            "post_code": 0
        },
        {
            "name": "R\u00f3na",
            "kind": "utca",
            "post_code": 0
        },
        {
            "name": "R\u00f3zsa",
            "kind": "t\u00e9r",
            "post_code": 0
        },
        {
            "name": "S\u00e1fr\u00e1ny",
            "kind": "utca",
            "post_code": 0
        },
        {
            "name": "S\u00e1rgarig\u00f3",
            "kind": "utca",
            "post_code": 0
        },
        {
            "name": "S\u00e1rk\u00e1ny",
            "kind": "utca",
            "post_code": 0
        },
        {
            "name": "Sarl\u00f3",
            "kind": "utca",
            "post_code": 0
        },
        {
            "name": "S\u00e1ros",
            "kind": "utca",
            "post_code": 0
        },
        {
            "name": "Sas",
            "kind": "utca",
            "post_code": 0
        },
        {
            "name": "Semmelweis",
            "kind": "t\u00e9r",
            "post_code": 0
        },
        {
            "name": "Sereg",
            "kind": "utca",
            "post_code": 0
        },
        {
            "name": "S\u00e9t\u00e1l\u00f3",
            "kind": "utca",
            "post_code": 0
        },
        {
            "name": "S\u00edp",
            "kind": "utca",
            "post_code": 0
        },
        {
            "name": "S\u00f3lyom",
            "kind": "utca",
            "post_code": 0
        },
        {
            "name": "S\u00f3st\u00f3",
            "kind": "utca",
            "post_code": 0
        },
        {
            "name": "Stepanek Ern\u0151",
            "kind": "utca",
            "post_code": 0
        },
        {
            "name": "Szabadkai",
            "kind": "\u00fat",
            "post_code": 0
        },
        {
            "name": "Szabads\u00e1g",
            "kind": "t\u00e9r",
            "post_code": 0
        },
        {
            "name": "Szab\u00f3 Ervin",
            "kind": "utca",
            "post_code": 0
        },
        {
            "name": "Szalag",
            "kind": "utca",
            "post_code": 0
        },
        {
            "name": "Sz\u00e1ll\u00e1s",
            "kind": "utca",
            "post_code": 0
        },
        {
            "name": "Sz\u00e1mad\u00f3",
            "kind": "utca",
            "post_code": 0
        },
        {
            "name": "Sz\u00e1nt\u00f3 Kov\u00e1cs",
            "kind": "utca",
            "post_code": 0
        },
        {
            "name": "Sz\u00e1sz K\u00e1roly",
            "kind": "utca",
            "post_code": 0
        },
        {
            "name": "Szathm\u00e1ry S\u00e1ndor",
            "kind": "utca",
            "post_code": 0
        },
        {
            "name": "Sz\u00e9chenyi",
            "kind": "utca",
            "post_code": 0
        },
        {
            "name": "Szegedi",
            "kind": "\u00fat",
            "post_code": 0
        },
        {
            "name": "Szegf\u0171",
            "kind": "utca",
            "post_code": 0
        },
        {
            "name": "Sz\u00e9kely",
            "kind": "utca",
            "post_code": 0
        },
        {
            "name": "Sz\u00e9ks\u00f3s",
            "kind": "utca",
            "post_code": 0
        },
        {
            "name": "Sz\u00e9lmalom",
            "kind": "utca",
            "post_code": 0
        },
        {
            "name": "Sz\u00e9lmoln\u00e1r",
            "kind": "utca",
            "post_code": 0
        },
        {
            "name": "Sz\u00e9n\u00e1s",
            "kind": "utca",
            "post_code": 0
        },
        {
            "name": "Szentg\u00e1l",
            "kind": "utca",
            "post_code": 0
        },
        {
            "name": "Szent Gy\u00f6rgy",
            "kind": "t\u00e9r",
            "post_code": 0
        },
        {
            "name": "Szenth\u00e1roms\u00e1g",
            "kind": "t\u00e9r",
            "post_code": 0
        },
        {
            "name": "Szent Imre",
            "kind": "utca",
            "post_code": 0
        },
        {
            "name": "Szent Istv\u00e1n",
            "kind": "utca",
            "post_code": 0
        },
        {
            "name": "Sz\u00e9p",
            "kind": "utca",
            "post_code": 0
        },
        {
            "name": "Szil\u00e1dy \u00c1ron",
            "kind": "utca",
            "post_code": 0
        },
        {
            "name": "Szilv\u00e1s",
            "kind": "k\u00f6z",
            "post_code": 0
        },
        {
            "name": "Sz\u0151l\u0151",
            "kind": "utca",
            "post_code": 0
        },
        {
            "name": "Szondy",
            "kind": "utca",
            "post_code": 0
        },
        {
            "name": "Sz\u00f6vets\u00e9g",
            "kind": "t\u00e9r",
            "post_code": 0
        },
        {
            "name": "T\u00e1bor",
            "kind": "utca",
            "post_code": 0
        },
        {
            "name": "Tambura",
            "kind": "utca",
            "post_code": 0
        },
        {
            "name": "T\u00e1ncsics",
            "kind": "utca",
            "post_code": 0
        },
        {
            "name": "T\u00e1rnok",
            "kind": "utca",
            "post_code": 0
        },
        {
            "name": "T\u00e1rogat\u00f3",
            "kind": "utca",
            "post_code": 0
        },
        {
            "name": "Tavasz",
            "kind": "utca",
            "post_code": 0
        },
        {
            "name": "T\u00e9glagy\u00e1ri",
            "kind": "k\u00f6z",
            "post_code": 0
        },
        {
            "name": "T\u00e9glagy\u00e1ri",
            "kind": "\u00fat",
            "post_code": 0
        },
        {
            "name": "Temet\u0151",
            "kind": "utca",
            "post_code": 0
        },
        {
            "name": "Thorma J\u00e1nos",
            "kind": "utca",
            "post_code": 0
        },
        {
            "name": "Th\u00fary J\u00f3zsef",
            "kind": "utca",
            "post_code": 0
        },
        {
            "name": "Tin\u00f3di",
            "kind": "utca",
            "post_code": 0
        },
        {
            "name": "T\u00f3k\u00f6z",
            "kind": "utca",
            "post_code": 0
        },
        {
            "name": "Toldi",
            "kind": "utca",
            "post_code": 0
        },
        {
            "name": "Tompa",
            "kind": "utca",
            "post_code": 0
        },
        {
            "name": "Torm\u00e1ssy J\u00e1nos",
            "kind": "utca",
            "post_code": 0
        },
        {
            "name": "T\u00f6r\u00f6k",
            "kind": "utca",
            "post_code": 0
        },
        {
            "name": "T\u00f3th J\u00e1nos",
            "kind": "utca",
            "post_code": 0
        },
        {
            "name": "T\u00f3",
            "kind": "utca",
            "post_code": 0
        },
        {
            "name": "Tuba",
            "kind": "utca",
            "post_code": 0
        },
        {
            "name": "Tulip\u00e1n",
            "kind": "utca",
            "post_code": 0
        },
        {
            "name": "\u00daj",
            "kind": "utca",
            "post_code": 0
        },
        {
            "name": "Vad\u00e1sz",
            "kind": "utca",
            "post_code": 0
        },
        {
            "name": "Vadkerti",
            "kind": "\u00fat",
            "post_code": 0
        },
        {
            "name": "Vajda",
            "kind": "utca",
            "post_code": 0
        },
        {
            "name": "V\u00e1llalkoz\u00f3k",
            "kind": "\u00fatja",
            "post_code": 0
        },
        {
            "name": "V\u00e1n Benj\u00e1min",
            "kind": "utca",
            "post_code": 0
        },
        {
            "name": "V\u00e1ri Szab\u00f3 Istv\u00e1n",
            "kind": "utca",
            "post_code": 0
        },
        {
            "name": "V\u00e1rosh\u00e1za",
            "kind": "utca",
            "post_code": 0
        },
        {
            "name": "V\u00e1roskert",
            "kind": "utca",
            "post_code": 0
        },
        {
            "name": "V\u00e1s\u00e1rt\u00e9r",
            "kind": "utca",
            "post_code": 0
        },
        {
            "name": "Vass Lajos",
            "kind": "utca",
            "post_code": 0
        },
        {
            "name": "Vas",
            "kind": "utca",
            "post_code": 0
        },
        {
            "name": "Vas\u00fat",
            "kind": "utca",
            "post_code": 0
        },
        {
            "name": "Venyige",
            "kind": "utca",
            "post_code": 0
        },
        {
            "name": "Vez\u00e9r",
            "kind": "utca",
            "post_code": 0
        },
        {
            "name": "Vihar",
            "kind": "utca",
            "post_code": 0
        },
        {
            "name": "Viola",
            "kind": "utca",
            "post_code": 0
        },
        {
            "name": "Vir\u00e1g",
            "kind": "utca",
            "post_code": 0
        },
        {
            "name": "Vit\u00e9z",
            "kind": "utca",
            "post_code": 0
        },
        {
            "name": "V\u00edz",
            "kind": "utca",
            "post_code": 0
        },
        {
            "name": "V\u00f6r\u00f6smarty",
            "kind": "utca",
            "post_code": 0
        },
        {
            "name": "Zal\u00e1n",
            "kind": "utca",
            "post_code": 0
        },
        {
            "name": "Zerge",
            "kind": "utca",
            "post_code": 0
        },
        {
            "name": "Z\u00f6ldhalom",
            "kind": "utca",
            "post_code": 0
        },
        {
            "name": "Zr\u00ednyi",
            "kind": "utca",
            "post_code": 0
        },
        {
            "name": "Zs\u00e1k",
            "kind": "utca",
            "post_code": 0
        },
        {
            "name": "Zsigray Julianna",
            "kind": "utca",
            "post_code": 0
        },
        {
            "name": "Zsoltina",
            "kind": "utca",
            "post_code": 0
        }
    ]
}