{
    "codes": {
        "3553": [
            "Kistokaj",
            null
        ]
    },
    "streets": [
        {
            "name": "Ady Endre",
            "kind": "utca",
            "post_code": 0
        },
        {
            "name": "\u00c1llom\u00e1s",
            "kind": "utca",
            "post_code": 0
        },
        {
            "name": "\u00c1lmos",
            "kind": "utca",
            "post_code": 0
        },
        {
            "name": "Arany J\u00e1nos",
            "kind": "utca",
            "post_code": 0
        },
        {
            "name": "\u00c1rp\u00e1d",
            "kind": "utca",
            "post_code": 0
        },
        {
            "name": "Balin",
            "kind": "utca",
            "post_code": 0
        },
        {
            "name": "B\u00e9ke",
            "kind": "utca",
            "post_code": 0
        },
        {
            "name": "Bem J\u00f3zsef",
            "kind": "utca",
            "post_code": 0
        },
        {
            "name": "Bercs\u00e9nyi Mikl\u00f3s",
            "kind": "utca",
            "post_code": 0
        },
        {
            "name": "Comp\u00f3",
            "kind": "utca",
            "post_code": 0
        },
        {
            "name": "Cs\u00edk",
            "kind": "utca",
            "post_code": 0
        },
        {
            "name": "Csokonai",
            "kind": "utca",
            "post_code": 0
        },
        {
            "name": "Csuka",
            "kind": "utca",
            "post_code": 0
        },
        {
            "name": "De\u00e1k Ferenc",
            "kind": "utca",
            "post_code": 0
        },
        {
            "name": "D\u00e9tai",
            "kind": "utca",
            "post_code": 0
        },
        {
            "name": "Domolyk\u00f3",
            "kind": "utca",
            "post_code": 0
        },
        {
            "name": "D\u00f3zsa Gy\u00f6rgy",
            "kind": "utca",
            "post_code": 0
        },
        {
            "name": "Fels\u0151tag",
            "kind": "d\u0171l\u0151",
            "post_code": 0
        },
        {
            "name": "Gerendai",
            "kind": "utca",
            "post_code": 0
        },
        {
            "name": "Harcsa",
            "kind": "utca",
            "post_code": 0
        },
        {
            "name": "Hej\u0151",
            "kind": "utca",
            "post_code": 0
        },
        {
            "name": "Herman Ott\u00f3",
            "kind": "utca",
            "post_code": 0
        },
        {
            "name": "Hunyadi J\u00e1nos",
            "kind": "utca",
            "post_code": 0
        },
        {
            "name": "J\u00f3kai M\u00f3r",
            "kind": "utca",
            "post_code": 0
        },
        {
            "name": "J\u00f3zsef Attila",
            "kind": "utca",
            "post_code": 0
        },
        {
            "name": "K\u00e1r\u00e1sz",
            "kind": "utca",
            "post_code": 0
        },
        {
            "name": "Kazinczy Ferenc",
            "kind": "utca",
            "post_code": 0
        },
        {
            "name": "Kecsege",
            "kind": "utca",
            "post_code": 0
        },
        {
            "name": "Keszeg",
            "kind": "utca",
            "post_code": 0
        },
        {
            "name": "Kinizsi P\u00e1l",
            "kind": "utca",
            "post_code": 0
        },
        {
            "name": "Kistokaji",
            "kind": "\u00fat",
            "post_code": 0
        },
        {
            "name": "K\u00f6lcsey Ferenc",
            "kind": "utca",
            "post_code": 0
        },
        {
            "name": "Kossuth Lajos",
            "kind": "utca",
            "post_code": 0
        },
        {
            "name": "M\u00e1rna",
            "kind": "utca",
            "post_code": 0
        },
        {
            "name": "Mikes Kelemen",
            "kind": "utca",
            "post_code": 0
        },
        {
            "name": "Pacsirt\u00e1s",
            "kind": "utca",
            "post_code": 0
        },
        {
            "name": "Pesti",
            "kind": "utca",
            "post_code": 0
        },
        {
            "name": "Pet\u0151fi S\u00e1ndor",
            "kind": "utca",
            "post_code": 0
        },
        {
            "name": "Pisztr\u00e1ng",
            "kind": "utca",
            "post_code": 0
        },
        {
            "name": "Ponty",
            "kind": "utca",
            "post_code": 0
        },
        {
            "name": "S\u00fcg\u00e9r",
            "kind": "utca",
            "post_code": 0
        },
        {
            "name": "S\u00fcll\u0151",
            "kind": "utca",
            "post_code": 0
        },
        {
            "name": "Szabads\u00e1g",
            "kind": "utca",
            "post_code": 0
        },
        {
            "name": "Szab\u00f3 L\u0151rinc",
            "kind": "utca",
            "post_code": 0
        },
        {
            "name": "Sz\u00e9chenyi",
            "kind": "utca",
            "post_code": 0
        },
        {
            "name": "Szemere Bertalan",
            "kind": "utca",
            "post_code": 0
        },
        {
            "name": "T\u00e1ncsics Mih\u00e1ly",
            "kind": "utca",
            "post_code": 0
        },
        {
            "name": "Vasv\u00e1ri P\u00e1l",
            "kind": "utca",
            "post_code": 0
        },
        {
            "name": "Wesley",
            "kind": "utca",
            "post_code": 0
        }
    ]
}