{
    "codes": {
        "2900": [
            "Kom\u00e1rom",
            " "
        ],
        "2903": [
            "Kom\u00e1rom",
            "Kopp\u00e1nymonostor"
        ],
        "2921": [
            "Kom\u00e1rom",
            "Sz\u0151ny"
        ]
    },
    "streets": [
        {
            "name": "\u00c1csi",
            "kind": "\u00fat",
            "post_code": 0
        },
        {
            "name": "Ady Endre",
            "kind": "utca",
            "post_code": 0
        },
        {
            "name": "Ak\u00e1cfa",
            "kind": "utca",
            "post_code": 0
        },
        {
            "name": "Al\u017ebetin most",
            "kind": "",
            "post_code": 0
        },
        {
            "name": "\u00c1prily Lajos",
            "kind": "utca",
            "post_code": 0
        },
        {
            "name": "Aradi v\u00e9rtan\u00fak",
            "kind": "tere",
            "post_code": 0
        },
        {
            "name": "Aranyember",
            "kind": "utca",
            "post_code": 0
        },
        {
            "name": "Arany J\u00e1nos",
            "kind": "utca",
            "post_code": 0
        },
        {
            "name": "\u00c1rp\u00e1d vez\u00e9r",
            "kind": "utca",
            "post_code": 0
        },
        {
            "name": "Asztalos B\u00e9la",
            "kind": "utca",
            "post_code": 0
        },
        {
            "name": "Babits Mih\u00e1ly",
            "kind": "utca",
            "post_code": 0
        },
        {
            "name": "Bajcsy-Zsilinszky",
            "kind": "utca",
            "post_code": 0
        },
        {
            "name": "Balassi B\u00e1lint",
            "kind": "utca",
            "post_code": 0
        },
        {
            "name": "Balaton",
            "kind": "utca",
            "post_code": 0
        },
        {
            "name": "B\u00e1nki Don\u00e1t",
            "kind": "utca",
            "post_code": 0
        },
        {
            "name": "Bar\u00e1ts\u00e1g",
            "kind": "lak\u00f3telep",
            "post_code": 0
        },
        {
            "name": "Barcza",
            "kind": "utca",
            "post_code": 0
        },
        {
            "name": "Bart\u00f3k B\u00e9la",
            "kind": "utca",
            "post_code": 0
        },
        {
            "name": "Basadomb",
            "kind": "utca",
            "post_code": 0
        },
        {
            "name": "B\u00e1thory Istv\u00e1n",
            "kind": "utca",
            "post_code": 0
        },
        {
            "name": "Bats\u00e1nyi J\u00e1nos",
            "kind": "utca",
            "post_code": 0
        },
        {
            "name": "B\u00e9ke",
            "kind": "sor",
            "post_code": 0
        },
        {
            "name": "Bem J\u00f3zsef",
            "kind": "utca",
            "post_code": 0
        },
        {
            "name": "Be\u00f6thy Zsolt",
            "kind": "utca",
            "post_code": 0
        },
        {
            "name": "Bercs\u00e9nyi Mikl\u00f3s",
            "kind": "utca",
            "post_code": 0
        },
        {
            "name": "Berzsenyi D\u00e1niel",
            "kind": "utca",
            "post_code": 0
        },
        {
            "name": "Blaha Lujza",
            "kind": "utca",
            "post_code": 0
        },
        {
            "name": "Bocskai Istv\u00e1n",
            "kind": "utca",
            "post_code": 0
        },
        {
            "name": "Bokr\u00e9ta",
            "kind": "utca",
            "post_code": 0
        },
        {
            "name": "Boros M\u00e1ty\u00e1s",
            "kind": "utca",
            "post_code": 0
        },
        {
            "name": "Budai Nagy Antal",
            "kind": "utca",
            "post_code": 0
        },
        {
            "name": "buszfordul\u00f3",
            "kind": "",
            "post_code": 0
        },
        {
            "name": "Cikl\u00e1men",
            "kind": "utca",
            "post_code": 0
        },
        {
            "name": "Csendes",
            "kind": "utca",
            "post_code": 0
        },
        {
            "name": "Csillag",
            "kind": "lak\u00f3telep",
            "post_code": 0
        },
        {
            "name": "Csokonai Vit\u00e9z Mih\u00e1ly",
            "kind": "utca",
            "post_code": 0
        },
        {
            "name": "Csopak",
            "kind": "k\u00f6z",
            "post_code": 0
        },
        {
            "name": "Czibor",
            "kind": "utca",
            "post_code": 0
        },
        {
            "name": "Czuczor Gergely",
            "kind": "utca",
            "post_code": 0
        },
        {
            "name": "Damjanich J\u00e1nos",
            "kind": "utca",
            "post_code": 0
        },
        {
            "name": "Dank\u00f3 Pista",
            "kind": "utca",
            "post_code": 0
        },
        {
            "name": "De\u00e1k Ferenc",
            "kind": "utca",
            "post_code": 0
        },
        {
            "name": "D\u00e9ryn\u00e9",
            "kind": "utca",
            "post_code": 0
        },
        {
            "name": "Di\u00f3fa",
            "kind": "utca",
            "post_code": 0
        },
        {
            "name": "Dob\u00f3 Istv\u00e1n",
            "kind": "utca",
            "post_code": 0
        },
        {
            "name": "Domb",
            "kind": "utca",
            "post_code": 0
        },
        {
            "name": "D\u00f6me K\u00e1roly",
            "kind": "utca",
            "post_code": 0
        },
        {
            "name": "D\u00f3zsa Gy\u00f6rgy",
            "kind": "utca",
            "post_code": 0
        },
        {
            "name": "Egressy B\u00e9ni",
            "kind": "utca",
            "post_code": 0
        },
        {
            "name": "E\u00f6tv\u00f6s Lor\u00e1nd",
            "kind": "utca",
            "post_code": 0
        },
        {
            "name": "Erd\u00e9lyi",
            "kind": "utca",
            "post_code": 0
        },
        {
            "name": "Erd\u00e9sz",
            "kind": "utca",
            "post_code": 0
        },
        {
            "name": "Erd\u0151",
            "kind": "utca",
            "post_code": 0
        },
        {
            "name": "Erkel Ferenc",
            "kind": "utca",
            "post_code": 0
        },
        {
            "name": "Erzs\u00e9bet-h\u00edd",
            "kind": "",
            "post_code": 0
        },
        {
            "name": "Esze Tam\u00e1s",
            "kind": "utca",
            "post_code": 0
        },
        {
            "name": "Eszperant\u00f3",
            "kind": "utca",
            "post_code": 0
        },
        {
            "name": "Ezerj\u00f3",
            "kind": "utca",
            "post_code": 0
        },
        {
            "name": "F\u00e1y Andr\u00e1s",
            "kind": "utca",
            "post_code": 0
        },
        {
            "name": "Felvid\u00e9ki",
            "kind": "utca",
            "post_code": 0
        },
        {
            "name": "Fenyves",
            "kind": "utca",
            "post_code": 0
        },
        {
            "name": "Feszty \u00c1rp\u00e1d",
            "kind": "utca",
            "post_code": 0
        },
        {
            "name": "Fok",
            "kind": "utca",
            "post_code": 0
        },
        {
            "name": "Frigyes",
            "kind": "t\u00e9r",
            "post_code": 0
        },
        {
            "name": "F\u0171zfa",
            "kind": "utca",
            "post_code": 0
        },
        {
            "name": "G\u00e1bor \u00c1ron",
            "kind": "utca",
            "post_code": 0
        },
        {
            "name": "Galagonya",
            "kind": "utca",
            "post_code": 0
        },
        {
            "name": "G\u00e1z",
            "kind": "utca",
            "post_code": 0
        },
        {
            "name": "Gesztenye",
            "kind": "fasor",
            "post_code": 0
        },
        {
            "name": "Gesztenye",
            "kind": "utca",
            "post_code": 0
        },
        {
            "name": "Ghyczy K\u00e1lm\u00e1n",
            "kind": "utca",
            "post_code": 0
        },
        {
            "name": "Gr\u00f3f Zichy Mikl\u00f3s",
            "kind": "utca",
            "post_code": 0
        },
        {
            "name": "Guyon Rich\u00e1rd",
            "kind": "utca",
            "post_code": 0
        },
        {
            "name": "Gyanta",
            "kind": "utca",
            "post_code": 0
        },
        {
            "name": "Gy\u00e1r",
            "kind": "utca",
            "post_code": 0
        },
        {
            "name": "Gyermekv\u00e1ros",
            "kind": "",
            "post_code": 0
        },
        {
            "name": "Gy\u00f6ngyvir\u00e1g",
            "kind": "utca",
            "post_code": 0
        },
        {
            "name": "H\u00e1ga L\u00e1szl\u00f3",
            "kind": "utca",
            "post_code": 0
        },
        {
            "name": "Haj\u00f3vontat\u00f3",
            "kind": "part",
            "post_code": 0
        },
        {
            "name": "Halast\u00f3",
            "kind": "utca",
            "post_code": 0
        },
        {
            "name": "H\u00e1rsfa",
            "kind": "utca",
            "post_code": 0
        },
        {
            "name": "Hat\u00e1r",
            "kind": "utca",
            "post_code": 0
        },
        {
            "name": "Herman Ott\u00f3",
            "kind": "utca",
            "post_code": 0
        },
        {
            "name": "H\u00e9tvez\u00e9r",
            "kind": "utca",
            "post_code": 0
        },
        {
            "name": "Hiszek N\u00e1dor",
            "kind": "utca",
            "post_code": 0
        },
        {
            "name": "Hold",
            "kind": "utca",
            "post_code": 0
        },
        {
            "name": "Homok",
            "kind": "utca",
            "post_code": 0
        },
        {
            "name": "Honfoglal\u00e1s",
            "kind": "utca",
            "post_code": 0
        },
        {
            "name": "Horg\u00e1sz",
            "kind": "k\u00f6z",
            "post_code": 0
        },
        {
            "name": "H\u0151s\u00f6k",
            "kind": "tere",
            "post_code": 0
        },
        {
            "name": "H\u00f3vir\u00e1g",
            "kind": "utca",
            "post_code": 0
        },
        {
            "name": "Hunyadi J\u00e1nos",
            "kind": "utca",
            "post_code": 0
        },
        {
            "name": "Husz\u00e1r",
            "kind": "utca",
            "post_code": 0
        },
        {
            "name": "Ifj\u00fas\u00e1g",
            "kind": "utca",
            "post_code": 0
        },
        {
            "name": "Igm\u00e1ndi",
            "kind": "\u00fat",
            "post_code": 0
        },
        {
            "name": "Irinyi J\u00e1nos",
            "kind": "utca",
            "post_code": 0
        },
        {
            "name": "Iskola",
            "kind": "utca",
            "post_code": 0
        },
        {
            "name": "J\u00e1szai Mari",
            "kind": "utca",
            "post_code": 0
        },
        {
            "name": "Jedlik \u00c1nyos",
            "kind": "utca",
            "post_code": 0
        },
        {
            "name": "J\u00f3kai",
            "kind": "liget",
            "post_code": 0
        },
        {
            "name": "J\u00f3kai M\u00f3r",
            "kind": "t\u00e9r",
            "post_code": 0
        },
        {
            "name": "J\u00f3zsef Attila",
            "kind": "utca",
            "post_code": 0
        },
        {
            "name": "Juh\u00e1sz Gyula",
            "kind": "utca",
            "post_code": 0
        },
        {
            "name": "Kacs\u00f3h Pongr\u00e1c",
            "kind": "utca",
            "post_code": 0
        },
        {
            "name": "K\u00e1llay Tivadar",
            "kind": "utca",
            "post_code": 0
        },
        {
            "name": "Kalm\u00e1r",
            "kind": "k\u00f6z",
            "post_code": 0
        },
        {
            "name": "K\u00e1rolyi Mih\u00e1ly",
            "kind": "utca",
            "post_code": 0
        },
        {
            "name": "Katap\u00e1n",
            "kind": "utca",
            "post_code": 0
        },
        {
            "name": "Kelemen L\u00e1szl\u00f3",
            "kind": "utca",
            "post_code": 0
        },
        {
            "name": "Kiserd\u0151",
            "kind": "utca",
            "post_code": 0
        },
        {
            "name": "Kispatak",
            "kind": "",
            "post_code": 0
        },
        {
            "name": "Kis",
            "kind": "utca",
            "post_code": 0
        },
        {
            "name": "Klapka Gy\u00f6rgy",
            "kind": "\u00fat",
            "post_code": 0
        },
        {
            "name": "Kod\u00e1ly Zolt\u00e1n",
            "kind": "utca",
            "post_code": 0
        },
        {
            "name": "K\u00f6lcsey Ferenc",
            "kind": "utca",
            "post_code": 0
        },
        {
            "name": "K\u0151olaj",
            "kind": "utca",
            "post_code": 0
        },
        {
            "name": "Kopp\u00e1nyvez\u00e9r",
            "kind": "\u00fat",
            "post_code": 0
        },
        {
            "name": "Kopp\u00e1ny vez\u00e9r",
            "kind": "utca",
            "post_code": 0
        },
        {
            "name": "Korona",
            "kind": "utca",
            "post_code": 0
        },
        {
            "name": "Kossuth Lajos",
            "kind": "utca",
            "post_code": 0
        },
        {
            "name": "Kosztol\u00e1nyi Dezs\u0151",
            "kind": "utca",
            "post_code": 0
        },
        {
            "name": "K\u00f6zt\u00e1rsas\u00e1g",
            "kind": "\u00fat",
            "post_code": 0
        },
        {
            "name": "Kriv\u00e1csy J\u00f3zsef",
            "kind": "utca",
            "post_code": 0
        },
        {
            "name": "Kulcs\u00e1r Istv\u00e1n",
            "kind": "utca",
            "post_code": 0
        },
        {
            "name": "Labor\u00e1ns",
            "kind": "utca",
            "post_code": 0
        },
        {
            "name": "Lajta",
            "kind": "utca",
            "post_code": 0
        },
        {
            "name": "Laktanya",
            "kind": "k\u00f6z",
            "post_code": 0
        },
        {
            "name": "Leh\u00e1r Ferenc",
            "kind": "utca",
            "post_code": 0
        },
        {
            "name": "Lev\u00e9l",
            "kind": "utca",
            "post_code": 0
        },
        {
            "name": "Liget",
            "kind": "k\u00f6z",
            "post_code": 0
        },
        {
            "name": "Liszt Ferenc",
            "kind": "utca",
            "post_code": 0
        },
        {
            "name": "Lombos",
            "kind": "utca",
            "post_code": 0
        },
        {
            "name": "Lovarda",
            "kind": "t\u00e9r",
            "post_code": 0
        },
        {
            "name": "Mad\u00e1ch Imre",
            "kind": "utca",
            "post_code": 0
        },
        {
            "name": "Magt\u00e1r",
            "kind": "utca",
            "post_code": 0
        },
        {
            "name": "Mandula",
            "kind": "utca",
            "post_code": 0
        },
        {
            "name": "Marek J\u00f3zsef",
            "kind": "utca",
            "post_code": 0
        },
        {
            "name": "Margar\u00e9ta",
            "kind": "utca",
            "post_code": 0
        },
        {
            "name": "Maros",
            "kind": "utca",
            "post_code": 0
        },
        {
            "name": "M\u00e1rt\u00edrok",
            "kind": "\u00fatja",
            "post_code": 0
        },
        {
            "name": "M\u00e1trai Gyula",
            "kind": "utca",
            "post_code": 0
        },
        {
            "name": "M\u00e1tra",
            "kind": "utca",
            "post_code": 0
        },
        {
            "name": "M\u00e1ty\u00e1s kir\u00e1ly",
            "kind": "utca",
            "post_code": 0
        },
        {
            "name": "Mez\u0151",
            "kind": "sor",
            "post_code": 0
        },
        {
            "name": "Mikes Kelemen",
            "kind": "utca",
            "post_code": 0
        },
        {
            "name": "Miksz\u00e1th K\u00e1lm\u00e1n",
            "kind": "utca",
            "post_code": 0
        },
        {
            "name": "Mocsai",
            "kind": "\u00fat",
            "post_code": 0
        },
        {
            "name": "M\u00f3ra Ferenc",
            "kind": "utca",
            "post_code": 0
        },
        {
            "name": "M\u00f3ricz Zsigmond",
            "kind": "utca",
            "post_code": 0
        },
        {
            "name": "Munk\u00e1csy Mih\u00e1ly",
            "kind": "utca",
            "post_code": 0
        },
        {
            "name": "Munk\u00e1s",
            "kind": "k\u00f6z",
            "post_code": 0
        },
        {
            "name": "M\u0171szer\u00e9sz",
            "kind": "utca",
            "post_code": 0
        },
        {
            "name": "N\u00e1dor",
            "kind": "utca",
            "post_code": 0
        },
        {
            "name": "Nefelejcs",
            "kind": "utca",
            "post_code": 0
        },
        {
            "name": "Neumann J\u00e1nos",
            "kind": "utca",
            "post_code": 0
        },
        {
            "name": "Nokia",
            "kind": "utca",
            "post_code": 0
        },
        {
            "name": "Ny\u00e1r",
            "kind": "utca",
            "post_code": 0
        },
        {
            "name": "Ny\u00edrfa",
            "kind": "",
            "post_code": 0
        },
        {
            "name": "Olajmunk\u00e1s",
            "kind": "utca",
            "post_code": 0
        },
        {
            "name": "Olt",
            "kind": "utca",
            "post_code": 0
        },
        {
            "name": "Orgona",
            "kind": "utca",
            "post_code": 0
        },
        {
            "name": "\u0150rs\u00e9g",
            "kind": "utca",
            "post_code": 0
        },
        {
            "name": "\u0150sz",
            "kind": "utca",
            "post_code": 0
        },
        {
            "name": "P\u00e1lffy Mikl\u00f3s",
            "kind": "utca",
            "post_code": 0
        },
        {
            "name": "P\u00e1va",
            "kind": "k\u00f6z",
            "post_code": 0
        },
        {
            "name": "P\u00e9czeli J\u00f3zsef",
            "kind": "utca",
            "post_code": 0
        },
        {
            "name": "Pet\u0151fi S\u00e1ndor",
            "kind": "utca",
            "post_code": 0
        },
        {
            "name": "Pipacs",
            "kind": "utca",
            "post_code": 0
        },
        {
            "name": "Popr\u00e1d",
            "kind": "utca",
            "post_code": 0
        },
        {
            "name": "Puskaporosi",
            "kind": "\u00fat",
            "post_code": 0
        },
        {
            "name": "Pusk\u00e1s Tivadar",
            "kind": "utca",
            "post_code": 0
        },
        {
            "name": "Radn\u00f3ti Mikl\u00f3s",
            "kind": "utca",
            "post_code": 0
        },
        {
            "name": "R\u00e1k\u00f3czi Ferenc",
            "kind": "rakpart",
            "post_code": 0
        },
        {
            "name": "R\u00e9ti",
            "kind": "sor",
            "post_code": 0
        },
        {
            "name": "Rezeda",
            "kind": "utca",
            "post_code": 0
        },
        {
            "name": "Rizling",
            "kind": "utca",
            "post_code": 0
        },
        {
            "name": "R\u00fcdiger",
            "kind": "s\u00e9t\u00e1ny",
            "post_code": 0
        },
        {
            "name": "Serf\u0151z\u0151",
            "kind": "k\u00f6z",
            "post_code": 0
        },
        {
            "name": "Somos",
            "kind": "utca",
            "post_code": 0
        },
        {
            "name": "S\u00f6r\u00f6s Pongr\u00e1c",
            "kind": "utca",
            "post_code": 0
        },
        {
            "name": "Sport",
            "kind": "utca",
            "post_code": 0
        },
        {
            "name": "Stadion",
            "kind": "\u00fat",
            "post_code": 0
        },
        {
            "name": "Szabads\u00e1g",
            "kind": "utca",
            "post_code": 0
        },
        {
            "name": "Szab\u00f3 L\u0151rinc",
            "kind": "utca",
            "post_code": 0
        },
        {
            "name": "Szamos",
            "kind": "utca",
            "post_code": 0
        },
        {
            "name": "Sz\u00e1va",
            "kind": "utca",
            "post_code": 0
        },
        {
            "name": "Sz\u00e9chenyi Istv\u00e1n",
            "kind": "utca",
            "post_code": 0
        },
        {
            "name": "Szegf\u0171",
            "kind": "utca",
            "post_code": 0
        },
        {
            "name": "Sz\u00e9kely Bertalan",
            "kind": "utca",
            "post_code": 0
        },
        {
            "name": "Sz\u00e9ls\u0151",
            "kind": "utca",
            "post_code": 0
        },
        {
            "name": "Szent Istv\u00e1n",
            "kind": "t\u00e9r",
            "post_code": 0
        },
        {
            "name": "Szent L\u00e1szl\u00f3",
            "kind": "utca",
            "post_code": 0
        },
        {
            "name": "Szinnyei J\u00f3zsef",
            "kind": "utca",
            "post_code": 0
        },
        {
            "name": "Sz\u0151l\u0151",
            "kind": "utca",
            "post_code": 0
        },
        {
            "name": "Sz\u0151nyi",
            "kind": "\u00fat",
            "post_code": 0
        },
        {
            "name": "T\u00e1bornok",
            "kind": "utca",
            "post_code": 0
        },
        {
            "name": "Tak\u00e1ts S\u00e1ndor",
            "kind": "utca",
            "post_code": 0
        },
        {
            "name": "Tam\u00e1si \u00c1ron",
            "kind": "utca",
            "post_code": 0
        },
        {
            "name": "T\u00e1ncsics Mih\u00e1ly",
            "kind": "utca",
            "post_code": 0
        },
        {
            "name": "Tatai",
            "kind": "\u00fat",
            "post_code": 0
        },
        {
            "name": "Tavasz",
            "kind": "utca",
            "post_code": 0
        },
        {
            "name": "T\u00e9ltemet\u0151",
            "kind": "utca",
            "post_code": 0
        },
        {
            "name": "T\u00e9l",
            "kind": "utca",
            "post_code": 0
        },
        {
            "name": "Temet\u0151",
            "kind": "utca",
            "post_code": 0
        },
        {
            "name": "Templom",
            "kind": "k\u00f6z",
            "post_code": 0
        },
        {
            "name": "T\u00e9rffy Gyula",
            "kind": "utca",
            "post_code": 0
        },
        {
            "name": "Toboz",
            "kind": "utca",
            "post_code": 0
        },
        {
            "name": "Toldi Mikl\u00f3s",
            "kind": "utca",
            "post_code": 0
        },
        {
            "name": "Tompa Mih\u00e1ly",
            "kind": "utca",
            "post_code": 0
        },
        {
            "name": "T\u00f3part",
            "kind": "lak\u00f3telep",
            "post_code": 0
        },
        {
            "name": "Torma",
            "kind": "k\u00f6z",
            "post_code": 0
        },
        {
            "name": "T\u00f6r\u00f6k Ign\u00e1c",
            "kind": "utca",
            "post_code": 0
        },
        {
            "name": "T\u00f3th L\u0151rinc",
            "kind": "utca",
            "post_code": 0
        },
        {
            "name": "T\u00f3",
            "kind": "utca",
            "post_code": 0
        },
        {
            "name": "Tulip\u00e1n",
            "kind": "utca",
            "post_code": 0
        },
        {
            "name": "T\u00far\u00f3hegy",
            "kind": "",
            "post_code": 0
        },
        {
            "name": "T\u00fcz\u00e9r",
            "kind": "utca",
            "post_code": 0
        },
        {
            "name": "T\u0171zolt\u00f3",
            "kind": "utca",
            "post_code": 0
        },
        {
            "name": "\u00dajsz\u00e1ll\u00e1si",
            "kind": "utca",
            "post_code": 0
        },
        {
            "name": "V\u00e1d Mih\u00e1ly",
            "kind": "utca",
            "post_code": 0
        },
        {
            "name": "V\u00e1g",
            "kind": "utca",
            "post_code": 0
        },
        {
            "name": "V\u00e1llalkoz\u00f3k",
            "kind": "\u00fatja",
            "post_code": 0
        },
        {
            "name": "Varga J\u00f3zsef",
            "kind": "utca",
            "post_code": 0
        },
        {
            "name": "V\u00e1rosmajor",
            "kind": "utca",
            "post_code": 0
        },
        {
            "name": "V\u00e1s\u00e1rt\u00e9r",
            "kind": "utca",
            "post_code": 0
        },
        {
            "name": "Vas\u00fat",
            "kind": "utca",
            "post_code": 0
        },
        {
            "name": "Vasv\u00e1ri P\u00e1l",
            "kind": "utca",
            "post_code": 0
        },
        {
            "name": "Vegy\u00e9sz",
            "kind": "utca",
            "post_code": 0
        },
        {
            "name": "Vend\u00e9gl\u0151",
            "kind": "utca",
            "post_code": 0
        },
        {
            "name": "Vida",
            "kind": "k\u00f6z",
            "post_code": 0
        },
        {
            "name": "Vir\u00e1g",
            "kind": "utca",
            "post_code": 0
        },
        {
            "name": "Viza",
            "kind": "utca",
            "post_code": 0
        },
        {
            "name": "Vizimoln\u00e1r",
            "kind": "utca",
            "post_code": 0
        },
        {
            "name": "V\u00f6r\u00f6smarty Mih\u00e1ly",
            "kind": "utca",
            "post_code": 0
        },
        {
            "name": "Zempl\u00e9ni G\u00e9za",
            "kind": "utca",
            "post_code": 0
        },
        {
            "name": "Zeng\u0151",
            "kind": "",
            "post_code": 0
        },
        {
            "name": "Zr\u00ednyi Mikl\u00f3s",
            "kind": "utca",
            "post_code": 0
        },
        {
            "name": "Zs\u00e1k",
            "kind": "utca",
            "post_code": 0
        }
    ]
}