{
    "codes": {
        "6096": [
            "Kunpesz\u00e9r",
            null
        ]
    },
    "streets": [
        {
            "name": "Ady Endre",
            "kind": "utca",
            "post_code": 0
        },
        {
            "name": "Arany J\u00e1nos",
            "kind": "utca",
            "post_code": 0
        },
        {
            "name": "Bajcsy-Zsilinszky",
            "kind": "utca",
            "post_code": 0
        },
        {
            "name": "B\u00e9ke",
            "kind": "utca",
            "post_code": 0
        },
        {
            "name": "Bucka",
            "kind": "utca",
            "post_code": 0
        },
        {
            "name": "Buszfordul\u00f3",
            "kind": "",
            "post_code": 0
        },
        {
            "name": "csap\u00e1s",
            "kind": "",
            "post_code": 0
        },
        {
            "name": "D\u00f3zsa Gy\u00f6rgy",
            "kind": "utca",
            "post_code": 0
        },
        {
            "name": "J\u00f3kai",
            "kind": "utca",
            "post_code": 0
        },
        {
            "name": "Kerge zerge",
            "kind": "utca",
            "post_code": 0
        },
        {
            "name": "Kossuth Lajos",
            "kind": "utca",
            "post_code": 0
        },
        {
            "name": "K\u00f6z\u00e9ppsze\u00e9r",
            "kind": "tanya",
            "post_code": 0
        },
        {
            "name": "Pet\u0151fi S\u00e1ndor",
            "kind": "utca",
            "post_code": 0
        },
        {
            "name": "Sz\u00e9chenyi",
            "kind": "utca",
            "post_code": 0
        },
        {
            "name": "Szomjas vakond",
            "kind": "utca",
            "post_code": 0
        },
        {
            "name": "T\u00e1ncsics Mih\u00e1ly",
            "kind": "utca",
            "post_code": 0
        },
        {
            "name": "V\u00f6r\u00f6smarty",
            "kind": "utca",
            "post_code": 0
        },
        {
            "name": "XIX.",
            "kind": "utca",
            "post_code": 0
        },
        {
            "name": "XVIII.",
            "kind": "utca",
            "post_code": 0
        },
        {
            "name": "XVII.",
            "kind": "utca",
            "post_code": 0
        },
        {
            "name": "XVI.",
            "kind": "utca",
            "post_code": 0
        },
        {
            "name": "XXI.",
            "kind": "utca",
            "post_code": 0
        }
    ]
}