{
    "codes": {
        "2475": [
            "K\u00e1poln\u00e1sny\u00e9k",
            null
        ]
    },
    "streets": [
        {
            "name": "Ady",
            "kind": "utca",
            "post_code": 0
        },
        {
            "name": "Arany J\u00e1nos",
            "kind": "utca",
            "post_code": 0
        },
        {
            "name": "\u00c1rp\u00e1d fejedelem",
            "kind": "utca",
            "post_code": 0
        },
        {
            "name": "Balassa",
            "kind": "utca",
            "post_code": 0
        },
        {
            "name": "Bem J\u00f3zsef",
            "kind": "utca",
            "post_code": 0
        },
        {
            "name": "B\u00fazavir\u00e1g",
            "kind": "utca",
            "post_code": 0
        },
        {
            "name": "Csek\u00e9s sz\u00f6l\u0151",
            "kind": "",
            "post_code": 0
        },
        {
            "name": "De\u00e1k Ferenc",
            "kind": "utca",
            "post_code": 0
        },
        {
            "name": "D\u00f3zsa",
            "kind": "utca",
            "post_code": 0
        },
        {
            "name": "Ercsi",
            "kind": "\u00fat",
            "post_code": 0
        },
        {
            "name": "Feh\u00e9rv\u00e1ri",
            "kind": "\u00fat",
            "post_code": 0
        },
        {
            "name": "F\u0151",
            "kind": "utca",
            "post_code": 0
        },
        {
            "name": "G\u00e1rdonyi",
            "kind": "\u00fat",
            "post_code": 0
        },
        {
            "name": "G\u00e9za",
            "kind": "utca",
            "post_code": 0
        },
        {
            "name": "J\u00f3kai M\u00f3r",
            "kind": "utca",
            "post_code": 0
        },
        {
            "name": "J\u00f3zsef Attila  Lehel",
            "kind": "utca",
            "post_code": 0
        },
        {
            "name": "Kazinczy",
            "kind": "utca",
            "post_code": 0
        },
        {
            "name": "Kiss",
            "kind": "utca",
            "post_code": 0
        },
        {
            "name": "Kossuth Lajos",
            "kind": "utca",
            "post_code": 0
        },
        {
            "name": "Kossuth",
            "kind": "utca",
            "post_code": 0
        },
        {
            "name": "Kutas",
            "kind": "sor",
            "post_code": 0
        },
        {
            "name": "Liliom  Erzs\u00e9bet",
            "kind": "utca",
            "post_code": 0
        },
        {
            "name": "M\u00e1ty\u00e1s kir\u00e1ly",
            "kind": "utca",
            "post_code": 0
        },
        {
            "name": "Meszleny",
            "kind": "\u00fat",
            "post_code": 0
        },
        {
            "name": "Miksz\u00e1th",
            "kind": "utca",
            "post_code": 0
        },
        {
            "name": "M\u00f3ra Ferenc",
            "kind": "utca",
            "post_code": 0
        },
        {
            "name": "N\u00e9meth L\u00e1szl\u00f3",
            "kind": "utca",
            "post_code": 0
        },
        {
            "name": "Olaj",
            "kind": "telep",
            "post_code": 0
        },
        {
            "name": "Orsz\u00e1g",
            "kind": "\u00fat",
            "post_code": 0
        },
        {
            "name": "\u00d6sszek\u00f6t\u0151",
            "kind": "\u00fat",
            "post_code": 0
        },
        {
            "name": "Pet\u0151fi S\u00e1ndor",
            "kind": "utca",
            "post_code": 0
        },
        {
            "name": "Pet\u0151fi",
            "kind": "utca",
            "post_code": 0
        },
        {
            "name": "R\u00e1k\u00f3czi Ferenc",
            "kind": "utca",
            "post_code": 0
        },
        {
            "name": "Ravasz L\u00e1szl\u00f3",
            "kind": "utca",
            "post_code": 0
        },
        {
            "name": "Sz\u00e9chenyi",
            "kind": "utca",
            "post_code": 0
        },
        {
            "name": "Szegf\u0171",
            "kind": "utca",
            "post_code": 0
        },
        {
            "name": "Szent Gell\u00e9rt",
            "kind": "t\u00e9r",
            "post_code": 0
        },
        {
            "name": "Szent Istv\u00e1n",
            "kind": "utca",
            "post_code": 0
        },
        {
            "name": "Szent L\u00e1szl\u00f3",
            "kind": "utca",
            "post_code": 0
        },
        {
            "name": "Sz\u00e9p Ilonka",
            "kind": "utca",
            "post_code": 0
        },
        {
            "name": "Sz\u00edv",
            "kind": "utca",
            "post_code": 0
        },
        {
            "name": "T\u00e1bor",
            "kind": "utca",
            "post_code": 0
        },
        {
            "name": "T\u00e1ncsics Mih\u00e1ly",
            "kind": "utca",
            "post_code": 0
        },
        {
            "name": "T\u00e9l",
            "kind": "utca",
            "post_code": 0
        },
        {
            "name": "Tompa Mih\u00e1ly",
            "kind": "utca",
            "post_code": 0
        },
        {
            "name": "T\u00f3",
            "kind": "utca",
            "post_code": 0
        },
        {
            "name": "Tulip\u00e1n",
            "kind": "utca",
            "post_code": 0
        },
        {
            "name": "V\u00e1ndor",
            "kind": "utca",
            "post_code": 0
        },
        {
            "name": "V\u00e1ndor  J\u00f3zsef Attila",
            "kind": "utca",
            "post_code": 0
        },
        {
            "name": "Vasv\u00e1ri",
            "kind": "utca",
            "post_code": 0
        },
        {
            "name": "V\u00edzm\u0171",
            "kind": "utca",
            "post_code": 0
        },
        {
            "name": "V\u00f6r\u00f6smarty",
            "kind": "utca",
            "post_code": 0
        }
    ]
}