{
    "codes": {
        "2625": [
            "K\u00f3spallag",
            null
        ]
    },
    "streets": [
        {
            "name": "\u00c1rp\u00e1d",
            "kind": "utca",
            "post_code": 0
        },
        {
            "name": "B\u00e9ke",
            "kind": "utca",
            "post_code": 0
        },
        {
            "name": "De\u00e1k Ferenc",
            "kind": "utca",
            "post_code": 0
        },
        {
            "name": "K\u00e1lv\u00e1ria",
            "kind": "utca",
            "post_code": 0
        },
        {
            "name": "Kir\u00e1lyr\u00e9ti",
            "kind": "\u00fat",
            "post_code": 0
        },
        {
            "name": "Kisin\u00f3ci",
            "kind": "utca",
            "post_code": 0
        },
        {
            "name": "K\u0151kereszt",
            "kind": "t\u00e9r",
            "post_code": 0
        },
        {
            "name": "K\u00f3spallagi",
            "kind": "\u00fat",
            "post_code": 0
        },
        {
            "name": "Kossuth Lajos",
            "kind": "utca",
            "post_code": 0
        },
        {
            "name": "Maros",
            "kind": "utca",
            "post_code": 0
        },
        {
            "name": "Pet\u0151fi S\u00e1ndor",
            "kind": "utca",
            "post_code": 0
        },
        {
            "name": "R\u00e1k\u00f3czi Ferenc",
            "kind": "utca",
            "post_code": 0
        },
        {
            "name": "Szent Istv\u00e1n",
            "kind": "\u00fat",
            "post_code": 0
        },
        {
            "name": "V\u00e1ci",
            "kind": "\u00fat",
            "post_code": 0
        }
    ]
}