{
    "codes": {
        "9900": [
            "K\u00f6rmend",
            null
        ],
        "9909": [
            "K\u00f6rmend",
            "Horv\u00e1tn\u00e1dalja"
        ]
    },
    "streets": [
        {
            "name": "\u00c1chim Andr\u00e1s",
            "kind": "utca",
            "post_code": 0
        },
        {
            "name": "Ady Endre",
            "kind": "utca",
            "post_code": 0
        },
        {
            "name": "Ak\u00e1c",
            "kind": "utca",
            "post_code": 0
        },
        {
            "name": "Alkot\u00e1s",
            "kind": "utca",
            "post_code": 0
        },
        {
            "name": "Alkotm\u00e1ny",
            "kind": "utca",
            "post_code": 0
        },
        {
            "name": "Arany J\u00e1nos",
            "kind": "utca",
            "post_code": 0
        },
        {
            "name": "Arasz",
            "kind": "utca",
            "post_code": 0
        },
        {
            "name": "\u00c1rp\u00e1d",
            "kind": "utca",
            "post_code": 0
        },
        {
            "name": "Avar",
            "kind": "utca",
            "post_code": 0
        },
        {
            "name": "Babits Mih\u00e1ly",
            "kind": "utca",
            "post_code": 0
        },
        {
            "name": "Bacs\u00f3 B\u00e9la",
            "kind": "utca",
            "post_code": 0
        },
        {
            "name": "Bajcsy-Zsilinszky",
            "kind": "utca",
            "post_code": 0
        },
        {
            "name": "Bart\u00f3k B\u00e9la",
            "kind": "utca",
            "post_code": 0
        },
        {
            "name": "B\u00e1stya",
            "kind": "utca",
            "post_code": 0
        },
        {
            "name": "Bats\u00e1nyi J\u00e1nos",
            "kind": "utca",
            "post_code": 0
        },
        {
            "name": "B\u00e9ke",
            "kind": "utca",
            "post_code": 0
        },
        {
            "name": "Bem J\u00f3zsef",
            "kind": "utca",
            "post_code": 0
        },
        {
            "name": "Bercs\u00e9nyi",
            "kind": "utca",
            "post_code": 0
        },
        {
            "name": "Berki",
            "kind": "utca",
            "post_code": 0
        },
        {
            "name": "Berzsenyi D\u00e1niel",
            "kind": "utca",
            "post_code": 0
        },
        {
            "name": "Damjanich",
            "kind": "utca",
            "post_code": 0
        },
        {
            "name": "Dank\u00f3 Pista",
            "kind": "utca",
            "post_code": 0
        },
        {
            "name": "De\u00e1k Ferenc",
            "kind": "utca",
            "post_code": 0
        },
        {
            "name": "Dienes Lajos",
            "kind": "utca",
            "post_code": 0
        },
        {
            "name": "Di\u00f3fa",
            "kind": "utca",
            "post_code": 0
        },
        {
            "name": "Dobog\u00f3",
            "kind": "utca",
            "post_code": 0
        },
        {
            "name": "Dob\u00f3",
            "kind": "t\u00e9r",
            "post_code": 0
        },
        {
            "name": "D\u00f3zsa Gy\u00f6rgy",
            "kind": "utca",
            "post_code": 0
        },
        {
            "name": "Dr. Batthy\u00e1ny-Strattmann L\u00e1szl\u00f3",
            "kind": "utca",
            "post_code": 0
        },
        {
            "name": "Dr. Orb\u00e1n Istv\u00e1n",
            "kind": "utca",
            "post_code": 0
        },
        {
            "name": "Dr. Remetei Filep",
            "kind": "utca",
            "post_code": 0
        },
        {
            "name": "Erkel Ferenc",
            "kind": "utca",
            "post_code": 0
        },
        {
            "name": "Fazekas Mih\u00e1ly",
            "kind": "utca",
            "post_code": 0
        },
        {
            "name": "G\u00e1rdonyi G\u00e9za",
            "kind": "utca",
            "post_code": 0
        },
        {
            "name": "Gyalogos fel\u00fclj\u00e1r\u00f3",
            "kind": "",
            "post_code": 0
        },
        {
            "name": "Gy\u00fcm\u00f6lcs\u00f6skert",
            "kind": "",
            "post_code": 0
        },
        {
            "name": "Hegyaljai",
            "kind": "utca",
            "post_code": 0
        },
        {
            "name": "Honv\u00e9d",
            "kind": "utca",
            "post_code": 0
        },
        {
            "name": "Hunyadi J\u00e1nos",
            "kind": "utca",
            "post_code": 0
        },
        {
            "name": "id\u0151nk\u00e9nt elsz\u00e1ntj\u00e1k",
            "kind": "",
            "post_code": 0
        },
        {
            "name": "Ifj\u00fas\u00e1g",
            "kind": "utca",
            "post_code": 0
        },
        {
            "name": "Ipari",
            "kind": "utca",
            "post_code": 0
        },
        {
            "name": "IV. B\u00e9la kir\u00e1ly",
            "kind": "utca",
            "post_code": 0
        },
        {
            "name": "J\u00f3kai M\u00f3r",
            "kind": "utca",
            "post_code": 0
        },
        {
            "name": "Juhar",
            "kind": "utca",
            "post_code": 0
        },
        {
            "name": "Katona J\u00f3zsef",
            "kind": "utca",
            "post_code": 0
        },
        {
            "name": "Keleti",
            "kind": "utca",
            "post_code": 0
        },
        {
            "name": "K\u00e9p\u00fati",
            "kind": "liget",
            "post_code": 0
        },
        {
            "name": "Kert\u00e9sz",
            "kind": "utca",
            "post_code": 0
        },
        {
            "name": "Kis",
            "kind": "utca",
            "post_code": 0
        },
        {
            "name": "Kod\u00e1ly Zolt\u00e1n",
            "kind": "utca",
            "post_code": 0
        },
        {
            "name": "K\u00f6lcsey Ferenc",
            "kind": "utca",
            "post_code": 0
        },
        {
            "name": "Kossuth Lajos",
            "kind": "utca",
            "post_code": 0
        },
        {
            "name": "Leg\u00e9ny",
            "kind": "utca",
            "post_code": 0
        },
        {
            "name": "Lenkei",
            "kind": "utca",
            "post_code": 0
        },
        {
            "name": "Liszt Ferenc",
            "kind": "utca",
            "post_code": 0
        },
        {
            "name": "Ludovika-s\u00e9t\u00e1ny",
            "kind": "",
            "post_code": 0
        },
        {
            "name": "Magyarn\u00e1daljai",
            "kind": "utca",
            "post_code": 0
        },
        {
            "name": "Malom",
            "kind": "utca",
            "post_code": 0
        },
        {
            "name": "M\u00e1rt\u00edrok",
            "kind": "\u00fatja",
            "post_code": 0
        },
        {
            "name": "M\u00e1ty\u00e1s kir\u00e1ly",
            "kind": "utca",
            "post_code": 0
        },
        {
            "name": "M\u00e1ty\u00e1s",
            "kind": "k\u00f6z",
            "post_code": 0
        },
        {
            "name": "Meggyfa",
            "kind": "utca",
            "post_code": 0
        },
        {
            "name": "Mez\u0151",
            "kind": "utca",
            "post_code": 0
        },
        {
            "name": "Mikes Kelemen",
            "kind": "utca",
            "post_code": 0
        },
        {
            "name": "Moln\u00e1r Lajos",
            "kind": "utca",
            "post_code": 0
        },
        {
            "name": "M\u00f3nus Ill\u00e9s",
            "kind": "utca",
            "post_code": 0
        },
        {
            "name": "M\u00f3ricz Zsigmond",
            "kind": "utca",
            "post_code": 0
        },
        {
            "name": "Munk\u00e1csy Mih\u00e1ly",
            "kind": "utca",
            "post_code": 0
        },
        {
            "name": "N\u00e1daljai",
            "kind": "utca",
            "post_code": 0
        },
        {
            "name": "Nap",
            "kind": "utca",
            "post_code": 0
        },
        {
            "name": "Nefelejcs",
            "kind": "utca",
            "post_code": 0
        },
        {
            "name": "Nemes Lip\u00f3t",
            "kind": "utca",
            "post_code": 0
        },
        {
            "name": "N\u00e9meth M\u00e1ria",
            "kind": "utca",
            "post_code": 0
        },
        {
            "name": "N\u00e9met\u00fajv\u00e1ri",
            "kind": "utca",
            "post_code": 0
        },
        {
            "name": "Ny\u00edrfa",
            "kind": "utca",
            "post_code": 0
        },
        {
            "name": "Orgona",
            "kind": "utca",
            "post_code": 0
        },
        {
            "name": "\u0150rs\u00e9g",
            "kind": "utca",
            "post_code": 0
        },
        {
            "name": "\u00d6th\u00e1z",
            "kind": "utca",
            "post_code": 0
        },
        {
            "name": "Pacsirta",
            "kind": "utca",
            "post_code": 0
        },
        {
            "name": "Pet\u0151fi S\u00e1ndor",
            "kind": "utca",
            "post_code": 0
        },
        {
            "name": "Pipacs",
            "kind": "utca",
            "post_code": 0
        },
        {
            "name": "Plat\u00e1n",
            "kind": "utca",
            "post_code": 0
        },
        {
            "name": "Pr\u00edm\u00e1s",
            "kind": "utca",
            "post_code": 0
        },
        {
            "name": "R\u00e1k\u00f3czi",
            "kind": "utca",
            "post_code": 0
        },
        {
            "name": "R\u00f3zsa",
            "kind": "utca",
            "post_code": 0
        },
        {
            "name": "Somogyi B\u00e9la",
            "kind": "utca",
            "post_code": 0
        },
        {
            "name": "Sport",
            "kind": "utca",
            "post_code": 0
        },
        {
            "name": "Szabads\u00e1g",
            "kind": "t\u00e9r",
            "post_code": 0
        },
        {
            "name": "Sz\u00e9chenyi Istv\u00e1n",
            "kind": "utca",
            "post_code": 0
        },
        {
            "name": "Szent Imre herceg",
            "kind": "utca",
            "post_code": 0
        },
        {
            "name": "T\u00e1ncsics Mih\u00e1ly",
            "kind": "utca",
            "post_code": 0
        },
        {
            "name": "Tavasz",
            "kind": "utca",
            "post_code": 0
        },
        {
            "name": "T\u00e9glagy\u00e1ri",
            "kind": "utca",
            "post_code": 0
        },
        {
            "name": "Teleki",
            "kind": "utca",
            "post_code": 0
        },
        {
            "name": "Templom",
            "kind": "utca",
            "post_code": 0
        },
        {
            "name": "Th\u00f6k\u00f6ly Imre",
            "kind": "utca",
            "post_code": 0
        },
        {
            "name": "Tilalmas",
            "kind": "utca",
            "post_code": 0
        },
        {
            "name": "T\u00f6lgyfa",
            "kind": "utca",
            "post_code": 0
        },
        {
            "name": "Tompa Mih\u00e1ly",
            "kind": "utca",
            "post_code": 0
        },
        {
            "name": "\u00dajv\u00e1ros",
            "kind": "utca",
            "post_code": 0
        },
        {
            "name": "\u0170rhaj\u00f3s",
            "kind": "utca",
            "post_code": 0
        },
        {
            "name": "\u00datt\u00f6r\u0151",
            "kind": "utca",
            "post_code": 0
        },
        {
            "name": "V\u00e1ci Mih\u00e1ly",
            "kind": "utca",
            "post_code": 0
        },
        {
            "name": "V\u00e1g\u00f3h\u00edd",
            "kind": "utca",
            "post_code": 0
        },
        {
            "name": "Vasaljai",
            "kind": "utca",
            "post_code": 0
        },
        {
            "name": "Vas\u00fatmell\u00e9k",
            "kind": "utca",
            "post_code": 0
        },
        {
            "name": "Vas\u00fat",
            "kind": "utca",
            "post_code": 0
        },
        {
            "name": "Verseny",
            "kind": "utca",
            "post_code": 0
        },
        {
            "name": "Vida",
            "kind": "utca",
            "post_code": 0
        },
        {
            "name": "V\u00f6r\u00f6smarty Mih\u00e1ly",
            "kind": "utca",
            "post_code": 0
        },
        {
            "name": "Zs\u00e1k",
            "kind": "utca",
            "post_code": 0
        },
        {
            "name": "Horv\u00e1thn\u00e1dalja vmh.",
            "kind": "",
            "post_code": 0
        }
    ]
}