{
    "codes": {
        "4135": [
            "K\u00f6r\u00f6sszegap\u00e1ti",
            null
        ]
    },
    "streets": [
        {
            "name": "Alig j\u00e1rhat\u00f3!",
            "kind": "",
            "post_code": 0
        },
        {
            "name": "Alkotm\u00e1ny",
            "kind": "utca",
            "post_code": 0
        },
        {
            "name": "B\u00e9ke",
            "kind": "utca",
            "post_code": 0
        },
        {
            "name": "Kun L\u00e1szl\u00f3",
            "kind": "utca",
            "post_code": 0
        },
        {
            "name": "Mez\u0151",
            "kind": "utca",
            "post_code": 0
        },
        {
            "name": "Nagy Imre",
            "kind": "utca",
            "post_code": 0
        },
        {
            "name": "P\u00e1lfi Istv\u00e1n",
            "kind": "utca",
            "post_code": 0
        },
        {
            "name": "Tisza Istv\u00e1n",
            "kind": "utca",
            "post_code": 0
        },
        {
            "name": "V\u00f6r\u00f6s Hadsereg",
            "kind": "utca",
            "post_code": 0
        }
    ]
}