{
    "codes": {
        "6050": [
            "Lajosmizse",
            null
        ]
    },
    "streets": [
        {
            "name": "Ady Endre",
            "kind": "utca",
            "post_code": 0
        },
        {
            "name": "Alkotm\u00e1ny",
            "kind": "utca",
            "post_code": 0
        },
        {
            "name": "Arany J\u00e1nos",
            "kind": "utca",
            "post_code": 0
        },
        {
            "name": "\u00c1rp\u00e1d",
            "kind": "utca",
            "post_code": 0
        },
        {
            "name": "Attila",
            "kind": "utca",
            "post_code": 0
        },
        {
            "name": "Bajcsy-Zsilinszky",
            "kind": "\u00fat",
            "post_code": 0
        },
        {
            "name": "Bajza",
            "kind": "utca",
            "post_code": 0
        },
        {
            "name": "B\u00e1nk b\u00e1n",
            "kind": "utca",
            "post_code": 0
        },
        {
            "name": "Baross G\u00e1bor",
            "kind": "t\u00e9r",
            "post_code": 0
        },
        {
            "name": "Bart\u00f3k B\u00e9la",
            "kind": "\u00fat",
            "post_code": 0
        },
        {
            "name": "Batthy\u00e1ny",
            "kind": "utca",
            "post_code": 0
        },
        {
            "name": "B\u00e9ke",
            "kind": "utca",
            "post_code": 0
        },
        {
            "name": "Bem J\u00f3zsef",
            "kind": "utca",
            "post_code": 0
        },
        {
            "name": "Benesz\u00e9l",
            "kind": "utca",
            "post_code": 0
        },
        {
            "name": "Bercs\u00e9nyi Mikl\u00f3s",
            "kind": "utca",
            "post_code": 0
        },
        {
            "name": "Bethlen G\u00e1bor",
            "kind": "utca",
            "post_code": 0
        },
        {
            "name": "Bib\u00f3 Istv\u00e1n",
            "kind": "utca",
            "post_code": 0
        },
        {
            "name": "Cegl\u00e9di",
            "kind": "\u00fat",
            "post_code": 0
        },
        {
            "name": "Damjanich",
            "kind": "utca",
            "post_code": 0
        },
        {
            "name": "Dank\u00f3 Pista",
            "kind": "utca",
            "post_code": 0
        },
        {
            "name": "De\u00e1k Ferenc",
            "kind": "utca",
            "post_code": 0
        },
        {
            "name": "Di\u00f3fa",
            "kind": "utca",
            "post_code": 0
        },
        {
            "name": "D\u00f3zsa Gy\u00f6rgy",
            "kind": "\u00fat",
            "post_code": 0
        },
        {
            "name": "D\u00f3zsatelepi",
            "kind": "utca",
            "post_code": 0
        },
        {
            "name": "E\u00f6tv\u00f6s Lor\u00e1nd",
            "kind": "utca",
            "post_code": 0
        },
        {
            "name": "Erkel Ferenc",
            "kind": "utca",
            "post_code": 0
        },
        {
            "name": "F\u00fclem\u00fcle",
            "kind": "utca",
            "post_code": 0
        },
        {
            "name": "G\u00e1bor \u00c1ron",
            "kind": "utca",
            "post_code": 0
        },
        {
            "name": "G\u00e1rdonyi G\u00e9za",
            "kind": "\u00fat",
            "post_code": 0
        },
        {
            "name": "G\u00f6rgey Art\u00far",
            "kind": "utca",
            "post_code": 0
        },
        {
            "name": "Gr\u00f3f Teleki P\u00e1l",
            "kind": "utca",
            "post_code": 0
        },
        {
            "name": "Hanth\u00e1zi Fakan",
            "kind": "d\u0171l\u0151",
            "post_code": 0
        },
        {
            "name": "H\u00e1rsfa",
            "kind": "utca",
            "post_code": 0
        },
        {
            "name": "Hunyadi J\u00e1nos",
            "kind": "utca",
            "post_code": 0
        },
        {
            "name": "Illy\u00e9s Gyula",
            "kind": "utca",
            "post_code": 0
        },
        {
            "name": "Irinyi",
            "kind": "utca",
            "post_code": 0
        },
        {
            "name": "J\u00e1sz",
            "kind": "utca",
            "post_code": 0
        },
        {
            "name": "J\u00f3kai M\u00f3r",
            "kind": "utca",
            "post_code": 0
        },
        {
            "name": "J\u00f3zsef Attila",
            "kind": "utca",
            "post_code": 0
        },
        {
            "name": "Juh\u00e1sz Gyula",
            "kind": "utca",
            "post_code": 0
        },
        {
            "name": "K\u00e1lvin",
            "kind": "utca",
            "post_code": 0
        },
        {
            "name": "K\u00e1rm\u00e1n",
            "kind": "d\u0171l\u0151",
            "post_code": 0
        },
        {
            "name": "Katona J\u00f3zsef",
            "kind": "utca",
            "post_code": 0
        },
        {
            "name": "Kazinczy",
            "kind": "utca",
            "post_code": 0
        },
        {
            "name": "Kisfaludy",
            "kind": "utca",
            "post_code": 0
        },
        {
            "name": "Kod\u00e1ly Zolt\u00e1n",
            "kind": "utca",
            "post_code": 0
        },
        {
            "name": "K\u00f6lcsey",
            "kind": "utca",
            "post_code": 0
        },
        {
            "name": "K\u00f6nyves K\u00e1lm\u00e1n",
            "kind": "utca",
            "post_code": 0
        },
        {
            "name": "Kossuth Lajos",
            "kind": "utca",
            "post_code": 0
        },
        {
            "name": "Lab\u00e1t",
            "kind": "d\u0171l\u0151",
            "post_code": 0
        },
        {
            "name": "Lehel",
            "kind": "utca",
            "post_code": 0
        },
        {
            "name": "Liszt Ferenc",
            "kind": "utca",
            "post_code": 0
        },
        {
            "name": "Mad\u00e1ch",
            "kind": "utca",
            "post_code": 0
        },
        {
            "name": "M\u00e1jus 1.",
            "kind": "utca",
            "post_code": 0
        },
        {
            "name": "Mathi\u00e1sz",
            "kind": "utca",
            "post_code": 0
        },
        {
            "name": "M\u00e1ty\u00e1s kir\u00e1ly",
            "kind": "utca",
            "post_code": 0
        },
        {
            "name": "M\u00c1V rakod\u00f3",
            "kind": "",
            "post_code": 0
        },
        {
            "name": "Miksz\u00e1th K\u00e1lm\u00e1n",
            "kind": "\u00fat",
            "post_code": 0
        },
        {
            "name": "Mizsei",
            "kind": "\u00fat",
            "post_code": 0
        },
        {
            "name": "M\u00f3ra Ferenc",
            "kind": "utca",
            "post_code": 0
        },
        {
            "name": "Nap",
            "kind": "utca",
            "post_code": 0
        },
        {
            "name": "N\u00e9meth L\u00e1szl\u00f3",
            "kind": "utca",
            "post_code": 0
        },
        {
            "name": "Ny\u00edri",
            "kind": "\u00fat",
            "post_code": 0
        },
        {
            "name": "Orgona",
            "kind": "utca",
            "post_code": 0
        },
        {
            "name": "Pacsirta",
            "kind": "utca",
            "post_code": 0
        },
        {
            "name": "Pet\u0151fi",
            "kind": "utca",
            "post_code": 0
        },
        {
            "name": "Pr\u00edm\u00e1s",
            "kind": "utca",
            "post_code": 0
        },
        {
            "name": "Radn\u00f3ti Mikl\u00f3s",
            "kind": "utca",
            "post_code": 0
        },
        {
            "name": "R\u00e1k\u00f3czi",
            "kind": "utca",
            "post_code": 0
        },
        {
            "name": "Rozmaring",
            "kind": "utca",
            "post_code": 0
        },
        {
            "name": "R\u00f3zsa",
            "kind": "utca",
            "post_code": 0
        },
        {
            "name": "S\u00e1gv\u00e1ri Endre",
            "kind": "utca",
            "post_code": 0
        },
        {
            "name": "Szabads\u00e1g",
            "kind": "t\u00e9r",
            "post_code": 0
        },
        {
            "name": "Sz\u00e9chenyi",
            "kind": "utca",
            "post_code": 0
        },
        {
            "name": "Szent-Gy\u00f6rgyi Albert",
            "kind": "utca",
            "post_code": 0
        },
        {
            "name": "Szent Imre",
            "kind": "utca",
            "post_code": 0
        },
        {
            "name": "Szent Istv\u00e1n",
            "kind": "utca",
            "post_code": 0
        },
        {
            "name": "Szent Lajos",
            "kind": "utca",
            "post_code": 0
        },
        {
            "name": "Szent Vendel",
            "kind": "utca",
            "post_code": 0
        },
        {
            "name": "Sz\u00edv",
            "kind": "utca",
            "post_code": 0
        },
        {
            "name": "Tamai",
            "kind": "utca",
            "post_code": 0
        },
        {
            "name": "T\u00e1ncsics Mih\u00e1ly",
            "kind": "utca",
            "post_code": 0
        },
        {
            "name": "Tarczal",
            "kind": "d\u0171l\u0151",
            "post_code": 0
        },
        {
            "name": "Tavasz",
            "kind": "utca",
            "post_code": 0
        },
        {
            "name": "Telepi",
            "kind": "utca",
            "post_code": 0
        },
        {
            "name": "Temet\u0151",
            "kind": "k\u00f6z",
            "post_code": 0
        },
        {
            "name": "V\u00e1rosh\u00e1z",
            "kind": "t\u00e9r",
            "post_code": 0
        },
        {
            "name": "V\u00e1s\u00e1rt\u00e9r",
            "kind": "utca",
            "post_code": 0
        },
        {
            "name": "Vas\u00fat",
            "kind": "utca",
            "post_code": 0
        },
        {
            "name": "Viola",
            "kind": "utca",
            "post_code": 0
        },
        {
            "name": "V\u00f6r\u00f6smarty",
            "kind": "utca",
            "post_code": 0
        },
        {
            "name": "Wessel\u00e9nyi",
            "kind": "utca",
            "post_code": 0
        },
        {
            "name": "Ybl Mikl\u00f3s",
            "kind": "utca",
            "post_code": 0
        },
        {
            "name": "Zr\u00ednyi",
            "kind": "utca",
            "post_code": 0
        }
    ]
}