{
    "codes": {
        "8693": [
            "Lengyelt\u00f3ti",
            null
        ]
    },
    "streets": [
        {
            "name": "Ady Endre",
            "kind": "utca",
            "post_code": 0
        },
        {
            "name": "Arany J\u00e1nos",
            "kind": "utca",
            "post_code": 0
        },
        {
            "name": "Batthy\u00e1ny Lajos",
            "kind": "utca",
            "post_code": 0
        },
        {
            "name": "Bem J\u00f3zsef",
            "kind": "utca",
            "post_code": 0
        },
        {
            "name": "Berzsenyi D\u00e1niel",
            "kind": "utca",
            "post_code": 0
        },
        {
            "name": "Csalog\u00e1ny",
            "kind": "utca",
            "post_code": 0
        },
        {
            "name": "Csokonai Vit\u00e9z Mih\u00e1ly",
            "kind": "utca",
            "post_code": 0
        },
        {
            "name": "Damjanich J\u00e1nos",
            "kind": "utca",
            "post_code": 0
        },
        {
            "name": "D\u00f3zsa Gy\u00f6rgy",
            "kind": "utca",
            "post_code": 0
        },
        {
            "name": "Fony\u00f3di",
            "kind": "utca",
            "post_code": 0
        },
        {
            "name": "G\u00e1bor \u00c1ron",
            "kind": "utca",
            "post_code": 0
        },
        {
            "name": "Ifj\u00fas\u00e1g",
            "kind": "t\u00e9r",
            "post_code": 0
        },
        {
            "name": "Ifj\u00fas\u00e1g",
            "kind": "utca",
            "post_code": 0
        },
        {
            "name": "J\u00f3kai M\u00f3r",
            "kind": "utca",
            "post_code": 0
        },
        {
            "name": "J\u00f3zsef Attila",
            "kind": "utca",
            "post_code": 0
        },
        {
            "name": "Kaposv\u00e1ri",
            "kind": "utca",
            "post_code": 0
        },
        {
            "name": "Kert",
            "kind": "utca",
            "post_code": 0
        },
        {
            "name": "Kiss Ern\u0151",
            "kind": "utca",
            "post_code": 0
        },
        {
            "name": "K\u00f6lcsey Ferenc",
            "kind": "utca",
            "post_code": 0
        },
        {
            "name": "K\u00f3rh\u00e1z",
            "kind": "k\u00f6z",
            "post_code": 0
        },
        {
            "name": "Kossuth Lajos",
            "kind": "utca",
            "post_code": 0
        },
        {
            "name": "Majth\u00e9nyi",
            "kind": "utca",
            "post_code": 0
        },
        {
            "name": "Moh\u00e1csi",
            "kind": "\u00fat",
            "post_code": 0
        },
        {
            "name": "Nagy Imre",
            "kind": "utca",
            "post_code": 0
        },
        {
            "name": "Pete Lajos",
            "kind": "k\u00f6z",
            "post_code": 0
        },
        {
            "name": "Pet\u0151fi S\u00e1ndor",
            "kind": "utca",
            "post_code": 0
        },
        {
            "name": "Szent Erzs\u00e9bet",
            "kind": "t\u00e9r",
            "post_code": 0
        },
        {
            "name": "Tam\u00e1si \u00c1ron",
            "kind": "utca",
            "post_code": 0
        },
        {
            "name": "T\u00e1ncsics Mih\u00e1ly",
            "kind": "utca",
            "post_code": 0
        },
        {
            "name": "Temet\u0151",
            "kind": "utca",
            "post_code": 0
        },
        {
            "name": "Tompa Mih\u00e1ly",
            "kind": "utca",
            "post_code": 0
        },
        {
            "name": "T\u0171zolt\u00f3",
            "kind": "utca",
            "post_code": 0
        },
        {
            "name": "Vir\u00e1g",
            "kind": "utca",
            "post_code": 0
        },
        {
            "name": "V\u00f6r\u00f6smarty Mih\u00e1ly",
            "kind": "utca",
            "post_code": 0
        },
        {
            "name": "Wessel\u00e9nyi Mikl\u00f3s",
            "kind": "utca",
            "post_code": 0
        },
        {
            "name": "Zr\u00ednyi Mikl\u00f3s",
            "kind": "utca",
            "post_code": 0
        },
        {
            "name": "Zsigmondi",
            "kind": "utca",
            "post_code": 0
        }
    ]
}