{
    "streets": [
        {
            "name": "Ady Endre",
            "kind": "utca",
            "post_code": 0
        },
        {
            "name": "Arbor\u00e9tum",
            "kind": "utca",
            "post_code": 0
        },
        {
            "name": "Bajcsy-Zsilinszky Endre",
            "kind": "utca",
            "post_code": 0
        },
        {
            "name": "Balassi",
            "kind": "utca",
            "post_code": 0
        },
        {
            "name": "Bart\u00f3k B\u00e9la",
            "kind": "utca",
            "post_code": 0
        },
        {
            "name": "Bem J\u00f3zsef",
            "kind": "utca",
            "post_code": 0
        },
        {
            "name": "Cementgy\u00e1ri",
            "kind": "lak\u00f3telep",
            "post_code": 0
        },
        {
            "name": "Csereszny\u00e9s-\u00e1rok",
            "kind": "",
            "post_code": 0
        },
        {
            "name": "Damjanich",
            "kind": "utca",
            "post_code": 0
        },
        {
            "name": "Dank\u00f3",
            "kind": "utca",
            "post_code": 0
        },
        {
            "name": "D\u00f3zsa Gy\u00f6rgy",
            "kind": "\u00fat",
            "post_code": 0
        },
        {
            "name": "Dr. Tulassay J\u00f3zsef",
            "kind": "t\u00e9r",
            "post_code": 0
        },
        {
            "name": "Gar\u00e1zs",
            "kind": "sor",
            "post_code": 0
        },
        {
            "name": "Gerecse",
            "kind": "utca",
            "post_code": 0
        },
        {
            "name": "Gy\u0171r\u0171s",
            "kind": "utca",
            "post_code": 0
        },
        {
            "name": "H\u00e1rsfa",
            "kind": "utca",
            "post_code": 0
        },
        {
            "name": "Honv\u00e9d",
            "kind": "utca",
            "post_code": 0
        },
        {
            "name": "Hunyadi",
            "kind": "utca",
            "post_code": 0
        },
        {
            "name": "Ifj\u00fas\u00e1g",
            "kind": "utca",
            "post_code": 0
        },
        {
            "name": "J\u00f3kai M\u00f3r",
            "kind": "utca",
            "post_code": 0
        },
        {
            "name": "J\u00f3zsef Attila",
            "kind": "utca",
            "post_code": 0
        },
        {
            "name": "K\u00e1lv\u00e1ria",
            "kind": "utca",
            "post_code": 0
        },
        {
            "name": "K\u00e1lvin J\u00e1nos",
            "kind": "utca",
            "post_code": 0
        },
        {
            "name": "Kanberek",
            "kind": "",
            "post_code": 0
        },
        {
            "name": "Kertalja",
            "kind": "utca",
            "post_code": 0
        },
        {
            "name": "Kossuth Lajos",
            "kind": "utca",
            "post_code": 0
        },
        {
            "name": "K\u0151sz\u00e1ll\u00edt\u00f3",
            "kind": "\u00fat",
            "post_code": 0
        },
        {
            "name": "Mandul\u00e1s",
            "kind": "utca",
            "post_code": 0
        },
        {
            "name": "M\u00e1rcius 15.",
            "kind": "t\u00e9r",
            "post_code": 0
        },
        {
            "name": "Munk\u00e1csy Mih\u00e1ly",
            "kind": "utca",
            "post_code": 0
        },
        {
            "name": "\u00d6reghegyi",
            "kind": "d\u0171l\u0151",
            "post_code": 0
        },
        {
            "name": "\u00d6reghegyi",
            "kind": "\u00fat",
            "post_code": 0
        },
        {
            "name": "Orgona",
            "kind": "utca",
            "post_code": 0
        },
        {
            "name": "\u0150rhegyi",
            "kind": "\u00fat",
            "post_code": 0
        },
        {
            "name": "\u00d3voda",
            "kind": "utca",
            "post_code": 0
        },
        {
            "name": "Pap-r\u00e9t",
            "kind": "",
            "post_code": 0
        },
        {
            "name": "Papr\u00e9t",
            "kind": "utca",
            "post_code": 0
        },
        {
            "name": "Pet\u0151fi S\u00e1ndor",
            "kind": "utca",
            "post_code": 0
        },
        {
            "name": "Piszkei",
            "kind": "lak\u00f3telep",
            "post_code": 0
        },
        {
            "name": "Piszkei",
            "kind": "utca",
            "post_code": 0
        },
        {
            "name": "R\u00e1k\u00f3czi Ferenc",
            "kind": "\u00fat",
            "post_code": 0
        },
        {
            "name": "Roz\u00e1lia",
            "kind": "utca",
            "post_code": 0
        },
        {
            "name": "Somogyi B\u00e9la",
            "kind": "utca",
            "post_code": 0
        },
        {
            "name": "Sport",
            "kind": "utca",
            "post_code": 0
        },
        {
            "name": "Szabads\u00e1g",
            "kind": "utca",
            "post_code": 0
        },
        {
            "name": "Sz\u0151l\u0151hegy",
            "kind": "",
            "post_code": 0
        },
        {
            "name": "Sz\u0171k",
            "kind": "utca",
            "post_code": 0
        },
        {
            "name": "Templomalja",
            "kind": "utca",
            "post_code": 0
        },
        {
            "name": "Tompa Mih\u00e1ly",
            "kind": "utca",
            "post_code": 0
        },
        {
            "name": "Tulip\u00e1n",
            "kind": "utca",
            "post_code": 0
        },
        {
            "name": "Vaskapu",
            "kind": "d\u0171l\u0151",
            "post_code": 0
        },
        {
            "name": "Vas\u00fat",
            "kind": "utca",
            "post_code": 0
        },
        {
            "name": "Zr\u00ednyi Mikl\u00f3s",
            "kind": "lak\u00f3telep",
            "post_code": 0
        },
        {
            "name": "Zr\u00ednyi MIkl\u00f3s",
            "kind": "lak\u00f3telep",
            "post_code": 0
        },
        {
            "name": "Zsebeh\u00e1zi Lajos",
            "kind": "utca",
            "post_code": 0
        }
    ]
}