{
    "codes": {
        "2322": [
            "Mak\u00e1d",
            null
        ]
    },
    "streets": [
        {
            "name": "Ady Endre",
            "kind": "utca",
            "post_code": 0
        },
        {
            "name": "Arany J\u00e1nos",
            "kind": "utca",
            "post_code": 0
        },
        {
            "name": "\u00e1rv\u00edzv\u00e9delmi t\u00f6lt\u00e9s",
            "kind": "",
            "post_code": 0
        },
        {
            "name": "Di\u00f3fa",
            "kind": "utca",
            "post_code": 0
        },
        {
            "name": "D\u00f3zsa Gy\u00f6rgy",
            "kind": "utca",
            "post_code": 0
        },
        {
            "name": "G\u00e1t",
            "kind": "",
            "post_code": 0
        },
        {
            "name": "Iskola",
            "kind": "k\u00f6z",
            "post_code": 0
        },
        {
            "name": "Jegenyesor",
            "kind": "utca",
            "post_code": 0
        },
        {
            "name": "Kendereskert",
            "kind": "",
            "post_code": 0
        },
        {
            "name": "Kossuth",
            "kind": "k\u00f6z",
            "post_code": 0
        },
        {
            "name": "Kossuth Lajos",
            "kind": "utca",
            "post_code": 0
        },
        {
            "name": "Kov\u00e1cs",
            "kind": "k\u00f6z",
            "post_code": 0
        },
        {
            "name": "Kukoric\u00e1s",
            "kind": "utca",
            "post_code": 0
        },
        {
            "name": "Kulcsi",
            "kind": "utca",
            "post_code": 0
        },
        {
            "name": "Pet\u0151fi S\u00e1ndor",
            "kind": "k\u00f6z",
            "post_code": 0
        },
        {
            "name": "Pet\u0151fi S\u00e1ndor",
            "kind": "utca",
            "post_code": 0
        },
        {
            "name": "Pet\u0151fi",
            "kind": "utca",
            "post_code": 0
        },
        {
            "name": "Posta",
            "kind": "k\u00f6z",
            "post_code": 0
        },
        {
            "name": "R\u00e1k\u00f3czi Ferenc",
            "kind": "utca",
            "post_code": 0
        },
        {
            "name": "Szabads\u00e1g",
            "kind": "k\u00f6z",
            "post_code": 0
        },
        {
            "name": "Szabads\u00e1g",
            "kind": "\u00fat",
            "post_code": 0
        },
        {
            "name": "T\u00e1ncsics Mih\u00e1ly",
            "kind": "utca",
            "post_code": 0
        },
        {
            "name": "Turi J\u00f3zsef",
            "kind": "utca",
            "post_code": 0
        }
    ]
}