{
    "codes": {
        "2462": [
            "Martonv\u00e1s\u00e1r",
            null
        ]
    },
    "streets": [
        {
            "name": "Ady Endre",
            "kind": "utca",
            "post_code": 0
        },
        {
            "name": "Arany J\u00e1nos",
            "kind": "utca",
            "post_code": 0
        },
        {
            "name": "Bajcsy-Zsilinszky Endre",
            "kind": "utca",
            "post_code": 0
        },
        {
            "name": "Balassi",
            "kind": "k\u00f6z",
            "post_code": 0
        },
        {
            "name": "B\u00e1thory",
            "kind": "k\u00f6z",
            "post_code": 0
        },
        {
            "name": "Beethoven",
            "kind": "t\u00e9r",
            "post_code": 0
        },
        {
            "name": "B\u00e9ke",
            "kind": "utca",
            "post_code": 0
        },
        {
            "name": "Bercs\u00e9nyi",
            "kind": "k\u00f6z",
            "post_code": 0
        },
        {
            "name": "Bocskai",
            "kind": "utca",
            "post_code": 0
        },
        {
            "name": "Bogl\u00e1rka",
            "kind": "utca",
            "post_code": 0
        },
        {
            "name": "Brunszvik",
            "kind": "utca",
            "post_code": 0
        },
        {
            "name": "Budai",
            "kind": "\u00fat",
            "post_code": 0
        },
        {
            "name": "B\u00faza",
            "kind": "utca",
            "post_code": 0
        },
        {
            "name": "Damjanich",
            "kind": "utca",
            "post_code": 0
        },
        {
            "name": "De\u00e1k Ferenc",
            "kind": "utca",
            "post_code": 0
        },
        {
            "name": "D\u00f3zsa Gy\u00f6rgy",
            "kind": "\u00fat",
            "post_code": 0
        },
        {
            "name": "Dr\u00e9her",
            "kind": "utca",
            "post_code": 0
        },
        {
            "name": "Eml\u00e9kez\u00e9s",
            "kind": "tere",
            "post_code": 0
        },
        {
            "name": "Erkel Ferenc",
            "kind": "utca",
            "post_code": 0
        },
        {
            "name": "Estike",
            "kind": "utca",
            "post_code": 0
        },
        {
            "name": "Feh\u00e9rv\u00e1ri",
            "kind": "\u00fat",
            "post_code": 0
        },
        {
            "name": "Frangep\u00e1n",
            "kind": "k\u00f6z",
            "post_code": 0
        },
        {
            "name": "G\u00e1bor \u00c1ron",
            "kind": "utca",
            "post_code": 0
        },
        {
            "name": "G\u00e1rdonyi G\u00e9za",
            "kind": "utca",
            "post_code": 0
        },
        {
            "name": "G\u00f3lyah\u00edr",
            "kind": "utca",
            "post_code": 0
        },
        {
            "name": "Hat\u00e1r",
            "kind": "\u00fat",
            "post_code": 0
        },
        {
            "name": "Hunyadi",
            "kind": "\u00fat",
            "post_code": 0
        },
        {
            "name": "J\u00f3kai",
            "kind": "utca",
            "post_code": 0
        },
        {
            "name": "J\u00f3zsef Attila",
            "kind": "utca",
            "post_code": 0
        },
        {
            "name": "Karinthy Frigyes",
            "kind": "utca",
            "post_code": 0
        },
        {
            "name": "Kass\u00e1k",
            "kind": "k\u00f6z",
            "post_code": 0
        },
        {
            "name": "Kazinczy",
            "kind": "k\u00f6z",
            "post_code": 0
        },
        {
            "name": "Kinizsi",
            "kind": "utca",
            "post_code": 0
        },
        {
            "name": "Kod\u00e1ly Zolt\u00e1n",
            "kind": "utca",
            "post_code": 0
        },
        {
            "name": "K\u00f6lcsey",
            "kind": "utca",
            "post_code": 0
        },
        {
            "name": "Kolozsv\u00e1ri",
            "kind": "utca",
            "post_code": 0
        },
        {
            "name": "Kossuth",
            "kind": "t\u00e9r",
            "post_code": 0
        },
        {
            "name": "Kuti Andr\u00e1s",
            "kind": "utca",
            "post_code": 0
        },
        {
            "name": "Magt\u00e1r",
            "kind": "utca",
            "post_code": 0
        },
        {
            "name": "Malom",
            "kind": "utca",
            "post_code": 0
        },
        {
            "name": "M\u00f3ra",
            "kind": "k\u00f6z",
            "post_code": 0
        },
        {
            "name": "Nyitrai",
            "kind": "utca",
            "post_code": 0
        },
        {
            "name": "Orb\u00e1nhegy",
            "kind": "utca",
            "post_code": 0
        },
        {
            "name": "Orgona",
            "kind": "\u00fat",
            "post_code": 0
        },
        {
            "name": "Orgona",
            "kind": "utca",
            "post_code": 0
        },
        {
            "name": "Pet\u0151fi S\u00e1ndor",
            "kind": "utca",
            "post_code": 0
        },
        {
            "name": "Pipacs",
            "kind": "utca",
            "post_code": 0
        },
        {
            "name": "Pusztai J\u00f3zsef",
            "kind": "utca",
            "post_code": 0
        },
        {
            "name": "Radn\u00f3ti Mikl\u00f3s",
            "kind": "utca",
            "post_code": 0
        },
        {
            "name": "R\u00e1k\u00f3czi",
            "kind": "utca",
            "post_code": 0
        },
        {
            "name": "R\u00f3zsa",
            "kind": "utca",
            "post_code": 0
        },
        {
            "name": "S\u00e9t\u00e1l\u00f3",
            "kind": "utca",
            "post_code": 0
        },
        {
            "name": "Sporttelep",
            "kind": "utca",
            "post_code": 0
        },
        {
            "name": "Sz\u00e1zszorsz\u00e9p",
            "kind": "utca",
            "post_code": 0
        },
        {
            "name": "Sz\u00e9ch\u00e9nyi Istv\u00e1n",
            "kind": "utca",
            "post_code": 0
        },
        {
            "name": "Sz\u00e9chenyi",
            "kind": "utca",
            "post_code": 0
        },
        {
            "name": "Szent L\u00e1szl\u00f3 S\u00e9t\u00e1ny",
            "kind": "",
            "post_code": 0
        },
        {
            "name": "Szent L\u00e1szl\u00f3",
            "kind": "\u00fat",
            "post_code": 0
        },
        {
            "name": "Sz\u0151l\u0151hegyi",
            "kind": "utca",
            "post_code": 0
        },
        {
            "name": "T\u00e1ncsics Mih\u00e1ly",
            "kind": "utca",
            "post_code": 0
        },
        {
            "name": "T\u00e1tra",
            "kind": "utca",
            "post_code": 0
        },
        {
            "name": "Teleki P\u00e1l",
            "kind": "utca",
            "post_code": 0
        },
        {
            "name": "T\u00fckr\u00f6si",
            "kind": "utca",
            "post_code": 0
        },
        {
            "name": "Vajda J\u00e1nos",
            "kind": "utca",
            "post_code": 0
        },
        {
            "name": "Vas\u00fat",
            "kind": "utca",
            "post_code": 0
        },
        {
            "name": "Vasv\u00e1ri P\u00e1l",
            "kind": "utca",
            "post_code": 0
        },
        {
            "name": "V\u00f6r\u00f6smarty",
            "kind": "utca",
            "post_code": 0
        },
        {
            "name": "Wessel\u00e9nyi",
            "kind": "k\u00f6z",
            "post_code": 0
        },
        {
            "name": "Zr\u00ednyi Mikl\u00f3s",
            "kind": "utca",
            "post_code": 0
        }
    ]
}