{
    "codes": {
        "2235": [
            "Mende",
            null
        ]
    },
    "streets": [
        {
            "name": "Ady Endre",
            "kind": "utca",
            "post_code": 0
        },
        {
            "name": "Alkotm\u00e1ny",
            "kind": "utca",
            "post_code": 0
        },
        {
            "name": "\u00c1llom\u00e1s",
            "kind": "utca",
            "post_code": 0
        },
        {
            "name": "Alulj\u00e1r\u00f3",
            "kind": "",
            "post_code": 0
        },
        {
            "name": "Andr\u00e1ssy",
            "kind": "utca",
            "post_code": 0
        },
        {
            "name": "Arany J\u00e1nos",
            "kind": "utca",
            "post_code": 0
        },
        {
            "name": "\u00c1rp\u00e1d vez\u00e9r",
            "kind": "\u00fat",
            "post_code": 0
        },
        {
            "name": "Bacs\u00f3 B\u00e9la",
            "kind": "utca",
            "post_code": 0
        },
        {
            "name": "Bajcsy-Zsilinszky",
            "kind": "utca",
            "post_code": 0
        },
        {
            "name": "B\u00e1thory",
            "kind": "utca",
            "post_code": 0
        },
        {
            "name": "Bem J\u00f3zsef",
            "kind": "t\u00e9r",
            "post_code": 0
        },
        {
            "name": "Bercs\u00e9nyi",
            "kind": "utca",
            "post_code": 0
        },
        {
            "name": "Bille Bese",
            "kind": "utca",
            "post_code": 0
        },
        {
            "name": "Csig\u00e1si",
            "kind": "utca",
            "post_code": 0
        },
        {
            "name": "Csokonai",
            "kind": "utca",
            "post_code": 0
        },
        {
            "name": "De\u00e1k Ferenc",
            "kind": "utca",
            "post_code": 0
        },
        {
            "name": "Dob\u00f3 Istv\u00e1n",
            "kind": "utca",
            "post_code": 0
        },
        {
            "name": "Dolina",
            "kind": "k\u00f6z",
            "post_code": 0
        },
        {
            "name": "Domb",
            "kind": "utca",
            "post_code": 0
        },
        {
            "name": "D\u00f3zsa Gy\u00f6rgy",
            "kind": "\u00fat",
            "post_code": 0
        },
        {
            "name": "Fejes Ferenc",
            "kind": "t\u00e9r",
            "post_code": 0
        },
        {
            "name": "Forr\u00e1s",
            "kind": "k\u00f6z",
            "post_code": 0
        },
        {
            "name": "F\u0151",
            "kind": "\u00fat",
            "post_code": 0
        },
        {
            "name": "G\u00e1rdonyi G\u00e9za",
            "kind": "utca",
            "post_code": 0
        },
        {
            "name": "H\u00e1rsfa",
            "kind": "utca",
            "post_code": 0
        },
        {
            "name": "Hat\u00e1r",
            "kind": "utca",
            "post_code": 0
        },
        {
            "name": "Honv\u00e9d",
            "kind": "utca",
            "post_code": 0
        },
        {
            "name": "H\u0151s\u00f6k",
            "kind": "tere",
            "post_code": 0
        },
        {
            "name": "Hunyadi",
            "kind": "utca",
            "post_code": 0
        },
        {
            "name": "Iskola",
            "kind": "utca",
            "post_code": 0
        },
        {
            "name": "J\u00e1szber\u00e9nyi",
            "kind": "\u00fat",
            "post_code": 0
        },
        {
            "name": "J\u00f3kai",
            "kind": "utca",
            "post_code": 0
        },
        {
            "name": "J\u00f3zsef Attila",
            "kind": "utca",
            "post_code": 0
        },
        {
            "name": "Kossuth Lajos",
            "kind": "utca",
            "post_code": 0
        },
        {
            "name": "Le\u00e1nyv\u00e1r",
            "kind": "utca",
            "post_code": 0
        },
        {
            "name": "Legel\u0151",
            "kind": "utca",
            "post_code": 0
        },
        {
            "name": "Locsodi",
            "kind": "utca",
            "post_code": 0
        },
        {
            "name": "Mendei",
            "kind": "utca",
            "post_code": 0
        },
        {
            "name": "Meredek",
            "kind": "utca",
            "post_code": 0
        },
        {
            "name": "Nap",
            "kind": "utca",
            "post_code": 0
        },
        {
            "name": "Ny\u00e1r",
            "kind": "utca",
            "post_code": 0
        },
        {
            "name": "Orsz\u00e1g",
            "kind": "\u00fat",
            "post_code": 0
        },
        {
            "name": "\u0150r",
            "kind": "utca",
            "post_code": 0
        },
        {
            "name": "Oszl\u00e1ri",
            "kind": "\u00fat",
            "post_code": 0
        },
        {
            "name": "P\u00e9celi",
            "kind": "utca",
            "post_code": 0
        },
        {
            "name": "Pet\u0151fi",
            "kind": "utca",
            "post_code": 0
        },
        {
            "name": "R\u00e1k\u00f3czi",
            "kind": "utca",
            "post_code": 0
        },
        {
            "name": "R\u00e9t",
            "kind": "utca",
            "post_code": 0
        },
        {
            "name": "R\u00f3zsa",
            "kind": "utca",
            "post_code": 0
        },
        {
            "name": "Somogyi B\u00e9la",
            "kind": "utca",
            "post_code": 0
        },
        {
            "name": "Szabads\u00e1g",
            "kind": "utca",
            "post_code": 0
        },
        {
            "name": "Szegf\u0171",
            "kind": "utca",
            "post_code": 0
        },
        {
            "name": "Szent Imre",
            "kind": "utca",
            "post_code": 0
        },
        {
            "name": "Szent Istv\u00e1n bek\u00f6t\u0151",
            "kind": "",
            "post_code": 0
        },
        {
            "name": "Sz\u00f6vetkezeti",
            "kind": "utca",
            "post_code": 0
        },
        {
            "name": "Tab\u00e1nhegyi",
            "kind": "utca",
            "post_code": 0
        },
        {
            "name": "Tavasz",
            "kind": "utca",
            "post_code": 0
        },
        {
            "name": "T\u00e9l",
            "kind": "utca",
            "post_code": 0
        },
        {
            "name": "Temet\u0151",
            "kind": "utca",
            "post_code": 0
        },
        {
            "name": "tervezett z\u00f6ld n\u00e9gyzet",
            "kind": "",
            "post_code": 0
        },
        {
            "name": "tervezett z\u00f6ld s\u00e1v",
            "kind": "",
            "post_code": 0
        },
        {
            "name": "Toldi",
            "kind": "k\u00f6z",
            "post_code": 0
        },
        {
            "name": "Toldi",
            "kind": "utca",
            "post_code": 0
        },
        {
            "name": "Tulip\u00e1n",
            "kind": "utca",
            "post_code": 0
        },
        {
            "name": "\u00daj \u00e9let",
            "kind": "utca",
            "post_code": 0
        },
        {
            "name": "Vas\u00fat",
            "kind": "utca",
            "post_code": 0
        },
        {
            "name": "V\u00f6r\u00f6smarty",
            "kind": "utca",
            "post_code": 0
        },
        {
            "name": "Zr\u00ednyi",
            "kind": "utca",
            "post_code": 0
        }
    ]
}