{
    "codes": {
        "9551": [
            "Mesteri",
            null
        ]
    },
    "streets": [
        {
            "name": "D\u00f3zsa Gy\u00f6rgy",
            "kind": "utca",
            "post_code": 0
        },
        {
            "name": "E\u00f6tv\u00f6s-inga",
            "kind": "utca",
            "post_code": 0
        },
        {
            "name": "F\u00fcrd\u0151telep",
            "kind": "",
            "post_code": 0
        },
        {
            "name": "H\u0151forr\u00e1s",
            "kind": "utca",
            "post_code": 0
        },
        {
            "name": "K\u0151munk\u00e1s",
            "kind": "utca",
            "post_code": 0
        },
        {
            "name": "Kossuth Lajos",
            "kind": "utca",
            "post_code": 0
        },
        {
            "name": "Ny\u00e1rfa",
            "kind": "utca",
            "post_code": 0
        },
        {
            "name": "Padoskertalja",
            "kind": "utca",
            "post_code": 0
        },
        {
            "name": "Pet\u0151fi S\u00e1ndor",
            "kind": "utca",
            "post_code": 0
        },
        {
            "name": "S\u00e1gsoml\u00f3",
            "kind": "utca",
            "post_code": 0
        },
        {
            "name": "T\u00f6visk\u00e9s",
            "kind": "utca",
            "post_code": 0
        },
        {
            "name": "\u00dajvil\u00e1g",
            "kind": "utca",
            "post_code": 0
        },
        {
            "name": "Vak B\u00e9la",
            "kind": "utca",
            "post_code": 0
        },
        {
            "name": "V\u00f6r\u00f6s Okt\u00f3ber",
            "kind": "s\u00e9t\u00e1ny",
            "post_code": 0
        }
    ]
}