{
    "codes": {
        "3989": [
            "Mik\u00f3h\u00e1za",
            null
        ]
    },
    "streets": [
        {
            "name": "Ady Endre",
            "kind": "utca",
            "post_code": 0
        },
        {
            "name": "Ak\u00e1cos",
            "kind": "utca",
            "post_code": 0
        },
        {
            "name": "Arany J\u00e1nos",
            "kind": "utca",
            "post_code": 0
        },
        {
            "name": "\u00c1rp\u00e1d",
            "kind": "utca",
            "post_code": 0
        },
        {
            "name": "Ben\u0151tt, nehezen j\u00e1rhat\u00f3!",
            "kind": "",
            "post_code": 0
        },
        {
            "name": "Bor- \u00e9s p\u00e1linka",
            "kind": "\u00fat",
            "post_code": 0
        },
        {
            "name": "D\u00f3zsa Gy\u00f6rgy",
            "kind": "utca",
            "post_code": 0
        },
        {
            "name": "G\u00e1bor \u00c1ron",
            "kind": "utca",
            "post_code": 0
        },
        {
            "name": "Haris tan\u00f6sv\u00e9ny",
            "kind": "",
            "post_code": 0
        },
        {
            "name": "Hegyalja",
            "kind": "utca",
            "post_code": 0
        },
        {
            "name": "Hegyk\u00f6zi Kisvas\u00fat",
            "kind": "",
            "post_code": 0
        },
        {
            "name": "Nehezen j\u00e1rhat\u00f3!",
            "kind": "",
            "post_code": 0
        },
        {
            "name": "Pacsirta",
            "kind": "utca",
            "post_code": 0
        },
        {
            "name": "Pet\u0151fi",
            "kind": "utca",
            "post_code": 0
        },
        {
            "name": "R\u00e1k\u00f3czi",
            "kind": "utca",
            "post_code": 0
        },
        {
            "name": "R\u00f3zsa",
            "kind": "utca",
            "post_code": 0
        },
        {
            "name": "Szabads\u00e1g",
            "kind": "utca",
            "post_code": 0
        }
    ]
}