{
    "codes": {
        "8282": [
            "Mindszentk\u00e1lla",
            null
        ]
    },
    "streets": [
        {
            "name": "Ben\u0151tt, nehezen j\u00e1rhat\u00f3!",
            "kind": "",
            "post_code": 0
        },
        {
            "name": "J\u00f3kai M\u00f3r",
            "kind": "utca",
            "post_code": 0
        },
        {
            "name": "Kismez\u0151",
            "kind": "utca",
            "post_code": 0
        },
        {
            "name": "Kossuth",
            "kind": "utca",
            "post_code": 0
        },
        {
            "name": "Monostori",
            "kind": "utca",
            "post_code": 0
        },
        {
            "name": "Pet\u0151fi S\u00e1ndor",
            "kind": "utca",
            "post_code": 0
        },
        {
            "name": "R\u00e1k\u00f3czi",
            "kind": "utca",
            "post_code": 0
        },
        {
            "name": "Savany\u00f3 kuti",
            "kind": "d\u0171l\u0151",
            "post_code": 0
        },
        {
            "name": "Szentimre",
            "kind": "puszta",
            "post_code": 0
        },
        {
            "name": "Tan\u00e1cs",
            "kind": "k\u00f6z",
            "post_code": 0
        }
    ]
}