{
    "codes": {
        "2146": [
            "Mogyor\u00f3d",
            null
        ]
    },
    "streets": [
        {
            "name": "Ady Endre",
            "kind": "utca",
            "post_code": 0
        },
        {
            "name": "\u00c1g",
            "kind": "utca",
            "post_code": 0
        },
        {
            "name": "Ak\u00e1c",
            "kind": "k\u00f6z",
            "post_code": 0
        },
        {
            "name": "Ak\u00e1cos",
            "kind": "utca",
            "post_code": 0
        },
        {
            "name": "Ak\u00e1cvir\u00e1g",
            "kind": "utca",
            "post_code": 0
        },
        {
            "name": "Alkotm\u00e1ny",
            "kind": "utca",
            "post_code": 0
        },
        {
            "name": "Arany J\u00e1nos",
            "kind": "utca",
            "post_code": 0
        },
        {
            "name": "\u00c1rny\u00e9k",
            "kind": "d\u0171l\u0151",
            "post_code": 0
        },
        {
            "name": "\u00c1rp\u00e1d vez\u00e9r",
            "kind": "utca",
            "post_code": 0
        },
        {
            "name": "Bagoly",
            "kind": "d\u0171l\u0151",
            "post_code": 0
        },
        {
            "name": "Bajcsy-Zsilinszky",
            "kind": "k\u00f6z",
            "post_code": 0
        },
        {
            "name": "Bajcsy-Zsilinszky",
            "kind": "utca",
            "post_code": 0
        },
        {
            "name": "Barackos",
            "kind": "utca",
            "post_code": 0
        },
        {
            "name": "B\u00e9ke",
            "kind": "utca",
            "post_code": 0
        },
        {
            "name": "Bencz\u00far Gyula",
            "kind": "utca",
            "post_code": 0
        },
        {
            "name": "Berekak\u00e1cos",
            "kind": "utca",
            "post_code": 0
        },
        {
            "name": "Berektet\u0151",
            "kind": "utca",
            "post_code": 0
        },
        {
            "name": "besz\u00e1ntva",
            "kind": "",
            "post_code": 0
        },
        {
            "name": "Bocskai",
            "kind": "\u00fat",
            "post_code": 0
        },
        {
            "name": "Bolnka",
            "kind": "utca",
            "post_code": 0
        },
        {
            "name": "Bors\u00f3",
            "kind": "utca",
            "post_code": 0
        },
        {
            "name": "Borvir\u00e1g",
            "kind": "\u00fat",
            "post_code": 0
        },
        {
            "name": "Cefre",
            "kind": "utca",
            "post_code": 0
        },
        {
            "name": "Csereszny\u00e9s",
            "kind": "utca",
            "post_code": 0
        },
        {
            "name": "Cserfa",
            "kind": "utca",
            "post_code": 0
        },
        {
            "name": "Cserk\u00e9sz",
            "kind": "utca",
            "post_code": 0
        },
        {
            "name": "Cs\u00edkv\u00f6lgyi",
            "kind": "utca",
            "post_code": 0
        },
        {
            "name": "Derecske",
            "kind": "d\u0171l\u0151",
            "post_code": 0
        },
        {
            "name": "Di\u00f3fa",
            "kind": "k\u00f6z",
            "post_code": 0
        },
        {
            "name": "Di\u00f3fa",
            "kind": "utca",
            "post_code": 0
        },
        {
            "name": "Domb\u00f3v\u00e1ri",
            "kind": "utca",
            "post_code": 0
        },
        {
            "name": "D\u00f3zsa Gy\u00f6rgy",
            "kind": "\u00fat",
            "post_code": 0
        },
        {
            "name": "dr. Pesthy Frigyes",
            "kind": "utca",
            "post_code": 0
        },
        {
            "name": "Eper",
            "kind": "utca",
            "post_code": 0
        },
        {
            "name": "Epres",
            "kind": "utca",
            "post_code": 0
        },
        {
            "name": "Erdei",
            "kind": "utca",
            "post_code": 0
        },
        {
            "name": "Erd\u00e9ly",
            "kind": "utca",
            "post_code": 0
        },
        {
            "name": "Erd\u0151alja",
            "kind": "utca",
            "post_code": 0
        },
        {
            "name": "Erd\u0151sor",
            "kind": "utca",
            "post_code": 0
        },
        {
            "name": "Erd\u0151sz\u00e9l",
            "kind": "utca",
            "post_code": 0
        },
        {
            "name": "Erd\u0151",
            "kind": "utca",
            "post_code": 0
        },
        {
            "name": "Erzs\u00e9bet kir\u00e1lyn\u00e9",
            "kind": "\u00fat",
            "post_code": 0
        },
        {
            "name": "F\u00e1c\u00e1nos",
            "kind": "utca",
            "post_code": 0
        },
        {
            "name": "Fels\u0151 m\u00e9ly",
            "kind": "utca",
            "post_code": 0
        },
        {
            "name": "Feszty \u00c1rp\u00e1d",
            "kind": "utca",
            "post_code": 0
        },
        {
            "name": "F\u00f3ti",
            "kind": "\u00fat",
            "post_code": 0
        },
        {
            "name": "Galamb",
            "kind": "utca",
            "post_code": 0
        },
        {
            "name": "G\u00e1rdonyi G\u00e9za",
            "kind": "utca",
            "post_code": 0
        },
        {
            "name": "G\u00e1zl\u00f3",
            "kind": "",
            "post_code": 0
        },
        {
            "name": "Gesztenye",
            "kind": "utca",
            "post_code": 0
        },
        {
            "name": "Gl\u00f3busz",
            "kind": "utca",
            "post_code": 0
        },
        {
            "name": "G\u00f6d\u00f6ll\u0151i",
            "kind": "\u00fat",
            "post_code": 0
        },
        {
            "name": "Gy\u00f6ngyvir\u00e1g",
            "kind": "utca",
            "post_code": 0
        },
        {
            "name": "Hangulat",
            "kind": "utca",
            "post_code": 0
        },
        {
            "name": "H\u00c9V",
            "kind": "k\u00f6z",
            "post_code": 0
        },
        {
            "name": "Homokt\u00f6vis",
            "kind": "utca",
            "post_code": 0
        },
        {
            "name": "Hungaroring",
            "kind": "",
            "post_code": 0
        },
        {
            "name": "Ibolya",
            "kind": "utca",
            "post_code": 0
        },
        {
            "name": "Ipar",
            "kind": "utca",
            "post_code": 0
        },
        {
            "name": "Iskola",
            "kind": "utca",
            "post_code": 0
        },
        {
            "name": "Iv\u00f3",
            "kind": "utca",
            "post_code": 0
        },
        {
            "name": "J\u00e9gvir\u00e1g",
            "kind": "utca",
            "post_code": 0
        },
        {
            "name": "J\u00f3kai M\u00f3r",
            "kind": "utca",
            "post_code": 0
        },
        {
            "name": "J\u00f3zan",
            "kind": "utca",
            "post_code": 0
        },
        {
            "name": "J\u00f3zsef Attila",
            "kind": "utca",
            "post_code": 0
        },
        {
            "name": "Juh\u00e1ll\u00e1s",
            "kind": "utca",
            "post_code": 0
        },
        {
            "name": "Kakukkhegy",
            "kind": "k\u00f6z",
            "post_code": 0
        },
        {
            "name": "Kamill\u00e1s",
            "kind": "utca",
            "post_code": 0
        },
        {
            "name": "Kapaszkod\u00f3",
            "kind": "utca",
            "post_code": 0
        },
        {
            "name": "Kerekt\u00f3",
            "kind": "utca",
            "post_code": 0
        },
        {
            "name": "Kert",
            "kind": "utca",
            "post_code": 0
        },
        {
            "name": "Kikelet",
            "kind": "utca",
            "post_code": 0
        },
        {
            "name": "Kiss Ern\u0151",
            "kind": "\u00fat",
            "post_code": 0
        },
        {
            "name": "Kor\u00e1bbi 3-as",
            "kind": "",
            "post_code": 0
        },
        {
            "name": "K\u00f6rtefa",
            "kind": "utca",
            "post_code": 0
        },
        {
            "name": "K\u00f6rte",
            "kind": "utca",
            "post_code": 0
        },
        {
            "name": "Kossuth Lajos",
            "kind": "utca",
            "post_code": 0
        },
        {
            "name": "K\u00f3tyisi",
            "kind": "utca",
            "post_code": 0
        },
        {
            "name": "K\u00f6z\u00e9ps\u0151 Homoki",
            "kind": "utca",
            "post_code": 0
        },
        {
            "name": "K\u00f6z\u00e9p",
            "kind": "\u00fat",
            "post_code": 0
        },
        {
            "name": "K\u00fatv\u00f6lgyi",
            "kind": "utca",
            "post_code": 0
        },
        {
            "name": "Lejt\u0151",
            "kind": "utca",
            "post_code": 0
        },
        {
            "name": "Lomboserd\u0151",
            "kind": "utca",
            "post_code": 0
        },
        {
            "name": "Lotz K\u00e1roly",
            "kind": "utca",
            "post_code": 0
        },
        {
            "name": "Mandula",
            "kind": "utca",
            "post_code": 0
        },
        {
            "name": "M\u00e1ria-\u00fat",
            "kind": "",
            "post_code": 0
        },
        {
            "name": "M\u00e1ty\u00e1s kir\u00e1ly",
            "kind": "\u00fat",
            "post_code": 0
        },
        {
            "name": "M\u00e1zsa",
            "kind": "t\u00e9r",
            "post_code": 0
        },
        {
            "name": "Meggyes",
            "kind": "utca",
            "post_code": 0
        },
        {
            "name": "(M\u00e9g nem teljesen kij\u00e1rt)",
            "kind": "",
            "post_code": 0
        },
        {
            "name": "M\u00e9ly",
            "kind": "\u00fat",
            "post_code": 0
        },
        {
            "name": "M\u00e9ly",
            "kind": "utca",
            "post_code": 0
        },
        {
            "name": "M\u00e9rleg",
            "kind": "utca",
            "post_code": 0
        },
        {
            "name": "Miksz\u00e1th K\u00e1lm\u00e1n",
            "kind": "utca",
            "post_code": 0
        },
        {
            "name": "Mogyor\u00f3",
            "kind": "utca",
            "post_code": 0
        },
        {
            "name": "M\u00f3ra Ferenc",
            "kind": "utca",
            "post_code": 0
        },
        {
            "name": "M\u00f3ricz Zsigmond",
            "kind": "utca",
            "post_code": 0
        },
        {
            "name": "Munk\u00e1csy Mih\u00e1ly",
            "kind": "utca",
            "post_code": 0
        },
        {
            "name": "Nagyhomoki",
            "kind": "\u00fat",
            "post_code": 0
        },
        {
            "name": "Napraforg\u00f3",
            "kind": "utca",
            "post_code": 0
        },
        {
            "name": "Nefelejcs",
            "kind": "utca",
            "post_code": 0
        },
        {
            "name": "Nyakt\u00f6r\u0151",
            "kind": "",
            "post_code": 0
        },
        {
            "name": "Nyulas",
            "kind": "utca",
            "post_code": 0
        },
        {
            "name": "Ny\u00fal",
            "kind": "utca",
            "post_code": 0
        },
        {
            "name": "Orgona",
            "kind": "utca",
            "post_code": 0
        },
        {
            "name": "\u00d6sszek\u00f6t\u0151",
            "kind": "\u00fat",
            "post_code": 0
        },
        {
            "name": "\u0150zike",
            "kind": "k\u00f6z",
            "post_code": 0
        },
        {
            "name": "\u0150zike",
            "kind": "utca",
            "post_code": 0
        },
        {
            "name": "\u0150zj\u00e1t\u00e9k",
            "kind": "utca",
            "post_code": 0
        },
        {
            "name": "Pacsirta",
            "kind": "utca",
            "post_code": 0
        },
        {
            "name": "Panor\u00e1ma",
            "kind": "utca",
            "post_code": 0
        },
        {
            "name": "Pataksor",
            "kind": "utca",
            "post_code": 0
        },
        {
            "name": "Pet\u0151fi S\u00e1ndor",
            "kind": "\u00fat",
            "post_code": 0
        },
        {
            "name": "Pincesor",
            "kind": "utca",
            "post_code": 0
        },
        {
            "name": "Radn\u00f3ti",
            "kind": "k\u00f6z",
            "post_code": 0
        },
        {
            "name": "Radn\u00f3ti Mikl\u00f3s",
            "kind": "utca",
            "post_code": 0
        },
        {
            "name": "R\u00e1k\u00f3czi",
            "kind": "utca",
            "post_code": 0
        },
        {
            "name": "R\u00e9zs\u0171",
            "kind": "utca",
            "post_code": 0
        },
        {
            "name": "R\u00f3di",
            "kind": "utca",
            "post_code": 0
        },
        {
            "name": "R\u00f6vid",
            "kind": "utca",
            "post_code": 0
        },
        {
            "name": "R\u00f3zsa",
            "kind": "k\u00f6z",
            "post_code": 0
        },
        {
            "name": "R\u00f3zsa",
            "kind": "utca",
            "post_code": 0
        },
        {
            "name": "Sarl\u00f3",
            "kind": "utca",
            "post_code": 0
        },
        {
            "name": "Soml\u00f3i",
            "kind": "\u00fat",
            "post_code": 0
        },
        {
            "name": "Somly\u00f3hegyi",
            "kind": "utca",
            "post_code": 0
        },
        {
            "name": "Somogyi B\u00e9la",
            "kind": "utca",
            "post_code": 0
        },
        {
            "name": "S\u00f6rf\u0151z\u0151",
            "kind": "utca",
            "post_code": 0
        },
        {
            "name": "Sport",
            "kind": "k\u00f6z",
            "post_code": 0
        },
        {
            "name": "Sport",
            "kind": "utca",
            "post_code": 0
        },
        {
            "name": "Szabads\u00e1g",
            "kind": "\u00fat",
            "post_code": 0
        },
        {
            "name": "Szadai",
            "kind": "\u00fat",
            "post_code": 0
        },
        {
            "name": "Sz\u00e1nk\u00f3",
            "kind": "utca",
            "post_code": 0
        },
        {
            "name": "Sz\u00e1nt\u00f3",
            "kind": "utca",
            "post_code": 0
        },
        {
            "name": "Sz\u00e9chenyi",
            "kind": "utca",
            "post_code": 0
        },
        {
            "name": "Sz\u00e9kely Bertalan",
            "kind": "utca",
            "post_code": 0
        },
        {
            "name": "Szent L\u00e1szl\u00f3",
            "kind": "t\u00e9r",
            "post_code": 0
        },
        {
            "name": "Szilas",
            "kind": "utca",
            "post_code": 0
        },
        {
            "name": "Szilv\u00e1s",
            "kind": "utca",
            "post_code": 0
        },
        {
            "name": "Sz\u0151l\u0151kert",
            "kind": "utca",
            "post_code": 0
        },
        {
            "name": "Sz\u0151l\u0151",
            "kind": "\u00fat",
            "post_code": 0
        },
        {
            "name": "Sztr\u00e1da",
            "kind": "sor",
            "post_code": 0
        },
        {
            "name": "T\u00e1ncsics Mih\u00e1ly",
            "kind": "utca",
            "post_code": 0
        },
        {
            "name": "Tavasz",
            "kind": "utca",
            "post_code": 0
        },
        {
            "name": "Teleki P\u00e1l Cserk\u00e9szpark",
            "kind": "",
            "post_code": 0
        },
        {
            "name": "Temet\u0151",
            "kind": "\u00fat",
            "post_code": 0
        },
        {
            "name": "Templom",
            "kind": "utca",
            "post_code": 0
        },
        {
            "name": "T\u00f6lgyes",
            "kind": "utca",
            "post_code": 0
        },
        {
            "name": "Vad\u00e1szh\u00e1zi",
            "kind": "\u00fat",
            "post_code": 0
        },
        {
            "name": "Vadvir\u00e1g",
            "kind": "utca",
            "post_code": 0
        },
        {
            "name": "Vas\u00fat",
            "kind": "utca",
            "post_code": 0
        },
        {
            "name": "Veresegyh\u00e1zi",
            "kind": "\u00fat",
            "post_code": 0
        },
        {
            "name": "Vir\u00e1g",
            "kind": "utca",
            "post_code": 0
        },
        {
            "name": "V\u00edzipark",
            "kind": "utca",
            "post_code": 0
        },
        {
            "name": "V\u00edztorony",
            "kind": "utca",
            "post_code": 0
        },
        {
            "name": "V\u00f6lgy",
            "kind": "utca",
            "post_code": 0
        },
        {
            "name": "V\u00f6r\u00f6smarty Mih\u00e1ly",
            "kind": "utca",
            "post_code": 0
        },
        {
            "name": "Zr\u00ednyi",
            "kind": "utca",
            "post_code": 0
        },
        {
            "name": "Zs\u00e1k",
            "kind": "utca",
            "post_code": 0
        }
    ]
}