{
    "codes": {
        "2200": [
            "Monor",
            null
        ]
    },
    "streets": [
        {
            "name": "2. & 3. v\u00e1g\u00e1ny",
            "kind": "",
            "post_code": 0
        },
        {
            "name": "4. & 5. v\u00e1g\u00e1ny",
            "kind": "",
            "post_code": 0
        },
        {
            "name": "Acs\u00e1di",
            "kind": "utca",
            "post_code": 0
        },
        {
            "name": "Ady Endre",
            "kind": "\u00fat",
            "post_code": 0
        },
        {
            "name": "Alkotm\u00e1ny",
            "kind": "utca",
            "post_code": 0
        },
        {
            "name": "Aradi",
            "kind": "utca",
            "post_code": 0
        },
        {
            "name": "Arany J\u00e1nos",
            "kind": "utca",
            "post_code": 0
        },
        {
            "name": "\u00c1rp\u00e1d",
            "kind": "utca",
            "post_code": 0
        },
        {
            "name": "Attila",
            "kind": "utca",
            "post_code": 0
        },
        {
            "name": "Avar",
            "kind": "utca",
            "post_code": 0
        },
        {
            "name": "Babits Mih\u00e1ly",
            "kind": "utca",
            "post_code": 0
        },
        {
            "name": "Bajcsy-Zsilinszky",
            "kind": "utca",
            "post_code": 0
        },
        {
            "name": "Bajza",
            "kind": "utca",
            "post_code": 0
        },
        {
            "name": "Balassi B\u00e1lint",
            "kind": "utca",
            "post_code": 0
        },
        {
            "name": "B\u00e1nffy Dezs\u0151",
            "kind": "utca",
            "post_code": 0
        },
        {
            "name": "Baross G\u00e1bor",
            "kind": "utca",
            "post_code": 0
        },
        {
            "name": "Bart\u00f3k B\u00e9la",
            "kind": "utca",
            "post_code": 0
        },
        {
            "name": "B\u00e1thori",
            "kind": "utca",
            "post_code": 0
        },
        {
            "name": "Bats\u00e1nyi J\u00e1nos",
            "kind": "utca",
            "post_code": 0
        },
        {
            "name": "Batthy\u00e1ny",
            "kind": "utca",
            "post_code": 0
        },
        {
            "name": "Be\u00e1ta",
            "kind": "utca",
            "post_code": 0
        },
        {
            "name": "Bem",
            "kind": "utca",
            "post_code": 0
        },
        {
            "name": "Bercs\u00e9nyi",
            "kind": "utca",
            "post_code": 0
        },
        {
            "name": "Bereki",
            "kind": "d\u0171l\u0151",
            "post_code": 0
        },
        {
            "name": "Blaha Lujza",
            "kind": "utca",
            "post_code": 0
        },
        {
            "name": "Bocskai",
            "kind": "utca",
            "post_code": 0
        },
        {
            "name": "Brass\u00f3",
            "kind": "utca",
            "post_code": 0
        },
        {
            "name": "Br\u00f3dy S\u00e1ndor",
            "kind": "utca",
            "post_code": 0
        },
        {
            "name": "Burgundi",
            "kind": "sor",
            "post_code": 0
        },
        {
            "name": "Cinka Panna",
            "kind": "utca",
            "post_code": 0
        },
        {
            "name": "Csokonai",
            "kind": "utca",
            "post_code": 0
        },
        {
            "name": "Czuczor Gergely",
            "kind": "utca",
            "post_code": 0
        },
        {
            "name": "Damjanich",
            "kind": "utca",
            "post_code": 0
        },
        {
            "name": "De\u00e1k Ferenc",
            "kind": "utca",
            "post_code": 0
        },
        {
            "name": "Di\u00f3fa",
            "kind": "d\u0171l\u0151",
            "post_code": 0
        },
        {
            "name": "Dob\u00f3 Istv\u00e1n",
            "kind": "utca",
            "post_code": 0
        },
        {
            "name": "D\u00f3zsa Gy\u00f6rgy",
            "kind": "utca",
            "post_code": 0
        },
        {
            "name": "Dugonics",
            "kind": "utca",
            "post_code": 0
        },
        {
            "name": "E\u00f6tv\u00f6s",
            "kind": "utca",
            "post_code": 0
        },
        {
            "name": "Erzs\u00e9bet kir\u00e1lyn\u00e9",
            "kind": "utca",
            "post_code": 0
        },
        {
            "name": "Esze Tam\u00e1s",
            "kind": "utca",
            "post_code": 0
        },
        {
            "name": "Fill\u00e9r",
            "kind": "utca",
            "post_code": 0
        },
        {
            "name": "Fiumei",
            "kind": "utca",
            "post_code": 0
        },
        {
            "name": "Fonyad Dezs\u0151",
            "kind": "utca",
            "post_code": 0
        },
        {
            "name": "Forg\u00e1ch",
            "kind": "utca",
            "post_code": 0
        },
        {
            "name": "Forr\u00e1s",
            "kind": "k\u00f6z",
            "post_code": 0
        },
        {
            "name": "Forr\u00e1s",
            "kind": "utca",
            "post_code": 0
        },
        {
            "name": "F\u00fcleki",
            "kind": "utca",
            "post_code": 0
        },
        {
            "name": "F\u00fczes",
            "kind": "utca",
            "post_code": 0
        },
        {
            "name": "G\u00e1bor \u00c1ron",
            "kind": "utca",
            "post_code": 0
        },
        {
            "name": "Garam",
            "kind": "utca",
            "post_code": 0
        },
        {
            "name": "G\u00e9m",
            "kind": "utca",
            "post_code": 0
        },
        {
            "name": "G\u00e9p",
            "kind": "utca",
            "post_code": 0
        },
        {
            "name": "Gombai",
            "kind": "\u00fat",
            "post_code": 0
        },
        {
            "name": "Halas",
            "kind": "utca",
            "post_code": 0
        },
        {
            "name": "Heged\u0171s Gyula",
            "kind": "utca",
            "post_code": 0
        },
        {
            "name": "Hern\u00e1d",
            "kind": "k\u00f6z",
            "post_code": 0
        },
        {
            "name": "Holdsug\u00e1r",
            "kind": "utca",
            "post_code": 0
        },
        {
            "name": "Hossz\u00faberek",
            "kind": "\u00fatja",
            "post_code": 0
        },
        {
            "name": "Hunyadi J\u00e1nos",
            "kind": "utca",
            "post_code": 0
        },
        {
            "name": "Igl\u00f3i",
            "kind": "utca",
            "post_code": 0
        },
        {
            "name": "Inda",
            "kind": "sor",
            "post_code": 0
        },
        {
            "name": "Ipar",
            "kind": "utca",
            "post_code": 0
        },
        {
            "name": "Ir\u00e1nyi",
            "kind": "utca",
            "post_code": 0
        },
        {
            "name": "Irsai Oliv\u00e9r",
            "kind": "d\u0171l\u0151",
            "post_code": 0
        },
        {
            "name": "J\u00e1szai Mari",
            "kind": "t\u00e9r",
            "post_code": 0
        },
        {
            "name": "J\u00f3kai M\u00f3r",
            "kind": "utca",
            "post_code": 0
        },
        {
            "name": "J\u00f3sika",
            "kind": "utca",
            "post_code": 0
        },
        {
            "name": "K\u00e1ll\u00f3 esperes",
            "kind": "utca",
            "post_code": 0
        },
        {
            "name": "Kapisztr\u00e1n J\u00e1nos",
            "kind": "utca",
            "post_code": 0
        },
        {
            "name": "Kassai",
            "kind": "utca",
            "post_code": 0
        },
        {
            "name": "Katona J\u00f3zsef",
            "kind": "utca",
            "post_code": 0
        },
        {
            "name": "Kazinczy",
            "kind": "utca",
            "post_code": 0
        },
        {
            "name": "K\u00e9sm\u00e1rk",
            "kind": "utca",
            "post_code": 0
        },
        {
            "name": "Kinizsi",
            "kind": "k\u00f6z",
            "post_code": 0
        },
        {
            "name": "Kinizsi",
            "kind": "utca",
            "post_code": 0
        },
        {
            "name": "Kisfaludi",
            "kind": "utca",
            "post_code": 0
        },
        {
            "name": "Kiss Ern\u0151",
            "kind": "utca",
            "post_code": 0
        },
        {
            "name": "Kistemplom",
            "kind": "utca",
            "post_code": 0
        },
        {
            "name": "Kist\u00f3i",
            "kind": "\u00fat",
            "post_code": 0
        },
        {
            "name": "Klapka",
            "kind": "utca",
            "post_code": 0
        },
        {
            "name": "Kod\u00e1ly Zolt\u00e1n",
            "kind": "utca",
            "post_code": 0
        },
        {
            "name": "K\u00f6lcsey",
            "kind": "utca",
            "post_code": 0
        },
        {
            "name": "Kolozsv\u00e1ri",
            "kind": "utca",
            "post_code": 0
        },
        {
            "name": "Kossuth Lajos",
            "kind": "\u00fat",
            "post_code": 0
        },
        {
            "name": "K\u00f6vidinka",
            "kind": "sor",
            "post_code": 0
        },
        {
            "name": "K\u00f6zt\u00e1rsas\u00e1g",
            "kind": "utca",
            "post_code": 0
        },
        {
            "name": "Kr\u00fady Gyula",
            "kind": "utca",
            "post_code": 0
        },
        {
            "name": "Lehel",
            "kind": "utca",
            "post_code": 0
        },
        {
            "name": "Lilliom",
            "kind": "utca",
            "post_code": 0
        },
        {
            "name": "Liszt Ferenc",
            "kind": "utca",
            "post_code": 0
        },
        {
            "name": "L\u0151csei",
            "kind": "utca",
            "post_code": 0
        },
        {
            "name": "Locsodi",
            "kind": "utca",
            "post_code": 0
        },
        {
            "name": "Mad\u00e1ch",
            "kind": "utca",
            "post_code": 0
        },
        {
            "name": "Malomhegy",
            "kind": "utca",
            "post_code": 0
        },
        {
            "name": "M\u00e1ria",
            "kind": "utca",
            "post_code": 0
        },
        {
            "name": "Maros",
            "kind": "utca",
            "post_code": 0
        },
        {
            "name": "M\u00e1rt\u00edrok",
            "kind": "\u00fatja",
            "post_code": 0
        },
        {
            "name": "M\u00e1tra",
            "kind": "utca",
            "post_code": 0
        },
        {
            "name": "M\u00e1ty\u00e1s kir\u00e1ly",
            "kind": "utca",
            "post_code": 0
        },
        {
            "name": "Mendei",
            "kind": "utca",
            "post_code": 0
        },
        {
            "name": "Mez\u0151",
            "kind": "utca",
            "post_code": 0
        },
        {
            "name": "Mikes",
            "kind": "utca",
            "post_code": 0
        },
        {
            "name": "Miksz\u00e1th K\u00e1lm\u00e1n",
            "kind": "utca",
            "post_code": 0
        },
        {
            "name": "Monor, 1. v\u00e1g\u00e1ny",
            "kind": "",
            "post_code": 0
        },
        {
            "name": "Monori",
            "kind": "d\u0171l\u0151\u00fat",
            "post_code": 0
        },
        {
            "name": "M\u00f3ricz Zsigmond",
            "kind": "utca",
            "post_code": 0
        },
        {
            "name": "Munk\u00e1csy Mih\u00e1ly",
            "kind": "utca",
            "post_code": 0
        },
        {
            "name": "Munk\u00e1s",
            "kind": "utca",
            "post_code": 0
        },
        {
            "name": "Mur\u00e1nyi",
            "kind": "utca",
            "post_code": 0
        },
        {
            "name": "N\u00e1das",
            "kind": "utca",
            "post_code": 0
        },
        {
            "name": "Nagydi\u00f3fa",
            "kind": "utca",
            "post_code": 0
        },
        {
            "name": "Napsug\u00e1r",
            "kind": "utca",
            "post_code": 0
        },
        {
            "name": "N\u00e9meth \u00c1goston",
            "kind": "utca",
            "post_code": 0
        },
        {
            "name": "Nemzet\u0151r",
            "kind": "k\u00f6z",
            "post_code": 0
        },
        {
            "name": "Nemzet\u0151r",
            "kind": "utca",
            "post_code": 0
        },
        {
            "name": "Nyitrai",
            "kind": "utca",
            "post_code": 0
        },
        {
            "name": "P\u00e1skom",
            "kind": "utca",
            "post_code": 0
        },
        {
            "name": "P\u00e9teri",
            "kind": "\u00fat",
            "post_code": 0
        },
        {
            "name": "Pet\u0151fi S\u00e1ndor",
            "kind": "utca",
            "post_code": 0
        },
        {
            "name": "Pilisi",
            "kind": "\u00fat",
            "post_code": 0
        },
        {
            "name": "Pince",
            "kind": "utca",
            "post_code": 0
        },
        {
            "name": "P\u00f3sa Lajos",
            "kind": "utca",
            "post_code": 0
        },
        {
            "name": "Pozsonyi",
            "kind": "utca",
            "post_code": 0
        },
        {
            "name": "Puskin",
            "kind": "utca",
            "post_code": 0
        },
        {
            "name": "R\u00e1k\u00f3czi",
            "kind": "utca",
            "post_code": 0
        },
        {
            "name": "R\u00e1kosi Jen\u0151",
            "kind": "utca",
            "post_code": 0
        },
        {
            "name": "R\u00e9t",
            "kind": "utca",
            "post_code": 0
        },
        {
            "name": "Rizling",
            "kind": "d\u0171l\u0151",
            "post_code": 0
        },
        {
            "name": "Simon Istv\u00e1n",
            "kind": "utca",
            "post_code": 0
        },
        {
            "name": "Somogyi B\u00e9la",
            "kind": "utca",
            "post_code": 0
        },
        {
            "name": "Str\u00e1zsahegyi",
            "kind": "d\u0171l\u0151",
            "post_code": 0
        },
        {
            "name": "Stromfeld Aur\u00e9l",
            "kind": "utca",
            "post_code": 0
        },
        {
            "name": "Szab\u00f3 Ervin",
            "kind": "utca",
            "post_code": 0
        },
        {
            "name": "Szab\u00f3 Ilonka",
            "kind": "utca",
            "post_code": 0
        },
        {
            "name": "Szatm\u00e1ri",
            "kind": "utca",
            "post_code": 0
        },
        {
            "name": "Sz\u00e9ch\u00e9nyi",
            "kind": "utca",
            "post_code": 0
        },
        {
            "name": "Sz\u00e9kely Bertalan",
            "kind": "utca",
            "post_code": 0
        },
        {
            "name": "Sz\u00e9lmalom",
            "kind": "utca",
            "post_code": 0
        },
        {
            "name": "Szent Orb\u00e1n",
            "kind": "t\u00e9r",
            "post_code": 0
        },
        {
            "name": "Szil\u00e1gyi Dezs\u0151",
            "kind": "utca",
            "post_code": 0
        },
        {
            "name": "Szilh\u00e1t",
            "kind": "utca",
            "post_code": 0
        },
        {
            "name": "Sz\u00f6l\u0151hegy",
            "kind": "utca",
            "post_code": 0
        },
        {
            "name": "Tam\u00e1si \u00c1ron",
            "kind": "utca",
            "post_code": 0
        },
        {
            "name": "T\u00e1ncsics Mih\u00e1ly",
            "kind": "utca",
            "post_code": 0
        },
        {
            "name": "T\u00e1tra",
            "kind": "utca",
            "post_code": 0
        },
        {
            "name": "Temesv\u00e1ri",
            "kind": "utca",
            "post_code": 0
        },
        {
            "name": "Toldy Ferenc",
            "kind": "utca",
            "post_code": 0
        },
        {
            "name": "Tompa Mih\u00e1ly",
            "kind": "utca",
            "post_code": 0
        },
        {
            "name": "T\u00f3",
            "kind": "utca",
            "post_code": 0
        },
        {
            "name": "Traktor",
            "kind": "utca",
            "post_code": 0
        },
        {
            "name": "T\u00fcrr Istv\u00e1n",
            "kind": "utca",
            "post_code": 0
        },
        {
            "name": "V\u00e1ci Mih\u00e1ly",
            "kind": "utca",
            "post_code": 0
        },
        {
            "name": "Veres P\u00e1ln\u00e9",
            "kind": "utca",
            "post_code": 0
        },
        {
            "name": "Vir\u00e1g",
            "kind": "utca",
            "post_code": 0
        },
        {
            "name": "V\u00f6lgy",
            "kind": "utca",
            "post_code": 0
        },
        {
            "name": "V\u00f6r\u00f6smarty",
            "kind": "utca",
            "post_code": 0
        },
        {
            "name": "Wessel\u00e9nyi",
            "kind": "utca",
            "post_code": 0
        },
        {
            "name": "Ybl Mikl\u00f3s",
            "kind": "utca",
            "post_code": 0
        },
        {
            "name": "Z\u00f6ldmez\u0151",
            "kind": "utca",
            "post_code": 0
        },
        {
            "name": "Z\u00f3lyom",
            "kind": "utca",
            "post_code": 0
        },
        {
            "name": "Zr\u00ednyi",
            "kind": "utca",
            "post_code": 0
        }
    ]
}