{
    "codes": {
        "8441": [
            "M\u00e1rk\u00f3",
            null
        ]
    },
    "streets": [
        {
            "name": "Bakonyi",
            "kind": "utca",
            "post_code": 0
        },
        {
            "name": "Berkenye",
            "kind": "utca",
            "post_code": 0
        },
        {
            "name": "B\u00fazavir\u00e1g",
            "kind": "utca",
            "post_code": 0
        },
        {
            "name": "Eszterg\u00e1li-v\u00f6lgy",
            "kind": "",
            "post_code": 0
        },
        {
            "name": "Galagonya",
            "kind": "utca",
            "post_code": 0
        },
        {
            "name": "H\u00e1rsfa",
            "kind": "utca",
            "post_code": 0
        },
        {
            "name": "H\u00f3vir\u00e1g",
            "kind": "utca",
            "post_code": 0
        },
        {
            "name": "Ibolya",
            "kind": "utca",
            "post_code": 0
        },
        {
            "name": "Iparos",
            "kind": "utca",
            "post_code": 0
        },
        {
            "name": "J\u00e1zmin",
            "kind": "utca",
            "post_code": 0
        },
        {
            "name": "K\u00e1lv\u00e1ria",
            "kind": "",
            "post_code": 0
        },
        {
            "name": "K\u00e1lv\u00e1ria",
            "kind": "utca",
            "post_code": 0
        },
        {
            "name": "K\u0151h\u00e1t",
            "kind": "utca",
            "post_code": 0
        },
        {
            "name": "K\u00fcltelek",
            "kind": "tanya",
            "post_code": 0
        },
        {
            "name": "Levendula",
            "kind": "utca",
            "post_code": 0
        },
        {
            "name": "Liliom",
            "kind": "utca",
            "post_code": 0
        },
        {
            "name": "Malom",
            "kind": "utca",
            "post_code": 0
        },
        {
            "name": "M\u00e1rton Antal",
            "kind": "s\u00e9t\u00e1ny",
            "post_code": 0
        },
        {
            "name": "Mesteri",
            "kind": "utca",
            "post_code": 0
        },
        {
            "name": "Orgona",
            "kind": "utca",
            "post_code": 0
        },
        {
            "name": "Pad\u00e1nyi B\u00edr\u00f3 M\u00e1rton",
            "kind": "t\u00e9r",
            "post_code": 0
        },
        {
            "name": "Pad\u00e1nyi Bir\u00f3 M\u00e1rton",
            "kind": "utca",
            "post_code": 0
        },
        {
            "name": "Pet\u0151fi",
            "kind": "utca",
            "post_code": 0
        },
        {
            "name": "Pipacs",
            "kind": "utca",
            "post_code": 0
        },
        {
            "name": "Re\u00e1l-M",
            "kind": "",
            "post_code": 0
        },
        {
            "name": "R\u00f3zsafa",
            "kind": "utca",
            "post_code": 0
        },
        {
            "name": "Tiszafa",
            "kind": "utca",
            "post_code": 0
        },
        {
            "name": "Vadvir\u00e1g",
            "kind": "utca",
            "post_code": 0
        },
        {
            "name": "Vas\u00fat",
            "kind": "\u0151rh\u00e1z",
            "post_code": 0
        },
        {
            "name": "Vas\u00fat",
            "kind": "utca",
            "post_code": 0
        },
        {
            "name": "Viola",
            "kind": "utca",
            "post_code": 0
        }
    ]
}