{
    "codes": {
        "2094": [
            "Nagykov\u00e1csi",
            null
        ]
    },
    "streets": [
        {
            "name": "Ady Endre",
            "kind": "utca",
            "post_code": 0
        },
        {
            "name": "Ak\u00e1cfa",
            "kind": "k\u00f6z",
            "post_code": 0
        },
        {
            "name": "Ak\u00e1cfa",
            "kind": "utca",
            "post_code": 0
        },
        {
            "name": "Alma",
            "kind": "utca",
            "post_code": 0
        },
        {
            "name": "Ant\u00f3nia",
            "kind": "\u00e1rok",
            "post_code": 0
        },
        {
            "name": "Ant\u00f3nia",
            "kind": "utca",
            "post_code": 0
        },
        {
            "name": "Arany J\u00e1nos",
            "kind": "utca",
            "post_code": 0
        },
        {
            "name": "\u00c1rv\u00e1cska",
            "kind": "utca",
            "post_code": 0
        },
        {
            "name": "Bajcsy-Zsilinszky",
            "kind": "utca",
            "post_code": 0
        },
        {
            "name": "Bakony",
            "kind": "utca",
            "post_code": 0
        },
        {
            "name": "Balta",
            "kind": "utca",
            "post_code": 0
        },
        {
            "name": "B\u00e1nya",
            "kind": "k\u00f6z",
            "post_code": 0
        },
        {
            "name": "B\u00e1nya",
            "kind": "utca",
            "post_code": 0
        },
        {
            "name": "Barack",
            "kind": "k\u00f6z",
            "post_code": 0
        },
        {
            "name": "Barack",
            "kind": "utca",
            "post_code": 0
        },
        {
            "name": "Bencz\u00far",
            "kind": "utca",
            "post_code": 0
        },
        {
            "name": "Berkenye",
            "kind": "utca",
            "post_code": 0
        },
        {
            "name": "Beseny\u0151telek",
            "kind": "utca",
            "post_code": 0
        },
        {
            "name": "Bog\u00e1r",
            "kind": "utca",
            "post_code": 0
        },
        {
            "name": "Boglya",
            "kind": "utca",
            "post_code": 0
        },
        {
            "name": "Bokor",
            "kind": "utca",
            "post_code": 0
        },
        {
            "name": "Bor\u00f3ka",
            "kind": "utca",
            "post_code": 0
        },
        {
            "name": "B\u00fckk",
            "kind": "utca",
            "post_code": 0
        },
        {
            "name": "B\u00fazavir\u00e1g",
            "kind": "utca",
            "post_code": 0
        },
        {
            "name": "Cinc\u00e9r",
            "kind": "utca",
            "post_code": 0
        },
        {
            "name": "Csendes",
            "kind": "utca",
            "post_code": 0
        },
        {
            "name": "Cseresznye",
            "kind": "utca",
            "post_code": 0
        },
        {
            "name": "Csille",
            "kind": "utca",
            "post_code": 0
        },
        {
            "name": "Di\u00f3fa",
            "kind": "k\u00f6z",
            "post_code": 0
        },
        {
            "name": "Di\u00f3fa",
            "kind": "utca",
            "post_code": 0
        },
        {
            "name": "Domb",
            "kind": "utca",
            "post_code": 0
        },
        {
            "name": "D\u00f3zsa Gy\u00f6rgy",
            "kind": "utca",
            "post_code": 0
        },
        {
            "name": "Duna",
            "kind": "utca",
            "post_code": 0
        },
        {
            "name": "E\u00f6tv\u00f6s Lor\u00e1nd",
            "kind": "utca",
            "post_code": 0
        },
        {
            "name": "Erd\u00e9sz",
            "kind": "utca",
            "post_code": 0
        },
        {
            "name": "Erd\u0151alja",
            "kind": "utca",
            "post_code": 0
        },
        {
            "name": "Erd\u0151s\u00e9t\u00e1ny",
            "kind": "utca",
            "post_code": 0
        },
        {
            "name": "Erd\u0151",
            "kind": "utca",
            "post_code": 0
        },
        {
            "name": "Erkel Ferenc",
            "kind": "utca",
            "post_code": 0
        },
        {
            "name": "Farkas",
            "kind": "utca",
            "post_code": 0
        },
        {
            "name": "Feh\u00e9r",
            "kind": "\u00fat",
            "post_code": 0
        },
        {
            "name": "Fej\u00e9r Gy\u00f6rgy",
            "kind": "utca",
            "post_code": 0
        },
        {
            "name": "Feny\u0151",
            "kind": "utca",
            "post_code": 0
        },
        {
            "name": "Forr\u00e1s",
            "kind": "utca",
            "post_code": 0
        },
        {
            "name": "F\u0171r\u00e9sz",
            "kind": "utca",
            "post_code": 0
        },
        {
            "name": "G\u00e9mesk\u00fat",
            "kind": "utca",
            "post_code": 0
        },
        {
            "name": "Gerecse",
            "kind": "utca",
            "post_code": 0
        },
        {
            "name": "Greszl Ferenc",
            "kind": "utca",
            "post_code": 0
        },
        {
            "name": "Gyerty\u00e1n",
            "kind": "utca",
            "post_code": 0
        },
        {
            "name": "Gy\u00f6ngyvir\u00e1g",
            "kind": "utca",
            "post_code": 0
        },
        {
            "name": "Gyop\u00e1r",
            "kind": "utca",
            "post_code": 0
        },
        {
            "name": "Gy\u00fcm\u00f6lcs",
            "kind": "k\u00f6z",
            "post_code": 0
        },
        {
            "name": "Gy\u00fcm\u00f6lcs",
            "kind": "utca",
            "post_code": 0
        },
        {
            "name": "Halom",
            "kind": "utca",
            "post_code": 0
        },
        {
            "name": "Hanga",
            "kind": "utca",
            "post_code": 0
        },
        {
            "name": "H\u00e1rsfa",
            "kind": "utca",
            "post_code": 0
        },
        {
            "name": "H\u00e9rics",
            "kind": "utca",
            "post_code": 0
        },
        {
            "name": "Hidegki",
            "kind": "\u00fat",
            "post_code": 0
        },
        {
            "name": "H\u00f3vir\u00e1g",
            "kind": "utca",
            "post_code": 0
        },
        {
            "name": "Ibolya",
            "kind": "utca",
            "post_code": 0
        },
        {
            "name": "Irinyi",
            "kind": "utca",
            "post_code": 0
        },
        {
            "name": "Jegenye",
            "kind": "utca",
            "post_code": 0
        },
        {
            "name": "J\u00f3kai",
            "kind": "utca",
            "post_code": 0
        },
        {
            "name": "Kal\u00e1sz",
            "kind": "utca",
            "post_code": 0
        },
        {
            "name": "K\u00e1lv\u00e1ria",
            "kind": "s\u00e9t\u00e1ny",
            "post_code": 0
        },
        {
            "name": "K\u00e1lv\u00e1ria",
            "kind": "utca",
            "post_code": 0
        },
        {
            "name": "K\u00e1roli G\u00e1sp\u00e1r",
            "kind": "utca",
            "post_code": 0
        },
        {
            "name": "Kast\u00e9ly",
            "kind": "k\u00f6z",
            "post_code": 0
        },
        {
            "name": "Kasz\u00e1l\u00f3",
            "kind": "utca",
            "post_code": 0
        },
        {
            "name": "Katica",
            "kind": "utca",
            "post_code": 0
        },
        {
            "name": "Kazal",
            "kind": "utca",
            "post_code": 0
        },
        {
            "name": "Kerekhegyi",
            "kind": "s\u00e9t\u00e1ny",
            "post_code": 0
        },
        {
            "name": "Keskeny",
            "kind": "k\u00f6z",
            "post_code": 0
        },
        {
            "name": "K\u00f6k\u00f6rcsin",
            "kind": "utca",
            "post_code": 0
        },
        {
            "name": "Kolozsv\u00e1r",
            "kind": "k\u00f6z",
            "post_code": 0
        },
        {
            "name": "Kolozsv\u00e1r",
            "kind": "t\u00e9r",
            "post_code": 0
        },
        {
            "name": "Kolozsv\u00e1r",
            "kind": "utca",
            "post_code": 0
        },
        {
            "name": "K\u0151r\u00f6s",
            "kind": "k\u00f6z",
            "post_code": 0
        },
        {
            "name": "K\u0151r\u00f6s",
            "kind": "utca",
            "post_code": 0
        },
        {
            "name": "K\u00f6rte",
            "kind": "utca",
            "post_code": 0
        },
        {
            "name": "Kossuth Lajos",
            "kind": "utca",
            "post_code": 0
        },
        {
            "name": "K\u00fcltelek",
            "kind": "utca",
            "post_code": 0
        },
        {
            "name": "K\u00fat",
            "kind": "k\u00f6z",
            "post_code": 0
        },
        {
            "name": "K\u00fat",
            "kind": "utca",
            "post_code": 0
        },
        {
            "name": "Lombos",
            "kind": "utca",
            "post_code": 0
        },
        {
            "name": "Mad\u00e1ch",
            "kind": "t\u00e9r",
            "post_code": 0
        },
        {
            "name": "Margar\u00e9ta",
            "kind": "utca",
            "post_code": 0
        },
        {
            "name": "M\u00e1tra",
            "kind": "utca",
            "post_code": 0
        },
        {
            "name": "Mecsek",
            "kind": "utca",
            "post_code": 0
        },
        {
            "name": "Medve",
            "kind": "utca",
            "post_code": 0
        },
        {
            "name": "Meggy",
            "kind": "utca",
            "post_code": 0
        },
        {
            "name": "Mogyor\u00f3",
            "kind": "utca",
            "post_code": 0
        },
        {
            "name": "Muflon",
            "kind": "utca",
            "post_code": 0
        },
        {
            "name": "Munk\u00e1csy Mih\u00e1ly",
            "kind": "utca",
            "post_code": 0
        },
        {
            "name": "Musk\u00e1tli",
            "kind": "utca",
            "post_code": 0
        },
        {
            "name": "N\u00e1das",
            "kind": "utca",
            "post_code": 0
        },
        {
            "name": "Nagykov\u00e1csi",
            "kind": "\u00fat",
            "post_code": 0
        },
        {
            "name": "Nagysz\u00e9n\u00e1s",
            "kind": "utca",
            "post_code": 0
        },
        {
            "name": "Nefelejcs",
            "kind": "utca",
            "post_code": 0
        },
        {
            "name": "Ny\u00fal",
            "kind": "utca",
            "post_code": 0
        },
        {
            "name": "\u00d6rd\u00f6g\u00e1rok",
            "kind": "utca",
            "post_code": 0
        },
        {
            "name": "\u0150sz",
            "kind": "k\u00f6z",
            "post_code": 0
        },
        {
            "name": "\u0150zike",
            "kind": "utca",
            "post_code": 0
        },
        {
            "name": "Park",
            "kind": "utca",
            "post_code": 0
        },
        {
            "name": "Pet\u0151fi S\u00e1ndor",
            "kind": "utca",
            "post_code": 0
        },
        {
            "name": "Pilis",
            "kind": "utca",
            "post_code": 0
        },
        {
            "name": "Pipacs",
            "kind": "utca",
            "post_code": 0
        },
        {
            "name": "Pitypang",
            "kind": "utca",
            "post_code": 0
        },
        {
            "name": "P\u00f3k",
            "kind": "utca",
            "post_code": 0
        },
        {
            "name": "Pusk\u00e1s Tivadar",
            "kind": "utca",
            "post_code": 0
        },
        {
            "name": "Puskin",
            "kind": "k\u00f6z",
            "post_code": 0
        },
        {
            "name": "Puskin",
            "kind": "utca",
            "post_code": 0
        },
        {
            "name": "R\u00e1ba",
            "kind": "utca",
            "post_code": 0
        },
        {
            "name": "Radn\u00f3ti Mikl\u00f3s",
            "kind": "utca",
            "post_code": 0
        },
        {
            "name": "R\u00e1k\u00f3czi",
            "kind": "utca",
            "post_code": 0
        },
        {
            "name": "R\u00e9t",
            "kind": "utca",
            "post_code": 0
        },
        {
            "name": "R\u00f3ka",
            "kind": "utca",
            "post_code": 0
        },
        {
            "name": "Rozmaring",
            "kind": "k\u00f6z",
            "post_code": 0
        },
        {
            "name": "Rozmaring",
            "kind": "utca",
            "post_code": 0
        },
        {
            "name": "R\u00f3zsa",
            "kind": "k\u00f6z",
            "post_code": 0
        },
        {
            "name": "R\u00f3zsa",
            "kind": "utca",
            "post_code": 0
        },
        {
            "name": "Saj\u00f3",
            "kind": "utca",
            "post_code": 0
        },
        {
            "name": "Semmelweis Ign\u00e1c",
            "kind": "k\u00f6z",
            "post_code": 0
        },
        {
            "name": "Semmelweis Ign\u00e1c",
            "kind": "utca",
            "post_code": 0
        },
        {
            "name": "S\u00e9ta",
            "kind": "utca",
            "post_code": 0
        },
        {
            "name": "Soproni",
            "kind": "utca",
            "post_code": 0
        },
        {
            "name": "Sport",
            "kind": "utca",
            "post_code": 0
        },
        {
            "name": "Szamos",
            "kind": "utca",
            "post_code": 0
        },
        {
            "name": "Szarvas-\u00e1rok",
            "kind": "",
            "post_code": 0
        },
        {
            "name": "Szarvas",
            "kind": "utca",
            "post_code": 0
        },
        {
            "name": "Sz\u00e1va",
            "kind": "utca",
            "post_code": 0
        },
        {
            "name": "Szegf\u0171",
            "kind": "utca",
            "post_code": 0
        },
        {
            "name": "Szeles",
            "kind": "k\u00f6z",
            "post_code": 0
        },
        {
            "name": "Szeles",
            "kind": "utca",
            "post_code": 0
        },
        {
            "name": "Sz\u00e9na",
            "kind": "utca",
            "post_code": 0
        },
        {
            "name": "Szent Anna",
            "kind": "utca",
            "post_code": 0
        },
        {
            "name": "Szent F\u00e1bi\u00e1n",
            "kind": "utca",
            "post_code": 0
        },
        {
            "name": "Szent Fl\u00f3ri\u00e1n",
            "kind": "utca",
            "post_code": 0
        },
        {
            "name": "Szent Kinga",
            "kind": "utca",
            "post_code": 0
        },
        {
            "name": "Szent L\u00f3r\u00e1nt",
            "kind": "utca",
            "post_code": 0
        },
        {
            "name": "Szent Margit",
            "kind": "utca",
            "post_code": 0
        },
        {
            "name": "Szent M\u00e1rk",
            "kind": "utca",
            "post_code": 0
        },
        {
            "name": "Szilva",
            "kind": "k\u00f6z",
            "post_code": 0
        },
        {
            "name": "Szilva",
            "kind": "utca",
            "post_code": 0
        },
        {
            "name": "T\u00e1ncsics Mih\u00e1ly",
            "kind": "k\u00f6z",
            "post_code": 0
        },
        {
            "name": "T\u00e1ncsics Mih\u00e1ly",
            "kind": "utca",
            "post_code": 0
        },
        {
            "name": "T\u00e1tika",
            "kind": "utca",
            "post_code": 0
        },
        {
            "name": "Telki",
            "kind": "\u00fat",
            "post_code": 0
        },
        {
            "name": "Temet\u0151",
            "kind": "utca",
            "post_code": 0
        },
        {
            "name": "Templomkert",
            "kind": "utca",
            "post_code": 0
        },
        {
            "name": "Templom",
            "kind": "k\u00f6z",
            "post_code": 0
        },
        {
            "name": "Tin\u00f3di",
            "kind": "k\u00f6z",
            "post_code": 0
        },
        {
            "name": "Tin\u00f3di",
            "kind": "utca",
            "post_code": 0
        },
        {
            "name": "Tisza Istv\u00e1n",
            "kind": "t\u00e9r",
            "post_code": 0
        },
        {
            "name": "Tisza",
            "kind": "utca",
            "post_code": 0
        },
        {
            "name": "T\u00f6lgy",
            "kind": "utca",
            "post_code": 0
        },
        {
            "name": "Tompa Mih\u00e1ly",
            "kind": "utca",
            "post_code": 0
        },
        {
            "name": "T\u00f6vis",
            "kind": "utca",
            "post_code": 0
        },
        {
            "name": "T\u00fccs\u00f6k",
            "kind": "utca",
            "post_code": 0
        },
        {
            "name": "Tulip\u00e1n",
            "kind": "utca",
            "post_code": 0
        },
        {
            "name": "Turista",
            "kind": "\u00fat",
            "post_code": 0
        },
        {
            "name": "\u00datt\u00f6r\u0151",
            "kind": "utca",
            "post_code": 0
        },
        {
            "name": "Vaddiszn\u00f3",
            "kind": "utca",
            "post_code": 0
        },
        {
            "name": "V\u00e9rtes",
            "kind": "utca",
            "post_code": 0
        },
        {
            "name": "Viola",
            "kind": "utca",
            "post_code": 0
        },
        {
            "name": "Vir\u00e1gos",
            "kind": "s\u00e9t\u00e1ny",
            "post_code": 0
        },
        {
            "name": "V\u00f6lgy",
            "kind": "utca",
            "post_code": 0
        },
        {
            "name": "Ybl Mikl\u00f3s",
            "kind": "utca",
            "post_code": 0
        },
        {
            "name": "Z\u25cf (\u00d6rd\u00f6g-\u00e1rok)",
            "kind": "",
            "post_code": 0
        },
        {
            "name": "Zs\u00edroshegyi",
            "kind": "k\u00f6z",
            "post_code": 0
        },
        {
            "name": "Zs\u00edroshegyi",
            "kind": "\u00fat",
            "post_code": 0
        }
    ]
}