{
    "codes": {
        "8800": [
            "Nagykanizsa",
            null
        ],
        "8808": [
            "Nagykanizsa",
            "Palin"
        ],
        "8809": [
            "Nagykanizsa",
            "S\u00e1nc"
        ],
        "8831": [
            "Nagykanizsa",
            "Mikl\u00f3sfa"
        ]
    },
    "streets": [
        {
            "name": "\u00c1d\u00e1m",
            "kind": "\u00fat",
            "post_code": 0
        },
        {
            "name": "Ady Endre",
            "kind": "utca",
            "post_code": 0
        },
        {
            "name": "Ak\u00e1cfa",
            "kind": "utca",
            "post_code": 0
        },
        {
            "name": "Akko",
            "kind": "utca",
            "post_code": 0
        },
        {
            "name": "Alkotm\u00e1ny",
            "kind": "\u00fat",
            "post_code": 0
        },
        {
            "name": "Almafa",
            "kind": "\u00fat",
            "post_code": 0
        },
        {
            "name": "Als\u00f3szabadhegyi",
            "kind": "\u00fat",
            "post_code": 0
        },
        {
            "name": "Als\u00f3szabadhegyi",
            "kind": "utca",
            "post_code": 0
        },
        {
            "name": "Als\u00f3temet\u0151",
            "kind": "utca",
            "post_code": 0
        },
        {
            "name": "Angyalhegyi",
            "kind": "utca",
            "post_code": 0
        },
        {
            "name": "Aradi",
            "kind": "udvar",
            "post_code": 0
        },
        {
            "name": "Arany J\u00e1nos",
            "kind": "utca",
            "post_code": 0
        },
        {
            "name": "\u00c1rp\u00e1d",
            "kind": "utca",
            "post_code": 0
        },
        {
            "name": "\u00c1rv\u00e1cska",
            "kind": "s\u00e9t\u00e1ny",
            "post_code": 0
        },
        {
            "name": "\u00c1szok",
            "kind": "\u00fat",
            "post_code": 0
        },
        {
            "name": "\u00c1tj\u00e1r\u00f3",
            "kind": "",
            "post_code": 0
        },
        {
            "name": "Attila",
            "kind": "utca",
            "post_code": 0
        },
        {
            "name": "Atya",
            "kind": "\u00fat",
            "post_code": 0
        },
        {
            "name": "B\u00e1ba",
            "kind": "utca",
            "post_code": 0
        },
        {
            "name": "Bab\u00f3chay",
            "kind": "utca",
            "post_code": 0
        },
        {
            "name": "Bagolai",
            "kind": "sor",
            "post_code": 0
        },
        {
            "name": "Bagoly",
            "kind": "utca",
            "post_code": 0
        },
        {
            "name": "Bajcsai",
            "kind": "\u00fat",
            "post_code": 0
        },
        {
            "name": "Bajcsy-Zsilinszky",
            "kind": "\u00fat",
            "post_code": 0
        },
        {
            "name": "Bajza",
            "kind": "utca",
            "post_code": 0
        },
        {
            "name": "Bak\u00f3naki",
            "kind": "\u00fat",
            "post_code": 0
        },
        {
            "name": "Balatoni",
            "kind": "utca",
            "post_code": 0
        },
        {
            "name": "Balaton",
            "kind": "utca",
            "post_code": 0
        },
        {
            "name": "Barackfa",
            "kind": "\u00fat",
            "post_code": 0
        },
        {
            "name": "Bar\u00e1tg\u00f6d\u00f6ri",
            "kind": "\u00fat",
            "post_code": 0
        },
        {
            "name": "Bar\u00e1zda",
            "kind": "\u00fat",
            "post_code": 0
        },
        {
            "name": "Barka",
            "kind": "k\u00f6z",
            "post_code": 0
        },
        {
            "name": "Bart\u00f3k B\u00e9la",
            "kind": "utca",
            "post_code": 0
        },
        {
            "name": "Basaki",
            "kind": "\u00fat",
            "post_code": 0
        },
        {
            "name": "B\u00e1thory",
            "kind": "utca",
            "post_code": 0
        },
        {
            "name": "Batthy\u00e1ny Lajos",
            "kind": "utca",
            "post_code": 0
        },
        {
            "name": "Batthy\u00e1ny",
            "kind": "utca",
            "post_code": 0
        },
        {
            "name": "Baz\u00e1r",
            "kind": "udvar",
            "post_code": 0
        },
        {
            "name": "B\u00e9csi",
            "kind": "korz\u00f3",
            "post_code": 0
        },
        {
            "name": "B\u00e9k\u00e1st\u00f3",
            "kind": "utca",
            "post_code": 0
        },
        {
            "name": "Belus J\u00f3zsef",
            "kind": "utca",
            "post_code": 0
        },
        {
            "name": "Bem J\u00f3zsef",
            "kind": "utca",
            "post_code": 0
        },
        {
            "name": "Berek",
            "kind": "k\u00f6z",
            "post_code": 0
        },
        {
            "name": "Berzsenyi D\u00e1niel",
            "kind": "utca",
            "post_code": 0
        },
        {
            "name": "Beseny\u0151",
            "kind": "utca",
            "post_code": 0
        },
        {
            "name": "Bethlen G\u00e1bor",
            "kind": "utca",
            "post_code": 0
        },
        {
            "name": "B\u00edbic",
            "kind": "\u00fat",
            "post_code": 0
        },
        {
            "name": "Bikav\u00e9r",
            "kind": "\u00fat",
            "post_code": 0
        },
        {
            "name": "Bille",
            "kind": "t\u00e9r",
            "post_code": 0
        },
        {
            "name": "Bocskai Istv\u00e1n",
            "kind": "utca",
            "post_code": 0
        },
        {
            "name": "Bolyai J\u00e1nos",
            "kind": "utca",
            "post_code": 0
        },
        {
            "name": "Bork\u0151",
            "kind": "\u00fat",
            "post_code": 0
        },
        {
            "name": "Bornemissza",
            "kind": "utca",
            "post_code": 0
        },
        {
            "name": "Bor\u00f3ka",
            "kind": "utca",
            "post_code": 0
        },
        {
            "name": "Boroskupa",
            "kind": "\u00fat",
            "post_code": 0
        },
        {
            "name": "Borosty\u00e1n",
            "kind": "park",
            "post_code": 0
        },
        {
            "name": "B\u0151sze K\u00e1lm\u00e1n",
            "kind": "k\u00f6z",
            "post_code": 0
        },
        {
            "name": "Boszork\u00e1ny",
            "kind": "utca",
            "post_code": 0
        },
        {
            "name": "Buda Ern\u0151",
            "kind": "utca",
            "post_code": 0
        },
        {
            "name": "Burgundi",
            "kind": "\u00fat",
            "post_code": 0
        },
        {
            "name": "B\u00fazavir\u00e1g",
            "kind": "utca",
            "post_code": 0
        },
        {
            "name": "Cabernet",
            "kind": "\u00fat",
            "post_code": 0
        },
        {
            "name": "Cig\u00e1ny",
            "kind": "utca",
            "post_code": 0
        },
        {
            "name": "Cimbora",
            "kind": "\u00fat",
            "post_code": 0
        },
        {
            "name": "Cinege",
            "kind": "\u00fat",
            "post_code": 0
        },
        {
            "name": "Corvin",
            "kind": "utca",
            "post_code": 0
        },
        {
            "name": "Csabagy\u00f6ngye",
            "kind": "\u00fat",
            "post_code": 0
        },
        {
            "name": "Cs\u00e1k\u00e1ny",
            "kind": "utca",
            "post_code": 0
        },
        {
            "name": "Cs\u00e1ktornya",
            "kind": "utca",
            "post_code": 0
        },
        {
            "name": "Csalog\u00e1ny",
            "kind": "k\u00f6z",
            "post_code": 0
        },
        {
            "name": "Cs\u00e1nyi L\u00e1szl\u00f3",
            "kind": "utca",
            "post_code": 0
        },
        {
            "name": "Cseke Ferenc",
            "kind": "\u00fat",
            "post_code": 0
        },
        {
            "name": "Csengery",
            "kind": "\u00fat",
            "post_code": 0
        },
        {
            "name": "Csengery",
            "kind": "utca",
            "post_code": 0
        },
        {
            "name": "Csereszny\u00e9s",
            "kind": "utca",
            "post_code": 0
        },
        {
            "name": "Cserfa",
            "kind": "utca",
            "post_code": 0
        },
        {
            "name": "Cserszegi",
            "kind": "\u00fat",
            "post_code": 0
        },
        {
            "name": "Csik\u00f3",
            "kind": "utca",
            "post_code": 0
        },
        {
            "name": "Csiky Gergely",
            "kind": "utca",
            "post_code": 0
        },
        {
            "name": "Csokonai",
            "kind": "utca",
            "post_code": 0
        },
        {
            "name": "Cs\u00f3nakh\u00e1z",
            "kind": "s\u00e9t\u00e1ny",
            "post_code": 0
        },
        {
            "name": "Damjanich",
            "kind": "utca",
            "post_code": 0
        },
        {
            "name": "Dank\u00f3",
            "kind": "utca",
            "post_code": 0
        },
        {
            "name": "Darvas",
            "kind": "\u00fat",
            "post_code": 0
        },
        {
            "name": "De\u00e1k Ferenc",
            "kind": "t\u00e9r",
            "post_code": 0
        },
        {
            "name": "De\u00e1k",
            "kind": "t\u00e9r",
            "post_code": 0
        },
        {
            "name": "Di\u00f3fa",
            "kind": "utca",
            "post_code": 0
        },
        {
            "name": "Dob\u00f3",
            "kind": "utca",
            "post_code": 0
        },
        {
            "name": "Domb",
            "kind": "\u00fat",
            "post_code": 0
        },
        {
            "name": "D\u00f3zsa Gy\u00f6rgy",
            "kind": "utca",
            "post_code": 0
        },
        {
            "name": "Dr. Bed\u0151 Albert",
            "kind": "utca",
            "post_code": 0
        },
        {
            "name": "Dr. Szentendrey Edg\u00e1r",
            "kind": "utca",
            "post_code": 0
        },
        {
            "name": "Durg\u00f3 Katalin",
            "kind": "utca",
            "post_code": 0
        },
        {
            "name": "\u00c9denkert",
            "kind": "\u00fat",
            "post_code": 0
        },
        {
            "name": "Egerszegi",
            "kind": "\u00fat",
            "post_code": 0
        },
        {
            "name": "Egres",
            "kind": "\u00fat",
            "post_code": 0
        },
        {
            "name": "Egry J\u00f3zsef",
            "kind": "utca",
            "post_code": 0
        },
        {
            "name": "\u00c9letfa",
            "kind": "\u00fat",
            "post_code": 0
        },
        {
            "name": "E\u00f6tv\u00f6s",
            "kind": "t\u00e9r",
            "post_code": 0
        },
        {
            "name": "Eperfa",
            "kind": "\u00fat",
            "post_code": 0
        },
        {
            "name": "Erdei tornap\u00e1lya",
            "kind": "",
            "post_code": 0
        },
        {
            "name": "Erd\u00e9sz",
            "kind": "utca",
            "post_code": 0
        },
        {
            "name": "Erkel Ferenc",
            "kind": "utca",
            "post_code": 0
        },
        {
            "name": "Erzs\u00e9bet",
            "kind": "t\u00e9r",
            "post_code": 0
        },
        {
            "name": "Eur\u00f3pa tan\u00e1cs",
            "kind": "utca",
            "post_code": 0
        },
        {
            "name": "\u00c9va",
            "kind": "\u00fat",
            "post_code": 0
        },
        {
            "name": "Ezerj\u00f3",
            "kind": "\u00fat",
            "post_code": 0
        },
        {
            "name": "F\u00e1c\u00e1nos",
            "kind": "\u00fat",
            "post_code": 0
        },
        {
            "name": "Fakosi",
            "kind": "\u00fat",
            "post_code": 0
        },
        {
            "name": "Farkas Ferenc",
            "kind": "utca",
            "post_code": 0
        },
        {
            "name": "F\u00e1y Andr\u00e1s",
            "kind": "utca",
            "post_code": 0
        },
        {
            "name": "Fecske",
            "kind": "\u00fat",
            "post_code": 0
        },
        {
            "name": "Fels\u0151erd\u0151",
            "kind": "utca",
            "post_code": 0
        },
        {
            "name": "Fels\u0151temet\u0151",
            "kind": "utca",
            "post_code": 0
        },
        {
            "name": "Feny\u0151",
            "kind": "utca",
            "post_code": 0
        },
        {
            "name": "Fiume",
            "kind": "utca",
            "post_code": 0
        },
        {
            "name": "Foglyos",
            "kind": "\u00fat",
            "post_code": 0
        },
        {
            "name": "F\u00f6rh\u00e9nc",
            "kind": "utca",
            "post_code": 0
        },
        {
            "name": "Forr\u00e1s",
            "kind": "utca",
            "post_code": 0
        },
        {
            "name": "F\u0151",
            "kind": "\u00fat",
            "post_code": 0
        },
        {
            "name": "F\u00fcgefa",
            "kind": "\u00fat",
            "post_code": 0
        },
        {
            "name": "F\u00fclem\u00fcle",
            "kind": "\u00fat",
            "post_code": 0
        },
        {
            "name": "F\u00fclesbagoly",
            "kind": "utca",
            "post_code": 0
        },
        {
            "name": "F\u00fcrjes",
            "kind": "\u00fat",
            "post_code": 0
        },
        {
            "name": "Furmint",
            "kind": "\u00fat",
            "post_code": 0
        },
        {
            "name": "F\u00fcrt",
            "kind": "\u00fat",
            "post_code": 0
        },
        {
            "name": "F\u0171zfa",
            "kind": "utca",
            "post_code": 0
        },
        {
            "name": "G\u00e1bor \u00c1ron",
            "kind": "utca",
            "post_code": 0
        },
        {
            "name": "Garay",
            "kind": "utca",
            "post_code": 0
        },
        {
            "name": "G\u00e1rdonyi G\u00e9za",
            "kind": "utca",
            "post_code": 0
        },
        {
            "name": "Gelence",
            "kind": "utca",
            "post_code": 0
        },
        {
            "name": "G\u00e9m",
            "kind": "\u00fat",
            "post_code": 0
        },
        {
            "name": "Gerle",
            "kind": "\u00fat",
            "post_code": 0
        },
        {
            "name": "Geszteny\u00e9s",
            "kind": "utca",
            "post_code": 0
        },
        {
            "name": "Gleisdorf",
            "kind": "utca",
            "post_code": 0
        },
        {
            "name": "G\u00f3lyah\u00edr",
            "kind": "utca",
            "post_code": 0
        },
        {
            "name": "G\u00f3lya",
            "kind": "\u00fat",
            "post_code": 0
        },
        {
            "name": "G\u00f6rd\u00f6v\u00e9nyi",
            "kind": "utca",
            "post_code": 0
        },
        {
            "name": "Gyulai",
            "kind": "k\u00f6z",
            "post_code": 0
        },
        {
            "name": "Hadi",
            "kind": "utca",
            "post_code": 0
        },
        {
            "name": "Hajgat\u00f3 S\u00e1ndor",
            "kind": "utca",
            "post_code": 0
        },
        {
            "name": "Halad\u00e1s",
            "kind": "utca",
            "post_code": 0
        },
        {
            "name": "Halast\u00f3",
            "kind": "\u00fat",
            "post_code": 0
        },
        {
            "name": "Halis",
            "kind": "utca",
            "post_code": 0
        },
        {
            "name": "Halvax",
            "kind": "utca",
            "post_code": 0
        },
        {
            "name": "Hark\u00e1ly",
            "kind": "\u00fat",
            "post_code": 0
        },
        {
            "name": "Harmat",
            "kind": "utca",
            "post_code": 0
        },
        {
            "name": "H\u00e1rsfa",
            "kind": "utca",
            "post_code": 0
        },
        {
            "name": "Hat\u00e1r\u0151r",
            "kind": "utca",
            "post_code": 0
        },
        {
            "name": "Heged\u0171s P\u00e1l",
            "kind": "utca",
            "post_code": 0
        },
        {
            "name": "Hegyalja",
            "kind": "\u00fat",
            "post_code": 0
        },
        {
            "name": "Hegyb\u00edr\u00f3",
            "kind": "utca",
            "post_code": 0
        },
        {
            "name": "Hegyh\u00e1t",
            "kind": "\u00fat",
            "post_code": 0
        },
        {
            "name": "Herkules",
            "kind": "utca",
            "post_code": 0
        },
        {
            "name": "Herman Ott\u00f3",
            "kind": "utca",
            "post_code": 0
        },
        {
            "name": "Hevesi S\u00e1ndor",
            "kind": "utca",
            "post_code": 0
        },
        {
            "name": "Hidegk\u00fati",
            "kind": "utca",
            "post_code": 0
        },
        {
            "name": "Hold",
            "kind": "utca",
            "post_code": 0
        },
        {
            "name": "Holl\u00f3",
            "kind": "\u00fat",
            "post_code": 0
        },
        {
            "name": "Homokkom\u00e1romi",
            "kind": "utca",
            "post_code": 0
        },
        {
            "name": "Honv\u00e9d",
            "kind": "utca",
            "post_code": 0
        },
        {
            "name": "H\u0151s\u00f6k",
            "kind": "tere",
            "post_code": 0
        },
        {
            "name": "H\u00f3vir\u00e1g",
            "kind": "utca",
            "post_code": 0
        },
        {
            "name": "Hunyadi",
            "kind": "t\u00e9r",
            "post_code": 0
        },
        {
            "name": "Hunyadi",
            "kind": "utca",
            "post_code": 0
        },
        {
            "name": "Huszti Gy\u00f6rgy",
            "kind": "t\u00e9r",
            "post_code": 0
        },
        {
            "name": "Ibolya",
            "kind": "utca",
            "post_code": 0
        },
        {
            "name": "Icc\u00e9s",
            "kind": "\u00fat",
            "post_code": 0
        },
        {
            "name": "Ifj\u00fas\u00e1gi",
            "kind": "park",
            "post_code": 0
        },
        {
            "name": "Ifj\u00fas\u00e1g",
            "kind": "utca",
            "post_code": 0
        },
        {
            "name": "Ilona",
            "kind": "utca",
            "post_code": 0
        },
        {
            "name": "Inkei Boldizs\u00e1r",
            "kind": "utca",
            "post_code": 0
        },
        {
            "name": "Iparos",
            "kind": "utca",
            "post_code": 0
        },
        {
            "name": "Irsai",
            "kind": "\u00fat",
            "post_code": 0
        },
        {
            "name": "Irt\u00e1s",
            "kind": "utca",
            "post_code": 0
        },
        {
            "name": "Iskola",
            "kind": "utca",
            "post_code": 0
        },
        {
            "name": "Izabella",
            "kind": "utca",
            "post_code": 0
        },
        {
            "name": "Jakabkuti",
            "kind": "utca",
            "post_code": 0
        },
        {
            "name": "J\u00e1zmin",
            "kind": "park",
            "post_code": 0
        },
        {
            "name": "J\u00f3kai M\u00f3r",
            "kind": "utca",
            "post_code": 0
        },
        {
            "name": "J\u00f3zsef Attila",
            "kind": "utca",
            "post_code": 0
        },
        {
            "name": "Juharfa",
            "kind": "utca",
            "post_code": 0
        },
        {
            "name": "Juhfark",
            "kind": "\u00fat",
            "post_code": 0
        },
        {
            "name": "Ka\u00e1n K\u00e1roly",
            "kind": "utca",
            "post_code": 0
        },
        {
            "name": "K\u00e1d\u00e1r",
            "kind": "\u00fat",
            "post_code": 0
        },
        {
            "name": "Kakukk",
            "kind": "\u00fat",
            "post_code": 0
        },
        {
            "name": "Kal\u00e1sz",
            "kind": "utca",
            "post_code": 0
        },
        {
            "name": "Kalm\u00e1r",
            "kind": "utca",
            "post_code": 0
        },
        {
            "name": "K\u00e1lvin",
            "kind": "t\u00e9r",
            "post_code": 0
        },
        {
            "name": "Kamara",
            "kind": "utca",
            "post_code": 0
        },
        {
            "name": "Kanizsai",
            "kind": "utca",
            "post_code": 0
        },
        {
            "name": "Kanyar",
            "kind": "utca",
            "post_code": 0
        },
        {
            "name": "K\u00e1poln\u00e1s",
            "kind": "\u00fat",
            "post_code": 0
        },
        {
            "name": "K\u00e1polna",
            "kind": "t\u00e9r",
            "post_code": 0
        },
        {
            "name": "Kaposv\u00e1ri",
            "kind": "\u00fat",
            "post_code": 0
        },
        {
            "name": "Kassai",
            "kind": "utca",
            "post_code": 0
        },
        {
            "name": "Kast\u00e9ly",
            "kind": "k\u00f6z",
            "post_code": 0
        },
        {
            "name": "Katona J\u00f3zsef",
            "kind": "utca",
            "post_code": 0
        },
        {
            "name": "Kazanlak",
            "kind": "k\u00f6r\u00fat",
            "post_code": 0
        },
        {
            "name": "Kazinczy",
            "kind": "utca",
            "post_code": 0
        },
        {
            "name": "K\u00e9kfrankos",
            "kind": "\u00fat",
            "post_code": 0
        },
        {
            "name": "Kemping",
            "kind": "utca",
            "post_code": 0
        },
        {
            "name": "Keny\u00e9rki",
            "kind": "\u00fat",
            "post_code": 0
        },
        {
            "name": "Kerekalja",
            "kind": "\u00fat",
            "post_code": 0
        },
        {
            "name": "Kerekes",
            "kind": "utca",
            "post_code": 0
        },
        {
            "name": "Kerekt\u00f3",
            "kind": "utca",
            "post_code": 0
        },
        {
            "name": "Keresztfai",
            "kind": "\u00fat",
            "post_code": 0
        },
        {
            "name": "Kertekalja",
            "kind": "\u00fat",
            "post_code": 0
        },
        {
            "name": "Kert\u00e9sz",
            "kind": "utca",
            "post_code": 0
        },
        {
            "name": "K\u00e9t\u00e1rok",
            "kind": "utca",
            "post_code": 0
        },
        {
            "name": "Kil\u00e1t\u00f3i",
            "kind": "\u00fat",
            "post_code": 0
        },
        {
            "name": "Kinizsi",
            "kind": "utca",
            "post_code": 0
        },
        {
            "name": "Kir\u00e1ly P\u00e1l",
            "kind": "utca",
            "post_code": 0
        },
        {
            "name": "Kir\u00e1ly",
            "kind": "utca",
            "post_code": 0
        },
        {
            "name": "Kisbagolai",
            "kind": "\u00fat",
            "post_code": 0
        },
        {
            "name": "Kisberki",
            "kind": "utca",
            "post_code": 0
        },
        {
            "name": "Kis \u00c9den",
            "kind": "\u00fat",
            "post_code": 0
        },
        {
            "name": "Kisfaludy S\u00e1ndor",
            "kind": "utca",
            "post_code": 0
        },
        {
            "name": "Kishegyi",
            "kind": "\u00fat",
            "post_code": 0
        },
        {
            "name": "Kiskos\u00e1r",
            "kind": "utca",
            "post_code": 0
        },
        {
            "name": "Kisk\u00f6z",
            "kind": "\u00fat",
            "post_code": 0
        },
        {
            "name": "Kismez\u0151",
            "kind": "utca",
            "post_code": 0
        },
        {
            "name": "Kisr\u00e1c",
            "kind": "utca",
            "post_code": 0
        },
        {
            "name": "Kiss J\u00e1nos",
            "kind": "utca",
            "post_code": 0
        },
        {
            "name": "K\u00f3csag",
            "kind": "\u00fat",
            "post_code": 0
        },
        {
            "name": "Kod\u00e1ly Zolt\u00e1n",
            "kind": "utca",
            "post_code": 0
        },
        {
            "name": "K\u00f6k\u00e9ny",
            "kind": "\u00fat",
            "post_code": 0
        },
        {
            "name": "K\u00f6lcsey",
            "kind": "utca",
            "post_code": 0
        },
        {
            "name": "Kolostor",
            "kind": "utca",
            "post_code": 0
        },
        {
            "name": "Kordon",
            "kind": "\u00fat",
            "post_code": 0
        },
        {
            "name": "K\u00f3rh\u00e1z",
            "kind": "utca",
            "post_code": 0
        },
        {
            "name": "K\u0151risfa",
            "kind": "utca",
            "post_code": 0
        },
        {
            "name": "K\u00f6rm\u00f6s",
            "kind": "utca",
            "post_code": 0
        },
        {
            "name": "K\u00f6rs\u00e1nc",
            "kind": "utca",
            "post_code": 0
        },
        {
            "name": "Kors\u00f3",
            "kind": "\u00fat",
            "post_code": 0
        },
        {
            "name": "K\u00f6rtefa",
            "kind": "\u00fat",
            "post_code": 0
        },
        {
            "name": "Kossuth Lajos",
            "kind": "t\u00e9r",
            "post_code": 0
        },
        {
            "name": "Kossuth Lajos",
            "kind": "utca",
            "post_code": 0
        },
        {
            "name": "Kov\u00e1szna",
            "kind": "utca",
            "post_code": 0
        },
        {
            "name": "K\u00f6vidinka",
            "kind": "\u00fat",
            "post_code": 0
        },
        {
            "name": "Kr\u00fady Gyula",
            "kind": "utca",
            "post_code": 0
        },
        {
            "name": "Kulacs",
            "kind": "\u00fat",
            "post_code": 0
        },
        {
            "name": "Kv\u00f6lgyi",
            "kind": "\u00fat",
            "post_code": 0
        },
        {
            "name": "Laktanya",
            "kind": "utca",
            "post_code": 0
        },
        {
            "name": "L\u00e1mpagy\u00e1r",
            "kind": "utca",
            "post_code": 0
        },
        {
            "name": "Lazsnak",
            "kind": "utca",
            "post_code": 0
        },
        {
            "name": "Le\u00e1nyka",
            "kind": "\u00fat",
            "post_code": 0
        },
        {
            "name": "Le\u00e1nyv\u00e1r",
            "kind": "utca",
            "post_code": 0
        },
        {
            "name": "Lejt\u0151",
            "kind": "\u00fat",
            "post_code": 0
        },
        {
            "name": "L\u00e9kay Gyula",
            "kind": "utca",
            "post_code": 0
        },
        {
            "name": "Levente",
            "kind": "utca",
            "post_code": 0
        },
        {
            "name": "Libolca",
            "kind": "t\u00e9r",
            "post_code": 0
        },
        {
            "name": "Liget",
            "kind": "utca",
            "post_code": 0
        },
        {
            "name": "Liszt Ferenc",
            "kind": "utca",
            "post_code": 0
        },
        {
            "name": "Lovarda",
            "kind": "utca",
            "post_code": 0
        },
        {
            "name": "Lugas",
            "kind": "\u00fat",
            "post_code": 0
        },
        {
            "name": "Mad\u00e1ch Imre",
            "kind": "utca",
            "post_code": 0
        },
        {
            "name": "Mad\u00e1rerd\u0151 tan\u00f6sv\u00e9ny",
            "kind": "",
            "post_code": 0
        },
        {
            "name": "Magvet\u0151",
            "kind": "utca",
            "post_code": 0
        },
        {
            "name": "Magyarkanizsa",
            "kind": "utca",
            "post_code": 0
        },
        {
            "name": "Magyar",
            "kind": "utca",
            "post_code": 0
        },
        {
            "name": "Maj\u00e1lis",
            "kind": "\u00fat",
            "post_code": 0
        },
        {
            "name": "Majorkert",
            "kind": "utca",
            "post_code": 0
        },
        {
            "name": "M\u00e1jus 1.",
            "kind": "utca",
            "post_code": 0
        },
        {
            "name": "M\u00e1ln\u00e1s",
            "kind": "\u00fat",
            "post_code": 0
        },
        {
            "name": "Malomkerti",
            "kind": "utca",
            "post_code": 0
        },
        {
            "name": "Mandul\u00e1s",
            "kind": "\u00fat",
            "post_code": 0
        },
        {
            "name": "M\u00e1nta",
            "kind": "utca",
            "post_code": 0
        },
        {
            "name": "Maort",
            "kind": "utca",
            "post_code": 0
        },
        {
            "name": "M\u00e1rcius 15.",
            "kind": "t\u00e9r",
            "post_code": 0
        },
        {
            "name": "Marek J\u00f3zsef",
            "kind": "utca",
            "post_code": 0
        },
        {
            "name": "M\u00e1ria",
            "kind": "utca",
            "post_code": 0
        },
        {
            "name": "M\u00e1ty\u00e1s kir\u00e1ly",
            "kind": "utca",
            "post_code": 0
        },
        {
            "name": "Medgyaszay Istv\u00e1n",
            "kind": "s\u00e9t\u00e1ny",
            "post_code": 0
        },
        {
            "name": "Meny\u00e9t",
            "kind": "\u00fat",
            "post_code": 0
        },
        {
            "name": "Merlot",
            "kind": "\u00fat",
            "post_code": 0
        },
        {
            "name": "M\u00e9sz\u00e1ros",
            "kind": "utca",
            "post_code": 0
        },
        {
            "name": "Mikl\u00f3sfai",
            "kind": "utca",
            "post_code": 0
        },
        {
            "name": "M\u00f3kus",
            "kind": "\u00fat",
            "post_code": 0
        },
        {
            "name": "M\u00f3richelyi",
            "kind": "\u00fat",
            "post_code": 0
        },
        {
            "name": "Munk\u00e1csy Mih\u00e1ly",
            "kind": "utca",
            "post_code": 0
        },
        {
            "name": "Munk\u00e1s",
            "kind": "utca",
            "post_code": 0
        },
        {
            "name": "Murak\u00f6zi",
            "kind": "utca",
            "post_code": 0
        },
        {
            "name": "Musk\u00e1tli",
            "kind": "utca",
            "post_code": 0
        },
        {
            "name": "M\u00fazeum",
            "kind": "t\u00e9r",
            "post_code": 0
        },
        {
            "name": "Nagy Lajos",
            "kind": "utca",
            "post_code": 0
        },
        {
            "name": "Nagyr\u00e1c",
            "kind": "utca",
            "post_code": 0
        },
        {
            "name": "Nagyr\u00e9szei",
            "kind": "vas\u00fat\u00e1llom\u00e1s",
            "post_code": 0
        },
        {
            "name": "Nagyv\u00e1thy",
            "kind": "utca",
            "post_code": 0
        },
        {
            "name": "Napraforg\u00f3",
            "kind": "t\u00e9r",
            "post_code": 0
        },
        {
            "name": "Napsug\u00e1r",
            "kind": "utca",
            "post_code": 0
        },
        {
            "name": "Nefelejcs",
            "kind": "utca",
            "post_code": 0
        },
        {
            "name": "Ny\u00e1rfa",
            "kind": "utca",
            "post_code": 0
        },
        {
            "name": "Nyest",
            "kind": "\u00fat",
            "post_code": 0
        },
        {
            "name": "Ny\u00edrfa",
            "kind": "utca",
            "post_code": 0
        },
        {
            "name": "Nyitnik\u00e9k",
            "kind": "\u00fat",
            "post_code": 0
        },
        {
            "name": "\u00d3bor",
            "kind": "\u00fat",
            "post_code": 0
        },
        {
            "name": "Olaj",
            "kind": "utca",
            "post_code": 0
        },
        {
            "name": "Oport\u00f3",
            "kind": "\u00fat",
            "post_code": 0
        },
        {
            "name": "\u00d6regf\u00f6rh\u00e9nc",
            "kind": "\u00fat",
            "post_code": 0
        },
        {
            "name": "Orgona",
            "kind": "utca",
            "post_code": 0
        },
        {
            "name": "\u0150rh\u00e1z",
            "kind": "utca",
            "post_code": 0
        },
        {
            "name": "Orsz\u00e1gz\u00e1szl\u00f3",
            "kind": "t\u00e9r",
            "post_code": 0
        },
        {
            "name": "\u0150rtorony",
            "kind": "utca",
            "post_code": 0
        },
        {
            "name": "Othell\u00f3",
            "kind": "\u00fat",
            "post_code": 0
        },
        {
            "name": "\u0150z",
            "kind": "utca",
            "post_code": 0
        },
        {
            "name": "Palini",
            "kind": "utca",
            "post_code": 0
        },
        {
            "name": "P\u00e1link\u00e1s",
            "kind": "\u00fat",
            "post_code": 0
        },
        {
            "name": "P\u00e1pai",
            "kind": "utca",
            "post_code": 0
        },
        {
            "name": "Papp Simon",
            "kind": "s\u00e9t\u00e1ny",
            "post_code": 0
        },
        {
            "name": "Parkerd\u0151",
            "kind": "utca",
            "post_code": 0
        },
        {
            "name": "Park",
            "kind": "utca",
            "post_code": 0
        },
        {
            "name": "P\u00e1sztor",
            "kind": "utca",
            "post_code": 0
        },
        {
            "name": "Patak",
            "kind": "k\u00f6z",
            "post_code": 0
        },
        {
            "name": "P\u00e9terfai",
            "kind": "utca",
            "post_code": 0
        },
        {
            "name": "Pet\u0151fi S\u00e1ndor",
            "kind": "utca",
            "post_code": 0
        },
        {
            "name": "Pinty",
            "kind": "\u00fat",
            "post_code": 0
        },
        {
            "name": "Pipacs",
            "kind": "utca",
            "post_code": 0
        },
        {
            "name": "Pityer",
            "kind": "utca",
            "post_code": 0
        },
        {
            "name": "Piv\u00e1ri",
            "kind": "utca",
            "post_code": 0
        },
        {
            "name": "Plat\u00e1n",
            "kind": "sor",
            "post_code": 0
        },
        {
            "name": "Pontyos",
            "kind": "\u00fat",
            "post_code": 0
        },
        {
            "name": "Postakert",
            "kind": "utca",
            "post_code": 0
        },
        {
            "name": "Potyli",
            "kind": "utca",
            "post_code": 0
        },
        {
            "name": "Pr\u00e9sh\u00e1z",
            "kind": "\u00fat",
            "post_code": 0
        },
        {
            "name": "Puchheim",
            "kind": "utca",
            "post_code": 0
        },
        {
            "name": "Puttonyos",
            "kind": "\u00fat",
            "post_code": 0
        },
        {
            "name": "R\u00e1ckert",
            "kind": "utca",
            "post_code": 0
        },
        {
            "name": "R\u00e1k\u00f3czi Ferenc",
            "kind": "utca",
            "post_code": 0
        },
        {
            "name": "Rakt\u00e1rh\u00e1z",
            "kind": "\u00fat",
            "post_code": 0
        },
        {
            "name": "R\u00e9csei",
            "kind": "utca",
            "post_code": 0
        },
        {
            "name": "R\u00e9pa",
            "kind": "utca",
            "post_code": 0
        },
        {
            "name": "Ribizke",
            "kind": "\u00fat",
            "post_code": 0
        },
        {
            "name": "Rig\u00f3",
            "kind": "\u00fat",
            "post_code": 0
        },
        {
            "name": "Rizling",
            "kind": "\u00fat",
            "post_code": 0
        },
        {
            "name": "Romlottv\u00e1ri",
            "kind": "\u00fat",
            "post_code": 0
        },
        {
            "name": "Roz\u00e9",
            "kind": "\u00fat",
            "post_code": 0
        },
        {
            "name": "Rozgonyi",
            "kind": "utca",
            "post_code": 0
        },
        {
            "name": "Rozmaring",
            "kind": "utca",
            "post_code": 0
        },
        {
            "name": "R\u00f3zsa",
            "kind": "utca",
            "post_code": 0
        },
        {
            "name": "Sabj\u00e1n Gyula",
            "kind": "utca",
            "post_code": 0
        },
        {
            "name": "Salo",
            "kind": "utca",
            "post_code": 0
        },
        {
            "name": "S\u00e1nci",
            "kind": "utca",
            "post_code": 0
        },
        {
            "name": "Sandi",
            "kind": "utca",
            "post_code": 0
        },
        {
            "name": "Sarl\u00f3",
            "kind": "\u00fat",
            "post_code": 0
        },
        {
            "name": "S\u00e1ska",
            "kind": "t\u00e9r",
            "post_code": 0
        },
        {
            "name": "Semmelweis",
            "kind": "utca",
            "post_code": 0
        },
        {
            "name": "Sereg\u00e9lyes",
            "kind": "\u00fat",
            "post_code": 0
        },
        {
            "name": "S\u00e9takert",
            "kind": "",
            "post_code": 0
        },
        {
            "name": "Sik\u00e1tor",
            "kind": "utca",
            "post_code": 0
        },
        {
            "name": "S\u00f3lyom",
            "kind": "\u00fat",
            "post_code": 0
        },
        {
            "name": "S\u00f6rgy\u00e1r",
            "kind": "utca",
            "post_code": 0
        },
        {
            "name": "S\u00f3",
            "kind": "utca",
            "post_code": 0
        },
        {
            "name": "Sug\u00e1r",
            "kind": "\u00fat",
            "post_code": 0
        },
        {
            "name": "S\u00fcn",
            "kind": "\u00fat",
            "post_code": 0
        },
        {
            "name": "Szabadhegy",
            "kind": "utca",
            "post_code": 0
        },
        {
            "name": "Sz\u00e1lfa",
            "kind": "utca",
            "post_code": 0
        },
        {
            "name": "Szalonka",
            "kind": "\u00fat",
            "post_code": 0
        },
        {
            "name": "Szam\u00f3c\u00e1s",
            "kind": "\u00fat",
            "post_code": 0
        },
        {
            "name": "Szamorodni",
            "kind": "\u00fat",
            "post_code": 0
        },
        {
            "name": "Szapl\u00e1nyos",
            "kind": "\u00fat",
            "post_code": 0
        },
        {
            "name": "Szarka",
            "kind": "\u00fat",
            "post_code": 0
        },
        {
            "name": "Szarvas",
            "kind": "utca",
            "post_code": 0
        },
        {
            "name": "Sz\u00e9chenyi",
            "kind": "t\u00e9r",
            "post_code": 0
        },
        {
            "name": "Szedres",
            "kind": "\u00fat",
            "post_code": 0
        },
        {
            "name": "Szeghalmi B\u00e1lint",
            "kind": "utca",
            "post_code": 0
        },
        {
            "name": "Szekeres J\u00f3zsef",
            "kind": "utca",
            "post_code": 0
        },
        {
            "name": "Szek\u00e9r",
            "kind": "\u00fat",
            "post_code": 0
        },
        {
            "name": "Szemere",
            "kind": "utca",
            "post_code": 0
        },
        {
            "name": "Szent Bertalan",
            "kind": "\u00fat",
            "post_code": 0
        },
        {
            "name": "Szent Don\u00e1t",
            "kind": "\u00fat",
            "post_code": 0
        },
        {
            "name": "Szent Fl\u00f3ri\u00e1n",
            "kind": "t\u00e9r",
            "post_code": 0
        },
        {
            "name": "Szent Gy\u00f6rgy",
            "kind": "\u00fat",
            "post_code": 0
        },
        {
            "name": "Szentgy\u00f6rgyv\u00e1ri",
            "kind": "utca",
            "post_code": 0
        },
        {
            "name": "Szent Imre",
            "kind": "utca",
            "post_code": 0
        },
        {
            "name": "Szent J\u00f3zsef",
            "kind": "t\u00e9r",
            "post_code": 0
        },
        {
            "name": "Szentp\u00e9teri",
            "kind": "\u00fat",
            "post_code": 0
        },
        {
            "name": "Szent R\u00f3kus",
            "kind": "utca",
            "post_code": 0
        },
        {
            "name": "Szepetneki",
            "kind": "\u00fat",
            "post_code": 0
        },
        {
            "name": "Szerv\u00edz",
            "kind": "\u00fat",
            "post_code": 0
        },
        {
            "name": "Szigeti",
            "kind": "utca",
            "post_code": 0
        },
        {
            "name": "Szilvafa",
            "kind": "\u00fat",
            "post_code": 0
        },
        {
            "name": "Sz\u00ednh\u00e1z",
            "kind": "utca",
            "post_code": 0
        },
        {
            "name": "Szokol",
            "kind": "utca",
            "post_code": 0
        },
        {
            "name": "Sz\u0151l\u0151sgazda",
            "kind": "\u00fat",
            "post_code": 0
        },
        {
            "name": "Sz\u0151l\u0151skert",
            "kind": "utca",
            "post_code": 0
        },
        {
            "name": "Sz\u00fcret",
            "kind": "\u00fat",
            "post_code": 0
        },
        {
            "name": "Sz\u00fcrkebar\u00e1t",
            "kind": "\u00fat",
            "post_code": 0
        },
        {
            "name": "T\u00e1borhely",
            "kind": "utca",
            "post_code": 0
        },
        {
            "name": "Takar\u00e9k",
            "kind": "utca",
            "post_code": 0
        },
        {
            "name": "Taliga",
            "kind": "\u00fat",
            "post_code": 0
        },
        {
            "name": "Tandor Ott\u00f3",
            "kind": "s\u00e9t\u00e1ny",
            "post_code": 0
        },
        {
            "name": "T\u00e1rh\u00e1z",
            "kind": "utca",
            "post_code": 0
        },
        {
            "name": "Tavasz",
            "kind": "utca",
            "post_code": 0
        },
        {
            "name": "T\u00e9glagy\u00e1ri",
            "kind": "utca",
            "post_code": 0
        },
        {
            "name": "Teleki Blanka",
            "kind": "utca",
            "post_code": 0
        },
        {
            "name": "Teleki",
            "kind": "utca",
            "post_code": 0
        },
        {
            "name": "Templom",
            "kind": "t\u00e9r",
            "post_code": 0
        },
        {
            "name": "Ters\u00e1nszky",
            "kind": "utca",
            "post_code": 0
        },
        {
            "name": "Thury Gy\u00f6rgy",
            "kind": "t\u00e9r",
            "post_code": 0
        },
        {
            "name": "Th\u00fary Gy\u00f6rgy",
            "kind": "utca",
            "post_code": 0
        },
        {
            "name": "Toldi Mikl\u00f3s",
            "kind": "utca",
            "post_code": 0
        },
        {
            "name": "T\u00f6lgyfa",
            "kind": "t\u00e9r",
            "post_code": 0
        },
        {
            "name": "T\u00f6rk\u00f6ly",
            "kind": "\u00fat",
            "post_code": 0
        },
        {
            "name": "Tornyos K\u00f6z",
            "kind": "utca",
            "post_code": 0
        },
        {
            "name": "T\u00f6r\u00f6kv\u00e1ri",
            "kind": "utca",
            "post_code": 0
        },
        {
            "name": "T\u0151zike",
            "kind": "utca",
            "post_code": 0
        },
        {
            "name": "Tramini",
            "kind": "\u00fat",
            "post_code": 0
        },
        {
            "name": "Tripammer Gyula",
            "kind": "utca",
            "post_code": 0
        },
        {
            "name": "T\u00fcsk\u00e9s",
            "kind": "utca",
            "post_code": 0
        },
        {
            "name": "Udvarh\u00e1z",
            "kind": "utca",
            "post_code": 0
        },
        {
            "name": "\u00daj \u00e9let",
            "kind": "utca",
            "post_code": 0
        },
        {
            "name": "\u00dajf\u00f6rh\u00e9nc",
            "kind": "\u00fat",
            "post_code": 0
        },
        {
            "name": "\u00dcll\u0151",
            "kind": "utca",
            "post_code": 0
        },
        {
            "name": "\u0170rhaj\u00f3s",
            "kind": "utca",
            "post_code": 0
        },
        {
            "name": "\u00dcveggy\u00e1r",
            "kind": "utca",
            "post_code": 0
        },
        {
            "name": "Vadalm\u00e1s",
            "kind": "utca",
            "post_code": 0
        },
        {
            "name": "Vadas Ern\u0151",
            "kind": "utca",
            "post_code": 0
        },
        {
            "name": "Vadr\u00f3zsa",
            "kind": "utca",
            "post_code": 0
        },
        {
            "name": "V\u00e1g\u00f3h\u00eddi",
            "kind": "\u00fat",
            "post_code": 0
        },
        {
            "name": "V\u00e1mh\u00e1z",
            "kind": "utca",
            "post_code": 0
        },
        {
            "name": "Varasdi",
            "kind": "utca",
            "post_code": 0
        },
        {
            "name": "Varjas",
            "kind": "\u00fat",
            "post_code": 0
        },
        {
            "name": "V\u00e1roskapu",
            "kind": "k\u00f6r\u00fat",
            "post_code": 0
        },
        {
            "name": "V\u00e1r",
            "kind": "\u00fat",
            "post_code": 0
        },
        {
            "name": "V\u00e1r",
            "kind": "utca",
            "post_code": 0
        },
        {
            "name": "V\u00e1s\u00e1r",
            "kind": "utca",
            "post_code": 0
        },
        {
            "name": "Vasp\u00e1lya",
            "kind": "sor",
            "post_code": 0
        },
        {
            "name": "Vas\u00fat",
            "kind": "utca",
            "post_code": 0
        },
        {
            "name": "Vasvilla",
            "kind": "\u00fat",
            "post_code": 0
        },
        {
            "name": "V\u00e9csey",
            "kind": "utca",
            "post_code": 0
        },
        {
            "name": "Veltelini",
            "kind": "\u00fat",
            "post_code": 0
        },
        {
            "name": "Venyige",
            "kind": "\u00fat",
            "post_code": 0
        },
        {
            "name": "Ver\u00e9b",
            "kind": "\u00fat",
            "post_code": 0
        },
        {
            "name": "Veres P\u00e9ter",
            "kind": "utca",
            "post_code": 0
        },
        {
            "name": "Vessz\u0151",
            "kind": "\u00fat",
            "post_code": 0
        },
        {
            "name": "Vidos J\u00f3zsef",
            "kind": "t\u00e9r",
            "post_code": 0
        },
        {
            "name": "Vincell\u00e9r",
            "kind": "\u00fat",
            "post_code": 0
        },
        {
            "name": "Vir\u00e1g Benedek",
            "kind": "utca",
            "post_code": 0
        },
        {
            "name": "Vir\u00e1ghegyi",
            "kind": "\u00fat",
            "post_code": 0
        },
        {
            "name": "V\u00f6lgy",
            "kind": "\u00fat",
            "post_code": 0
        },
        {
            "name": "V\u00f6r\u00f6sbegy",
            "kind": "\u00fat",
            "post_code": 0
        },
        {
            "name": "V\u00f6r\u00f6shegyi",
            "kind": "utca",
            "post_code": 0
        },
        {
            "name": "V\u00f6r\u00f6smarty",
            "kind": "utca",
            "post_code": 0
        },
        {
            "name": "Wassics",
            "kind": "utca",
            "post_code": 0
        },
        {
            "name": "Zala Gy\u00f6rgy",
            "kind": "utca",
            "post_code": 0
        },
        {
            "name": "Z\u00e1rda",
            "kind": "utca",
            "post_code": 0
        },
        {
            "name": "Zempl\u00e9n Gy\u0151z\u0151",
            "kind": "utca",
            "post_code": 0
        },
        {
            "name": "Zeng\u0151",
            "kind": "\u00fat",
            "post_code": 0
        },
        {
            "name": "Z\u00f6ldszilv\u00e1ni",
            "kind": "\u00fat",
            "post_code": 0
        },
        {
            "name": "Zr\u00ednyi Mikl\u00f3s",
            "kind": "utca",
            "post_code": 0
        },
        {
            "name": "Zsig\u00e1rdi",
            "kind": "k\u00f6z",
            "post_code": 0
        }
    ]
}