{
    "codes": {
        "2524": [
            "Nagys\u00e1p",
            null
        ]
    },
    "streets": [
        {
            "name": "Ady Endre",
            "kind": "utca",
            "post_code": 0
        },
        {
            "name": "\u00c1rp\u00e1d",
            "kind": "\u00fat",
            "post_code": 0
        },
        {
            "name": "Bajcsy-Zsilinszky Endre",
            "kind": "utca",
            "post_code": 0
        },
        {
            "name": "Damjanich J\u00e1nos",
            "kind": "utca",
            "post_code": 0
        },
        {
            "name": "D\u00f3zsa Gy\u00f6rgy",
            "kind": "utca",
            "post_code": 0
        },
        {
            "name": "D\u00f3zsa",
            "kind": "k\u00f6z",
            "post_code": 0
        },
        {
            "name": "J\u00f3kai M\u00f3r",
            "kind": "utca",
            "post_code": 0
        },
        {
            "name": "J\u00f3zsef Attila",
            "kind": "utca",
            "post_code": 0
        },
        {
            "name": "Kossuth Lajos",
            "kind": "utca",
            "post_code": 0
        },
        {
            "name": "Pet\u0151fi S\u00e1ndor",
            "kind": "utca",
            "post_code": 0
        },
        {
            "name": "S\u00e1p\u00edt\u00f3hegyi",
            "kind": "utca",
            "post_code": 0
        },
        {
            "name": "Sz\u00e9chenyi Istv\u00e1n",
            "kind": "utca",
            "post_code": 0
        },
        {
            "name": "Szilv\u00e1sv\u00f6gyi",
            "kind": "\u00fat",
            "post_code": 0
        },
        {
            "name": "T\u00e1ncsics Mih\u00e1ly",
            "kind": "utca",
            "post_code": 0
        },
        {
            "name": "Temet\u0151",
            "kind": "utca",
            "post_code": 0
        },
        {
            "name": "T\u00f3th J\u00e1nos",
            "kind": "utca",
            "post_code": 0
        }
    ]
}