{
    "codes": {
        "8912": [
            "Nagyp\u00e1li",
            null
        ]
    },
    "streets": [
        {
            "name": "Ady Endre",
            "kind": "utca",
            "post_code": 0
        },
        {
            "name": "Arany J\u00e1nos",
            "kind": "utca",
            "post_code": 0
        },
        {
            "name": "Berzsenyi D\u00e1niel",
            "kind": "utca",
            "post_code": 0
        },
        {
            "name": "Gy\u00f6ngyvir\u00e1g",
            "kind": "utca",
            "post_code": 0
        },
        {
            "name": "Honfoglal\u00e1s",
            "kind": "\u00fatja",
            "post_code": 0
        },
        {
            "name": "J\u00f3kai M\u00f3r",
            "kind": "utca",
            "post_code": 0
        },
        {
            "name": "Kisfaludy Str\u00f3bl Zsigmond",
            "kind": "utca",
            "post_code": 0
        },
        {
            "name": "K\u00f6lcsey Ferenc",
            "kind": "utca",
            "post_code": 0
        },
        {
            "name": "M\u00e1ty\u00e1s kir\u00e1ly",
            "kind": "utca",
            "post_code": 0
        },
        {
            "name": "Millenniumi",
            "kind": "k\u00f6r\u00fat",
            "post_code": 0
        },
        {
            "name": "Pet\u0151fi S\u00e1ndor",
            "kind": "utca",
            "post_code": 0
        },
        {
            "name": "R\u00e1k\u00f3czi Ferenc",
            "kind": "utca",
            "post_code": 0
        },
        {
            "name": "V\u00f6r\u00f6smarty Mih\u00e1ly",
            "kind": "utca",
            "post_code": 0
        }
    ]
}