{
    "codes": {
        "2626": [
            "Nagymaros",
            null
        ]
    },
    "streets": [
        {
            "name": "Ak\u00e1cos",
            "kind": "utca",
            "post_code": 0
        },
        {
            "name": "Arany J\u00e1nos",
            "kind": "utca",
            "post_code": 0
        },
        {
            "name": "Aranyos",
            "kind": "utca",
            "post_code": 0
        },
        {
            "name": "\u00c1rokpart",
            "kind": "utca",
            "post_code": 0
        },
        {
            "name": "\u00c1rp\u00e1d",
            "kind": "utca",
            "post_code": 0
        },
        {
            "name": "Babits Mih\u00e1ly",
            "kind": "utca",
            "post_code": 0
        },
        {
            "name": "Beatrix kir\u00e1lny\u0151 ker\u00e9kp\u00e1r\u00fat \/ EURO-VELO 6",
            "kind": "",
            "post_code": 0
        },
        {
            "name": "Beatrix kir\u00e1lyn\u0151 ker\u00e9kp\u00e1r\u00fat \/ EuroVelo 6",
            "kind": "",
            "post_code": 0
        },
        {
            "name": "B\u00e9la kir\u00e1ly",
            "kind": "s\u00e9t\u00e1ny",
            "post_code": 0
        },
        {
            "name": "Bodza",
            "kind": "utca",
            "post_code": 0
        },
        {
            "name": "Bogy\u00f3",
            "kind": "utca",
            "post_code": 0
        },
        {
            "name": "Bokr\u00e9ta",
            "kind": "utca",
            "post_code": 0
        },
        {
            "name": "Csillag",
            "kind": "utca",
            "post_code": 0
        },
        {
            "name": "Csokonai Vit\u00e9z Mih\u00e1ly",
            "kind": "utca",
            "post_code": 0
        },
        {
            "name": "D\u00e1lia",
            "kind": "k\u00f6z",
            "post_code": 0
        },
        {
            "name": "De\u00e1k Ferenc",
            "kind": "utca",
            "post_code": 0
        },
        {
            "name": "D\u00e9zsma",
            "kind": "utca",
            "post_code": 0
        },
        {
            "name": "Di\u00f3fa",
            "kind": "utca",
            "post_code": 0
        },
        {
            "name": "D\u00f3zsa Gy\u00f6rgy",
            "kind": "utca",
            "post_code": 0
        },
        {
            "name": "Duna",
            "kind": "utca",
            "post_code": 0
        },
        {
            "name": "Els\u0151v\u00f6lgy",
            "kind": "utca",
            "post_code": 0
        },
        {
            "name": "Erd\u0151sz\u00e9l",
            "kind": "utca",
            "post_code": 0
        },
        {
            "name": "Es\u0151s id\u0151ben nehezen j\u00e1rhat\u00f3!",
            "kind": "",
            "post_code": 0
        },
        {
            "name": "EuroVelo 6 ker\u00e9kp\u00e1r\u00fat",
            "kind": "",
            "post_code": 0
        },
        {
            "name": "Feh\u00e9rhegy",
            "kind": "utca",
            "post_code": 0
        },
        {
            "name": "Fels\u0151",
            "kind": "erd\u0151sor",
            "post_code": 0
        },
        {
            "name": "Fels\u0151mez\u0151",
            "kind": "utca",
            "post_code": 0
        },
        {
            "name": "F\u0151",
            "kind": "t\u00e9r",
            "post_code": 0
        },
        {
            "name": "Gesztenye",
            "kind": "sor",
            "post_code": 0
        },
        {
            "name": "Gyalogh\u00edd",
            "kind": "",
            "post_code": 0
        },
        {
            "name": "Gy\u00e1r",
            "kind": "utca",
            "post_code": 0
        },
        {
            "name": "Hal\u00e1sz",
            "kind": "utca",
            "post_code": 0
        },
        {
            "name": "H\u00e1rsfa",
            "kind": "utca",
            "post_code": 0
        },
        {
            "name": "Hatl\u00f3patak",
            "kind": "utca",
            "post_code": 0
        },
        {
            "name": "Hegyalja",
            "kind": "utca",
            "post_code": 0
        },
        {
            "name": "Hegyestet\u0151i",
            "kind": "\u00fat",
            "post_code": 0
        },
        {
            "name": "Hegy",
            "kind": "utca",
            "post_code": 0
        },
        {
            "name": "Hell Ferenc",
            "kind": "utca",
            "post_code": 0
        },
        {
            "name": "Hold",
            "kind": "utca",
            "post_code": 0
        },
        {
            "name": "Ipolys\u00e1gi",
            "kind": "utca",
            "post_code": 0
        },
        {
            "name": "Istv\u00e1n",
            "kind": "t\u00e9r",
            "post_code": 0
        },
        {
            "name": "J\u00f3kai M\u00f3r",
            "kind": "utca",
            "post_code": 0
        },
        {
            "name": "Kaci",
            "kind": "utca",
            "post_code": 0
        },
        {
            "name": "K\u00e1lv\u00e1ria",
            "kind": "utca",
            "post_code": 0
        },
        {
            "name": "Kamilla",
            "kind": "utca",
            "post_code": 0
        },
        {
            "name": "Kant\u00e1r",
            "kind": "utca",
            "post_code": 0
        },
        {
            "name": "Kass\u00e1k Lajos",
            "kind": "utca",
            "post_code": 0
        },
        {
            "name": "Kir\u00e1lyk\u00fat",
            "kind": "utca",
            "post_code": 0
        },
        {
            "name": "Kir\u00e1ly",
            "kind": "utca",
            "post_code": 0
        },
        {
            "name": "Kis\u00fajhegy",
            "kind": "utca",
            "post_code": 0
        },
        {
            "name": "Kittenberger K\u00e1lm\u00e1n",
            "kind": "utca",
            "post_code": 0
        },
        {
            "name": "Kittenberger",
            "kind": "\u00fat",
            "post_code": 0
        },
        {
            "name": "Kom\u00e1romi",
            "kind": "utca",
            "post_code": 0
        },
        {
            "name": "K\u00f3spallagi",
            "kind": "\u00fat",
            "post_code": 0
        },
        {
            "name": "Kossuth",
            "kind": "sor",
            "post_code": 0
        },
        {
            "name": "K\u00f6vesmez\u0151i",
            "kind": "\u00fat",
            "post_code": 0
        },
        {
            "name": "k\u00f6zm\u0171alag\u00fat a Duna alatt",
            "kind": "",
            "post_code": 0
        },
        {
            "name": "Lejt\u0151",
            "kind": "utca",
            "post_code": 0
        },
        {
            "name": "Liheg\u0151",
            "kind": "utca",
            "post_code": 0
        },
        {
            "name": "Magyar",
            "kind": "utca",
            "post_code": 0
        },
        {
            "name": "Mainzi",
            "kind": "utca",
            "post_code": 0
        },
        {
            "name": "M\u00e1k",
            "kind": "utca",
            "post_code": 0
        },
        {
            "name": "M\u00e1lna",
            "kind": "utca",
            "post_code": 0
        },
        {
            "name": "Mez\u0151",
            "kind": "utca",
            "post_code": 0
        },
        {
            "name": "Mih\u00e1ly",
            "kind": "utca",
            "post_code": 0
        },
        {
            "name": "Moln\u00e1r",
            "kind": "utca",
            "post_code": 0
        },
        {
            "name": "Nagymarosi K\u00e1lv\u00e1ria",
            "kind": "",
            "post_code": 0
        },
        {
            "name": "Naphegy",
            "kind": "",
            "post_code": 0
        },
        {
            "name": "Naphegy",
            "kind": "utca",
            "post_code": 0
        },
        {
            "name": "Napsug\u00e1r",
            "kind": "utca",
            "post_code": 0
        },
        {
            "name": "Nap",
            "kind": "utca",
            "post_code": 0
        },
        {
            "name": "Nefelejcs",
            "kind": "k\u00f6z",
            "post_code": 0
        },
        {
            "name": "N\u00e9met",
            "kind": "utca",
            "post_code": 0
        },
        {
            "name": "Nimr\u00f3d",
            "kind": "utca",
            "post_code": 0
        },
        {
            "name": "Ny\u00e1r",
            "kind": "utca",
            "post_code": 0
        },
        {
            "name": "Nyereg",
            "kind": "utca",
            "post_code": 0
        },
        {
            "name": "\u0150szap\u00f3",
            "kind": "utca",
            "post_code": 0
        },
        {
            "name": "\u0150zgida",
            "kind": "k\u00f6z",
            "post_code": 0
        },
        {
            "name": "\u0150z",
            "kind": "utca",
            "post_code": 0
        },
        {
            "name": "Pacsirta",
            "kind": "utca",
            "post_code": 0
        },
        {
            "name": "P\u00e1llya Celesztin",
            "kind": "utca",
            "post_code": 0
        },
        {
            "name": "Pata",
            "kind": "sor",
            "post_code": 0
        },
        {
            "name": "Pince",
            "kind": "utca",
            "post_code": 0
        },
        {
            "name": "Pipacs",
            "kind": "k\u00f6z",
            "post_code": 0
        },
        {
            "name": "Radn\u00f3ti Mikl\u00f3s",
            "kind": "utca",
            "post_code": 0
        },
        {
            "name": "R\u00e1k\u00f3czi Ferenc",
            "kind": "\u00fat",
            "post_code": 0
        },
        {
            "name": "R\u00e1k\u00f3czi",
            "kind": "\u00fat",
            "post_code": 0
        },
        {
            "name": "R\u00e1k\u00f3czi",
            "kind": "utca",
            "post_code": 0
        },
        {
            "name": "r\u00e1mpa a Dun\u00e1ba",
            "kind": "",
            "post_code": 0
        },
        {
            "name": "Rig\u00f3hegy",
            "kind": "utca",
            "post_code": 0
        },
        {
            "name": "R\u00f3zsa",
            "kind": "utca",
            "post_code": 0
        },
        {
            "name": "Sas",
            "kind": "utca",
            "post_code": 0
        },
        {
            "name": "Selmecb\u00e1nya",
            "kind": "utca",
            "post_code": 0
        },
        {
            "name": "S\u00f3hegy",
            "kind": "utca",
            "post_code": 0
        },
        {
            "name": "Sz\u00e1lloda",
            "kind": "\u00fat",
            "post_code": 0
        },
        {
            "name": "Szamaras",
            "kind": "utca",
            "post_code": 0
        },
        {
            "name": "Szarvas",
            "kind": "k\u00f6z",
            "post_code": 0
        },
        {
            "name": "Sz\u00e9chenyi",
            "kind": "utca",
            "post_code": 0
        },
        {
            "name": "Szegf\u0171",
            "kind": "utca",
            "post_code": 0
        },
        {
            "name": "Szek\u00e9r",
            "kind": "utca",
            "post_code": 0
        },
        {
            "name": "Szent Imre herceg",
            "kind": "t\u00e9r",
            "post_code": 0
        },
        {
            "name": "Szent Mih\u00e1ly",
            "kind": "utca",
            "post_code": 0
        },
        {
            "name": "Sz\u00edv",
            "kind": "utca",
            "post_code": 0
        },
        {
            "name": "Tam\u00e1si \u00c1ron",
            "kind": "utca",
            "post_code": 0
        },
        {
            "name": "Tavasz",
            "kind": "utca",
            "post_code": 0
        },
        {
            "name": "T\u00e9gla",
            "kind": "utca",
            "post_code": 0
        },
        {
            "name": "T\u00f6r\u00f6kmez\u0151i",
            "kind": "\u00fat",
            "post_code": 0
        },
        {
            "name": "\u00daj",
            "kind": "utca",
            "post_code": 0
        },
        {
            "name": "V\u00e1ci",
            "kind": "\u00fat",
            "post_code": 0
        },
        {
            "name": "Vadr\u00f3zsa",
            "kind": "utca",
            "post_code": 0
        },
        {
            "name": "Vas\u00fat",
            "kind": "utca",
            "post_code": 0
        },
        {
            "name": "Villasor",
            "kind": "utca",
            "post_code": 0
        },
        {
            "name": "Viola",
            "kind": "utca",
            "post_code": 0
        },
        {
            "name": "Visegr\u00e1di",
            "kind": "utca",
            "post_code": 0
        },
        {
            "name": "v\u00edz\u00e1teresz",
            "kind": "alag\u00fat",
            "post_code": 0
        },
        {
            "name": "V\u00f6lgy",
            "kind": "utca",
            "post_code": 0
        },
        {
            "name": "Z\u00f6ldfa",
            "kind": "utca",
            "post_code": 0
        },
        {
            "name": "Zolt\u00e1n",
            "kind": "utca",
            "post_code": 0
        }
    ]
}