{
    "streets": [
        {
            "name": "Ady Endre",
            "kind": "utca",
            "post_code": 0
        },
        {
            "name": "Ak\u00e1cfa",
            "kind": "utca",
            "post_code": 0
        },
        {
            "name": "Aradi",
            "kind": "utca",
            "post_code": 0
        },
        {
            "name": "Arany J\u00e1nos",
            "kind": "utca",
            "post_code": 0
        },
        {
            "name": "\u00c1rp\u00e1d",
            "kind": "utca",
            "post_code": 0
        },
        {
            "name": "Babits Mih\u00e1ly",
            "kind": "utca",
            "post_code": 0
        },
        {
            "name": "Balassa B\u00e1lint",
            "kind": "utca",
            "post_code": 0
        },
        {
            "name": "Bart\u00f3k B\u00e9la",
            "kind": "utca",
            "post_code": 0
        },
        {
            "name": "B\u00e9ke",
            "kind": "t\u00e9r",
            "post_code": 0
        },
        {
            "name": "Beloiannisz",
            "kind": "utca",
            "post_code": 0
        },
        {
            "name": "Bercs\u00e9nyi Mikl\u00f3s",
            "kind": "utca",
            "post_code": 0
        },
        {
            "name": "Botty\u00e1n J\u00e1nos",
            "kind": "utca",
            "post_code": 0
        },
        {
            "name": "B\u00faz\u00e1s-hegy",
            "kind": "utca",
            "post_code": 0
        },
        {
            "name": "Cserfa",
            "kind": "utca",
            "post_code": 0
        },
        {
            "name": "Csokonai Vit\u00e9z Mih\u00e1ly",
            "kind": "utca",
            "post_code": 0
        },
        {
            "name": "Cs\u0151",
            "kind": "utca",
            "post_code": 0
        },
        {
            "name": "Dalos",
            "kind": "utca",
            "post_code": 0
        },
        {
            "name": "Damjanich J\u00e1nos",
            "kind": "utca",
            "post_code": 0
        },
        {
            "name": "Di\u00f3fa",
            "kind": "utca",
            "post_code": 0
        },
        {
            "name": "D\u00f3zsa Gy\u00f6rgy",
            "kind": "utca",
            "post_code": 0
        },
        {
            "name": "Duna",
            "kind": "utca",
            "post_code": 0
        },
        {
            "name": "Erkel Ferenc",
            "kind": "utca",
            "post_code": 0
        },
        {
            "name": "Esze Tam\u00e1s",
            "kind": "utca",
            "post_code": 0
        },
        {
            "name": "Frankel Le\u00f3",
            "kind": "utca",
            "post_code": 0
        },
        {
            "name": "F\u00fcst Mil\u00e1n",
            "kind": "utca",
            "post_code": 0
        },
        {
            "name": "Harmat",
            "kind": "utca",
            "post_code": 0
        },
        {
            "name": "Honv\u00e9d",
            "kind": "utca",
            "post_code": 0
        },
        {
            "name": "Hossz\u00fa",
            "kind": "d\u0171l\u0151",
            "post_code": 0
        },
        {
            "name": "Hull\u00e1m",
            "kind": "utca",
            "post_code": 0
        },
        {
            "name": "Idom",
            "kind": "utca",
            "post_code": 0
        },
        {
            "name": "\u00cdj\u00e1sz",
            "kind": "utca",
            "post_code": 0
        },
        {
            "name": "Illy\u00e9s Gyula",
            "kind": "utca",
            "post_code": 0
        },
        {
            "name": "Ipari",
            "kind": "park",
            "post_code": 0
        },
        {
            "name": "Irinyi J\u00e1nos",
            "kind": "utca",
            "post_code": 0
        },
        {
            "name": "J\u00f3kai M\u00f3r",
            "kind": "utca",
            "post_code": 0
        },
        {
            "name": "J\u00f3zsef Attila",
            "kind": "utca",
            "post_code": 0
        },
        {
            "name": "K\u00e1lm\u00e1n Imre",
            "kind": "t\u00e9r",
            "post_code": 0
        },
        {
            "name": "Kazinczy Ferenc",
            "kind": "utca",
            "post_code": 0
        },
        {
            "name": "Kernstok K\u00e1roly",
            "kind": "utca",
            "post_code": 0
        },
        {
            "name": "Kertalja",
            "kind": "utca",
            "post_code": 0
        },
        {
            "name": "Kisfaludy",
            "kind": "utca",
            "post_code": 0
        },
        {
            "name": "Klapka Gy\u00f6rgy",
            "kind": "utca",
            "post_code": 0
        },
        {
            "name": "K\u00f6lcsey Ferenc",
            "kind": "utca",
            "post_code": 0
        },
        {
            "name": "Kossuth Lajos",
            "kind": "utca",
            "post_code": 0
        },
        {
            "name": "K\u0151sz\u00e1ll\u00edt\u00f3",
            "kind": "\u00fat",
            "post_code": 0
        },
        {
            "name": "Krisztina",
            "kind": "t\u00e9r",
            "post_code": 0
        },
        {
            "name": "Liget",
            "kind": "utca",
            "post_code": 0
        },
        {
            "name": "Liliom",
            "kind": "utca",
            "post_code": 0
        },
        {
            "name": "Liszt Ferenc",
            "kind": "utca",
            "post_code": 0
        },
        {
            "name": "Luka",
            "kind": "d\u0171l\u0151",
            "post_code": 0
        },
        {
            "name": "Mad\u00e1ch Imre",
            "kind": "utca",
            "post_code": 0
        },
        {
            "name": "M\u00e1jus 1.",
            "kind": "t\u00e9r",
            "post_code": 0
        },
        {
            "name": "M\u00e1jus1.",
            "kind": "t\u00e9r",
            "post_code": 0
        },
        {
            "name": "M\u00f3ricz Zsigmond",
            "kind": "utca",
            "post_code": 0
        },
        {
            "name": "Munk\u00e1csy",
            "kind": "liget",
            "post_code": 0
        },
        {
            "name": "Munk\u00e1s",
            "kind": "utca",
            "post_code": 0
        },
        {
            "name": "Nagy L\u00e1szl\u00f3",
            "kind": "utca",
            "post_code": 0
        },
        {
            "name": "Nyergesi J\u00e1nos",
            "kind": "t\u00e9r",
            "post_code": 0
        },
        {
            "name": "\u00d3voda",
            "kind": "utca",
            "post_code": 0
        },
        {
            "name": "Pad\u00e1nyi",
            "kind": "t\u00e9r",
            "post_code": 0
        },
        {
            "name": "Pala",
            "kind": "utca",
            "post_code": 0
        },
        {
            "name": "P\u00e1skom",
            "kind": "utca",
            "post_code": 0
        },
        {
            "name": "Pesti",
            "kind": "utca",
            "post_code": 0
        },
        {
            "name": "Pet\u0151fi S\u00e1ndor",
            "kind": "utca",
            "post_code": 0
        },
        {
            "name": "Radn\u00f3ti Mikl\u00f3s",
            "kind": "utca",
            "post_code": 0
        },
        {
            "name": "R\u00e1k\u00f3czi Ferenc",
            "kind": "utca",
            "post_code": 0
        },
        {
            "name": "R\u00f3zsa",
            "kind": "utca",
            "post_code": 0
        },
        {
            "name": "S\u00e1nc",
            "kind": "utca",
            "post_code": 0
        },
        {
            "name": "S\u00e1tori",
            "kind": "\u00fat",
            "post_code": 0
        },
        {
            "name": "Szabads\u00e1gdomb",
            "kind": "utca",
            "post_code": 0
        },
        {
            "name": "Szabads\u00e1g",
            "kind": "liget",
            "post_code": 0
        },
        {
            "name": "Sz\u00e9chenyi Istv\u00e1n",
            "kind": "utca",
            "post_code": 0
        },
        {
            "name": "Szemere Bertalan",
            "kind": "utca",
            "post_code": 0
        },
        {
            "name": "Szent-Gy\u00f6rgyi Albert",
            "kind": "\u00fat",
            "post_code": 0
        },
        {
            "name": "Tavasz",
            "kind": "utca",
            "post_code": 0
        },
        {
            "name": "T\u00f6lgyfa",
            "kind": "utca",
            "post_code": 0
        },
        {
            "name": "Tompa Mih\u00e1ly",
            "kind": "utca",
            "post_code": 0
        },
        {
            "name": "T\u00f3",
            "kind": "utca",
            "post_code": 0
        },
        {
            "name": "V\u00e1ci Mih\u00e1ly",
            "kind": "utca",
            "post_code": 0
        },
        {
            "name": "Vadk\u00f6rtefa",
            "kind": "utca",
            "post_code": 0
        },
        {
            "name": "Vadvir\u00e1g",
            "kind": "utca",
            "post_code": 0
        },
        {
            "name": "Varga J\u00f3zsef",
            "kind": "t\u00e9r",
            "post_code": 0
        },
        {
            "name": "Vecs\u00e9si S\u00e1ndor",
            "kind": "utca",
            "post_code": 0
        },
        {
            "name": "Viscosa",
            "kind": "t\u00e9r",
            "post_code": 0
        },
        {
            "name": "V\u00f6r\u00f6smarty Mih\u00e1ly",
            "kind": "utca",
            "post_code": 0
        },
        {
            "name": "Zelk Zolt\u00e1n",
            "kind": "utca",
            "post_code": 0
        },
        {
            "name": "Z\u00f6ldfa",
            "kind": "utca",
            "post_code": 0
        },
        {
            "name": "Zs\u00e1k",
            "kind": "utca",
            "post_code": 0
        },
        {
            "name": "Zs\u00e1mb\u00e9kos",
            "kind": "d\u0171l\u0151",
            "post_code": 0
        }
    ]
}