{
    "codes": {
        "2723": [
            "Ny\u00e1regyh\u00e1za",
            null
        ]
    },
    "streets": [
        {
            "name": "Ady Endre",
            "kind": "utca",
            "post_code": 0
        },
        {
            "name": "Ak\u00e1cfa",
            "kind": "utca",
            "post_code": 0
        },
        {
            "name": "Arany J\u00e1nos",
            "kind": "utca",
            "post_code": 0
        },
        {
            "name": "\u00c1rp\u00e1d",
            "kind": "k\u00f6z",
            "post_code": 0
        },
        {
            "name": "\u00c1rp\u00e1d",
            "kind": "\u00fat",
            "post_code": 0
        },
        {
            "name": "\u00c1rp\u00e1d",
            "kind": "utca",
            "post_code": 0
        },
        {
            "name": "Bem J\u00f3zsef",
            "kind": "utca",
            "post_code": 0
        },
        {
            "name": "Bernula",
            "kind": "tanya",
            "post_code": 0
        },
        {
            "name": "Bocskai",
            "kind": "utca",
            "post_code": 0
        },
        {
            "name": "Csalog\u00e1ny",
            "kind": "utca",
            "post_code": 0
        },
        {
            "name": "Cseng\u0151",
            "kind": "utca",
            "post_code": 0
        },
        {
            "name": "Di\u00f3fasor",
            "kind": "\u00fat",
            "post_code": 0
        },
        {
            "name": "D\u00f3zsa Gy\u00f6rgy",
            "kind": "\u00fat",
            "post_code": 0
        },
        {
            "name": "Erd\u0151",
            "kind": "utca",
            "post_code": 0
        },
        {
            "name": "Harang",
            "kind": "utca",
            "post_code": 0
        },
        {
            "name": "Hunyadi",
            "kind": "\u00fat",
            "post_code": 0
        },
        {
            "name": "Huszthymajor",
            "kind": "",
            "post_code": 0
        },
        {
            "name": "Illatos",
            "kind": "utca",
            "post_code": 0
        },
        {
            "name": "J\u00f3kai",
            "kind": "\u00fat",
            "post_code": 0
        },
        {
            "name": "J\u00f3zsef Attila",
            "kind": "\u00fat",
            "post_code": 0
        },
        {
            "name": "K\u00e1rolyitelep",
            "kind": "",
            "post_code": 0
        },
        {
            "name": "Kinizsi P\u00e1l",
            "kind": "\u00fat",
            "post_code": 0
        },
        {
            "name": "K\u00f6lcsey Ferenc",
            "kind": "utca",
            "post_code": 0
        },
        {
            "name": "K\u00f6lcsey",
            "kind": "utca",
            "post_code": 0
        },
        {
            "name": "Kossuth Lajos",
            "kind": "utca",
            "post_code": 0
        },
        {
            "name": "Kossuthtelep",
            "kind": "",
            "post_code": 0
        },
        {
            "name": "L\u00e1z\u00e1r",
            "kind": "\u00fat",
            "post_code": 0
        },
        {
            "name": "Martinovics",
            "kind": "utca",
            "post_code": 0
        },
        {
            "name": "M\u00e1ty\u00e1s kir\u00e1ly",
            "kind": "\u00fat",
            "post_code": 0
        },
        {
            "name": "Nefelejcs",
            "kind": "utca",
            "post_code": 0
        },
        {
            "name": "Ny\u00e1ri P\u00e1l",
            "kind": "\u00fat",
            "post_code": 0
        },
        {
            "name": "Orgona",
            "kind": "utca",
            "post_code": 0
        },
        {
            "name": "P\u00e9terdi",
            "kind": "\u00fat",
            "post_code": 0
        },
        {
            "name": "Pet\u0151fi S\u00e1ndor",
            "kind": "\u00fat",
            "post_code": 0
        },
        {
            "name": "R\u00f3zsa",
            "kind": "utca",
            "post_code": 0
        },
        {
            "name": "Sz\u00e9chenyi",
            "kind": "k\u00f6z",
            "post_code": 0
        },
        {
            "name": "Sz\u00e9chenyi",
            "kind": "\u00fat",
            "post_code": 0
        },
        {
            "name": "Szegf\u0171",
            "kind": "utca",
            "post_code": 0
        },
        {
            "name": "Szentimretelep",
            "kind": "",
            "post_code": 0
        },
        {
            "name": "Sziv\u00e1rv\u00e1ny",
            "kind": "utca",
            "post_code": 0
        },
        {
            "name": "Sz\u0151l\u0151",
            "kind": "utca",
            "post_code": 0
        },
        {
            "name": "Temesv\u00e1ri",
            "kind": "\u00fat",
            "post_code": 0
        },
        {
            "name": "Templom",
            "kind": "utca",
            "post_code": 0
        },
        {
            "name": "Toldi",
            "kind": "\u00fat",
            "post_code": 0
        },
        {
            "name": "Vir\u00e1g",
            "kind": "utca",
            "post_code": 0
        },
        {
            "name": "Wekerle",
            "kind": "k\u00f6z",
            "post_code": 0
        },
        {
            "name": "Wekerle S\u00e1ndor",
            "kind": "utca",
            "post_code": 0
        }
    ]
}