{
    "codes": {
        "4263": [
            "Ny\u00edrm\u00e1rtonfalva",
            null
        ]
    },
    "streets": [
        {
            "name": "Acs\u00e1di",
            "kind": "\u00fat",
            "post_code": 0
        },
        {
            "name": "Balk\u00e1nyi",
            "kind": "tanya",
            "post_code": 0
        },
        {
            "name": "Batthy\u00e1ny",
            "kind": "utca",
            "post_code": 0
        },
        {
            "name": "Beker\u00edtve!",
            "kind": "",
            "post_code": 0
        },
        {
            "name": "Bethlen",
            "kind": "utca",
            "post_code": 0
        },
        {
            "name": "Darvas Tanya",
            "kind": "",
            "post_code": 0
        },
        {
            "name": "De\u00e1k Ferenc",
            "kind": "utca",
            "post_code": 0
        },
        {
            "name": "Debreceni",
            "kind": "\u00fat",
            "post_code": 0
        },
        {
            "name": "Domb",
            "kind": "utca",
            "post_code": 0
        },
        {
            "name": "Iskola",
            "kind": "t\u00e9r",
            "post_code": 0
        },
        {
            "name": "J\u00f3kai",
            "kind": "utca",
            "post_code": 0
        },
        {
            "name": "Juh\u00e1sz Gyula",
            "kind": "utca",
            "post_code": 0
        },
        {
            "name": "Kossuth",
            "kind": "utca",
            "post_code": 0
        },
        {
            "name": "M\u00e1jus 1.",
            "kind": "utca",
            "post_code": 0
        },
        {
            "name": "Mel\u00e1nia",
            "kind": "tanya",
            "post_code": 0
        },
        {
            "name": "Mel\u00e1nia",
            "kind": "\u00fat",
            "post_code": 0
        },
        {
            "name": "\u00d3voda",
            "kind": "utca",
            "post_code": 0
        },
        {
            "name": "Pet\u0151fi",
            "kind": "utca",
            "post_code": 0
        },
        {
            "name": "Pet\u0151r\u00e9szi",
            "kind": "\u00fat",
            "post_code": 0
        },
        {
            "name": "R\u00e1k\u00f3czi",
            "kind": "utca",
            "post_code": 0
        },
        {
            "name": "Reviczky tan\u00f6sv\u00e9ny",
            "kind": "",
            "post_code": 0
        },
        {
            "name": "Reviczky",
            "kind": "tanya",
            "post_code": 0
        },
        {
            "name": "Sik\u00e1tor",
            "kind": "utca",
            "post_code": 0
        },
        {
            "name": "Stern",
            "kind": "tanya",
            "post_code": 0
        },
        {
            "name": "Szatm\u00e1ri",
            "kind": "\u00fat",
            "post_code": 0
        },
        {
            "name": "Sz\u00e9chenyi",
            "kind": "utca",
            "post_code": 0
        },
        {
            "name": "Sz\u0151l\u0151hegy",
            "kind": "utca",
            "post_code": 0
        },
        {
            "name": "Zsuzsi Erdei Vas\u00fat volt nyomvonala",
            "kind": "",
            "post_code": 0
        },
        {
            "name": "Zug\u00f3",
            "kind": "\u00fat",
            "post_code": 0
        }
    ]
}