{
    "codes": {
        "4246": [
            "Ny\u00edregyh\u00e1za",
            "Butykatelep"
        ],
        "4400": [
            "Ny\u00edregyh\u00e1za",
            " "
        ],
        "4405": [
            "Ny\u00edregyh\u00e1za",
            "Borb\u00e1nya"
        ],
        "4431": [
            "Ny\u00edregyh\u00e1za",
            "S\u00f3st\u00f3f\u00fcrd\u0151"
        ],
        "4432": [
            "Ny\u00edregyh\u00e1za",
            "Ny\u00edrsz\u0151l\u0151s"
        ],
        "4433": [
            "Ny\u00edregyh\u00e1za",
            "Fels\u0151sima"
        ],
        "4481": [
            "Ny\u00edregyh\u00e1za",
            "S\u00f3st\u00f3hegy"
        ],
        "4551": [
            "Ny\u00edregyh\u00e1za",
            "Oros"
        ]
    },
    "streets": [
        {
            "name": "Ac\u00e9l",
            "kind": "utca",
            "post_code": 0
        },
        {
            "name": "\u00c1chim Andr\u00e1s",
            "kind": "utca",
            "post_code": 0
        },
        {
            "name": "Ady Endre",
            "kind": "utca",
            "post_code": 0
        },
        {
            "name": "\u00c1fonya",
            "kind": "utca",
            "post_code": 0
        },
        {
            "name": "Ag\u00e1r",
            "kind": "utca",
            "post_code": 0
        },
        {
            "name": "Agyag",
            "kind": "utca",
            "post_code": 0
        },
        {
            "name": "Ak\u00e1cfa",
            "kind": "utca",
            "post_code": 0
        },
        {
            "name": "Ak\u00e1cos",
            "kind": "k\u00f6z",
            "post_code": 0
        },
        {
            "name": "Ak\u00e1cos",
            "kind": "utca",
            "post_code": 0
        },
        {
            "name": "Ak\u00e1cvir\u00e1g",
            "kind": "\u00fat",
            "post_code": 0
        },
        {
            "name": "Alisp\u00e1ntanya",
            "kind": "",
            "post_code": 0
        },
        {
            "name": "Alkony",
            "kind": "utca",
            "post_code": 0
        },
        {
            "name": "Alkot\u00e1s",
            "kind": "utca",
            "post_code": 0
        },
        {
            "name": "Alkotm\u00e1ny",
            "kind": "utca",
            "post_code": 0
        },
        {
            "name": "\u00c1llom\u00e1s",
            "kind": "t\u00e9r",
            "post_code": 0
        },
        {
            "name": "\u00c1llom\u00e1s",
            "kind": "utca",
            "post_code": 0
        },
        {
            "name": "Alma",
            "kind": "utca",
            "post_code": 0
        },
        {
            "name": "\u00c1lmos",
            "kind": "utca",
            "post_code": 0
        },
        {
            "name": "\u00c1lmos vez\u00e9r",
            "kind": "utca",
            "post_code": 0
        },
        {
            "name": "Alp\u00e1r Ign\u00e1c",
            "kind": "utca",
            "post_code": 0
        },
        {
            "name": "Als\u00f3bad\u00farbokor",
            "kind": "",
            "post_code": 0
        },
        {
            "name": "Als\u00f3badur",
            "kind": "utca",
            "post_code": 0
        },
        {
            "name": "Als\u00f3p\u00e1zsit",
            "kind": "utca",
            "post_code": 0
        },
        {
            "name": "Als\u00f3sima",
            "kind": "",
            "post_code": 0
        },
        {
            "name": "Alv\u00e9g",
            "kind": "utca",
            "post_code": 0
        },
        {
            "name": "Andr\u00e1s",
            "kind": "utca",
            "post_code": 0
        },
        {
            "name": "Angyal",
            "kind": "utca",
            "post_code": 0
        },
        {
            "name": "Anna",
            "kind": "utca",
            "post_code": 0
        },
        {
            "name": "Antalbokor",
            "kind": "",
            "post_code": 0
        },
        {
            "name": "Apad\u00f3",
            "kind": "utca",
            "post_code": 0
        },
        {
            "name": "Aranyalma",
            "kind": "utca",
            "post_code": 0
        },
        {
            "name": "Aranyes\u0151",
            "kind": "utca",
            "post_code": 0
        },
        {
            "name": "Aranyf\u00fcrt",
            "kind": "k\u00f6z",
            "post_code": 0
        },
        {
            "name": "Aranyf\u00fcrt",
            "kind": "utca",
            "post_code": 0
        },
        {
            "name": "Aranyhomok",
            "kind": "utca",
            "post_code": 0
        },
        {
            "name": "Arany J\u00e1nos",
            "kind": "utca",
            "post_code": 0
        },
        {
            "name": "Aranykal\u00e1sz",
            "kind": "sor",
            "post_code": 0
        },
        {
            "name": "Arat\u00f3",
            "kind": "utca",
            "post_code": 0
        },
        {
            "name": "\u00c1rboc",
            "kind": "utca",
            "post_code": 0
        },
        {
            "name": "\u00c1rnika",
            "kind": "utca",
            "post_code": 0
        },
        {
            "name": "\u00c1rnyas",
            "kind": "utca",
            "post_code": 0
        },
        {
            "name": "\u00c1rok",
            "kind": "utca",
            "post_code": 0
        },
        {
            "name": "\u00c1rp\u00e1d",
            "kind": "utca",
            "post_code": 0
        },
        {
            "name": "\u00c1rpa",
            "kind": "utca",
            "post_code": 0
        },
        {
            "name": "\u00c1rv\u00e1cska",
            "kind": "utca",
            "post_code": 0
        },
        {
            "name": "Asztalos",
            "kind": "utca",
            "post_code": 0
        },
        {
            "name": "Attila",
            "kind": "utca",
            "post_code": 0
        },
        {
            "name": "Avar",
            "kind": "utca",
            "post_code": 0
        },
        {
            "name": "Bab\u00e9r",
            "kind": "utca",
            "post_code": 0
        },
        {
            "name": "Bajcsy-Zsilinszky",
            "kind": "utca",
            "post_code": 0
        },
        {
            "name": "Bakcs\u00f3",
            "kind": "k\u00f6z",
            "post_code": 0
        },
        {
            "name": "B\u00e1lintbokor",
            "kind": "",
            "post_code": 0
        },
        {
            "name": "B\u00e1lint",
            "kind": "utca",
            "post_code": 0
        },
        {
            "name": "B\u00e1nki Don\u00e1t",
            "kind": "utca",
            "post_code": 0
        },
        {
            "name": "Bar\u00e1t",
            "kind": "utca",
            "post_code": 0
        },
        {
            "name": "Bar\u00e1zda",
            "kind": "utca",
            "post_code": 0
        },
        {
            "name": "Barka",
            "kind": "utca",
            "post_code": 0
        },
        {
            "name": "B\u00e1rsony",
            "kind": "utca",
            "post_code": 0
        },
        {
            "name": "B\u00e1rtfa",
            "kind": "utca",
            "post_code": 0
        },
        {
            "name": "Bart\u00f3k B\u00e9la",
            "kind": "utca",
            "post_code": 0
        },
        {
            "name": "Barz\u00f3",
            "kind": "utca",
            "post_code": 0
        },
        {
            "name": "B\u00e1thori",
            "kind": "utca",
            "post_code": 0
        },
        {
            "name": "Bazsalikom",
            "kind": "k\u00f6z",
            "post_code": 0
        },
        {
            "name": "Bazsalikom",
            "kind": "utca",
            "post_code": 0
        },
        {
            "name": "Bea",
            "kind": "utca",
            "post_code": 0
        },
        {
            "name": "Bed\u0151bokor",
            "kind": "",
            "post_code": 0
        },
        {
            "name": "Bekecs",
            "kind": "utca",
            "post_code": 0
        },
        {
            "name": "B\u00e9ke",
            "kind": "utca",
            "post_code": 0
        },
        {
            "name": "B\u00e9la",
            "kind": "utca",
            "post_code": 0
        },
        {
            "name": "Bels\u0151",
            "kind": "k\u00f6r\u00fat",
            "post_code": 0
        },
        {
            "name": "Bem J\u00f3zsef",
            "kind": "utca",
            "post_code": 0
        },
        {
            "name": "Bencs L\u00e1szl\u00f3",
            "kind": "utca",
            "post_code": 0
        },
        {
            "name": "Bencz\u00far",
            "kind": "t\u00e9r",
            "post_code": 0
        },
        {
            "name": "Benehalom d\u00fcll\u0151",
            "kind": "",
            "post_code": 0
        },
        {
            "name": "Benehalom",
            "kind": "d\u0171l\u0151",
            "post_code": 0
        },
        {
            "name": "Benk\u0151bokor",
            "kind": "",
            "post_code": 0
        },
        {
            "name": "Benk\u0151 Istv\u00e1n",
            "kind": "utca",
            "post_code": 0
        },
        {
            "name": "Bercs\u00e9nyi",
            "kind": "utca",
            "post_code": 0
        },
        {
            "name": "Berek",
            "kind": "utca",
            "post_code": 0
        },
        {
            "name": "Beren\u00e1t",
            "kind": "utca",
            "post_code": 0
        },
        {
            "name": "B\u00e9ri Balogh \u00c1d\u00e1m",
            "kind": "utca",
            "post_code": 0
        },
        {
            "name": "Berkenye",
            "kind": "k\u00f6z",
            "post_code": 0
        },
        {
            "name": "Berkenye",
            "kind": "sor",
            "post_code": 0
        },
        {
            "name": "Berkenye",
            "kind": "utca",
            "post_code": 0
        },
        {
            "name": "Bern\u00e1thegyi",
            "kind": "utca",
            "post_code": 0
        },
        {
            "name": "Bessenyei",
            "kind": "t\u00e9r",
            "post_code": 0
        },
        {
            "name": "Besztercei",
            "kind": "utca",
            "post_code": 0
        },
        {
            "name": "Betekints",
            "kind": "utca",
            "post_code": 0
        },
        {
            "name": "Bethlen G\u00e1bor",
            "kind": "utca",
            "post_code": 0
        },
        {
            "name": "Bimb\u00f3",
            "kind": "utca",
            "post_code": 0
        },
        {
            "name": "Blaha Lujza",
            "kind": "s\u00e9t\u00e1ny",
            "post_code": 0
        },
        {
            "name": "Bl\u00e1thy Ott\u00f3",
            "kind": "utca",
            "post_code": 0
        },
        {
            "name": "B\u00f3bita",
            "kind": "utca",
            "post_code": 0
        },
        {
            "name": "Bocskai",
            "kind": "utca",
            "post_code": 0
        },
        {
            "name": "Bod\u00f3b\u00e1cs",
            "kind": "utca",
            "post_code": 0
        },
        {
            "name": "Bod\u00f3hegyi",
            "kind": "\u00fat",
            "post_code": 0
        },
        {
            "name": "Bodrogi",
            "kind": "utca",
            "post_code": 0
        },
        {
            "name": "Bog\u00e1ncs",
            "kind": "utca",
            "post_code": 0
        },
        {
            "name": "Bogl\u00e1rka",
            "kind": "utca",
            "post_code": 0
        },
        {
            "name": "Boglya",
            "kind": "utca",
            "post_code": 0
        },
        {
            "name": "Bogn\u00e1r",
            "kind": "utca",
            "post_code": 0
        },
        {
            "name": "B\u00f6gre",
            "kind": "utca",
            "post_code": 0
        },
        {
            "name": "Bogy\u00f3",
            "kind": "utca",
            "post_code": 0
        },
        {
            "name": "Bojt\u00e1r",
            "kind": "utca",
            "post_code": 0
        },
        {
            "name": "Bokor",
            "kind": "utca",
            "post_code": 0
        },
        {
            "name": "Bokr\u00e9ta",
            "kind": "utca",
            "post_code": 0
        },
        {
            "name": "Bolyai",
            "kind": "t\u00e9r",
            "post_code": 0
        },
        {
            "name": "Borb\u00e1la",
            "kind": "utca",
            "post_code": 0
        },
        {
            "name": "Bor\u00edv\u00f3",
            "kind": "utca",
            "post_code": 0
        },
        {
            "name": "Bor\u00f3ka",
            "kind": "utca",
            "post_code": 0
        },
        {
            "name": "Borosty\u00e1nk\u0151",
            "kind": "utca",
            "post_code": 0
        },
        {
            "name": "Borosty\u00e1nos",
            "kind": "utca",
            "post_code": 0
        },
        {
            "name": "Borosty\u00e1n",
            "kind": "utca",
            "post_code": 0
        },
        {
            "name": "Borsikaf\u0171",
            "kind": "utca",
            "post_code": 0
        },
        {
            "name": "Borsos",
            "kind": "utca",
            "post_code": 0
        },
        {
            "name": "Bors\u00f3szer",
            "kind": "utca",
            "post_code": 0
        },
        {
            "name": "Bor",
            "kind": "utca",
            "post_code": 0
        },
        {
            "name": "Botond",
            "kind": "utca",
            "post_code": 0
        },
        {
            "name": "Botty\u00e1n J\u00e1nos",
            "kind": "utca",
            "post_code": 0
        },
        {
            "name": "Boxer",
            "kind": "utca",
            "post_code": 0
        },
        {
            "name": "Boz\u00f3t",
            "kind": "utca",
            "post_code": 0
        },
        {
            "name": "B\u00facs\u00fa",
            "kind": "utca",
            "post_code": 0
        },
        {
            "name": "Budai Nagy Antal",
            "kind": "utca",
            "post_code": 0
        },
        {
            "name": "B\u00faji",
            "kind": "\u00fat",
            "post_code": 0
        },
        {
            "name": "Bujtos",
            "kind": "utca",
            "post_code": 0
        },
        {
            "name": "Bukarest",
            "kind": "utca",
            "post_code": 0
        },
        {
            "name": "Butykai",
            "kind": "utca",
            "post_code": 0
        },
        {
            "name": "Butyka",
            "kind": "sor",
            "post_code": 0
        },
        {
            "name": "Butykatelep",
            "kind": "",
            "post_code": 0
        },
        {
            "name": "B\u00fav\u00e1r",
            "kind": "utca",
            "post_code": 0
        },
        {
            "name": "B\u00fazakal\u00e1sz",
            "kind": "sor",
            "post_code": 0
        },
        {
            "name": "B\u00faza",
            "kind": "t\u00e9r",
            "post_code": 0
        },
        {
            "name": "B\u00faza",
            "kind": "utca",
            "post_code": 0
        },
        {
            "name": "B\u00fazavir\u00e1g",
            "kind": "utca",
            "post_code": 0
        },
        {
            "name": "Cifra",
            "kind": "fasor",
            "post_code": 0
        },
        {
            "name": "Cikl\u00e1men",
            "kind": "utca",
            "post_code": 0
        },
        {
            "name": "Cimbalom",
            "kind": "utca",
            "post_code": 0
        },
        {
            "name": "Cinke",
            "kind": "utca",
            "post_code": 0
        },
        {
            "name": "Cirbolya",
            "kind": "utca",
            "post_code": 0
        },
        {
            "name": "Citera",
            "kind": "utca",
            "post_code": 0
        },
        {
            "name": "Csabagy\u00f6ngye",
            "kind": "utca",
            "post_code": 0
        },
        {
            "name": "Csaba",
            "kind": "utca",
            "post_code": 0
        },
        {
            "name": "Cs\u00e1ki Istv\u00e1n",
            "kind": "utca",
            "post_code": 0
        },
        {
            "name": "Cs\u00e1ktornya",
            "kind": "utca",
            "post_code": 0
        },
        {
            "name": "Csal\u00e1d",
            "kind": "utca",
            "post_code": 0
        },
        {
            "name": "Csalitos",
            "kind": "utca",
            "post_code": 0
        },
        {
            "name": "Csalog\u00e1ny",
            "kind": "k\u00f6z",
            "post_code": 0
        },
        {
            "name": "Csalog\u00e1ny",
            "kind": "utca",
            "post_code": 0
        },
        {
            "name": "Csal\u00f3",
            "kind": "k\u00f6z",
            "post_code": 0
        },
        {
            "name": "Csap",
            "kind": "utca",
            "post_code": 0
        },
        {
            "name": "Cs\u00e1rda",
            "kind": "sor",
            "post_code": 0
        },
        {
            "name": "Cs\u00e1rda",
            "kind": "utca",
            "post_code": 0
        },
        {
            "name": "Cs\u00e1sz\u00e1rsz\u00e1ll\u00e1si",
            "kind": "utca",
            "post_code": 0
        },
        {
            "name": "Csatorna",
            "kind": "utca",
            "post_code": 0
        },
        {
            "name": "Csemete",
            "kind": "k\u00f6z",
            "post_code": 0
        },
        {
            "name": "Csemete",
            "kind": "utca",
            "post_code": 0
        },
        {
            "name": "Csendes",
            "kind": "utca",
            "post_code": 0
        },
        {
            "name": "Cseng\u0151",
            "kind": "k\u00f6z",
            "post_code": 0
        },
        {
            "name": "Cseng\u0151",
            "kind": "utca",
            "post_code": 0
        },
        {
            "name": "Cserepes",
            "kind": "utca",
            "post_code": 0
        },
        {
            "name": "Csereszny\u00e9s",
            "kind": "utca",
            "post_code": 0
        },
        {
            "name": "Cserje",
            "kind": "utca",
            "post_code": 0
        },
        {
            "name": "Csermely",
            "kind": "k\u00f6z",
            "post_code": 0
        },
        {
            "name": "Csermely",
            "kind": "utca",
            "post_code": 0
        },
        {
            "name": "Csernyikbokor",
            "kind": "",
            "post_code": 0
        },
        {
            "name": "Csiha K\u00e1lm\u00e1n",
            "kind": "utca",
            "post_code": 0
        },
        {
            "name": "Csik\u00f3s",
            "kind": "utca",
            "post_code": 0
        },
        {
            "name": "Csillagf\u00e9ny",
            "kind": "utca",
            "post_code": 0
        },
        {
            "name": "Csillagf\u00fcrt",
            "kind": "utca",
            "post_code": 0
        },
        {
            "name": "Csillag",
            "kind": "k\u00f6z",
            "post_code": 0
        },
        {
            "name": "Csillag",
            "kind": "utca",
            "post_code": 0
        },
        {
            "name": "Csill\u00e1m",
            "kind": "utca",
            "post_code": 0
        },
        {
            "name": "Csipke",
            "kind": "k\u00f6z",
            "post_code": 0
        },
        {
            "name": "Csipke",
            "kind": "utca",
            "post_code": 0
        },
        {
            "name": "Csisz\u00e1r",
            "kind": "utca",
            "post_code": 0
        },
        {
            "name": "Csizmadia",
            "kind": "utca",
            "post_code": 0
        },
        {
            "name": "Csoboly\u00f3",
            "kind": "utca",
            "post_code": 0
        },
        {
            "name": "Cs\u00f3ka",
            "kind": "utca",
            "post_code": 0
        },
        {
            "name": "Cs\u00f3nak",
            "kind": "utca",
            "post_code": 0
        },
        {
            "name": "Csongor",
            "kind": "k\u00f6z",
            "post_code": 0
        },
        {
            "name": "Csongor",
            "kind": "lak\u00f3park",
            "post_code": 0
        },
        {
            "name": "Csongor",
            "kind": "utca",
            "post_code": 0
        },
        {
            "name": "Csonk\u00e1s",
            "kind": "utca",
            "post_code": 0
        },
        {
            "name": "Cs\u0151sz",
            "kind": "utca",
            "post_code": 0
        },
        {
            "name": "Csurg\u00f3",
            "kind": "utca",
            "post_code": 0
        },
        {
            "name": "Cs\u0171r",
            "kind": "utca",
            "post_code": 0
        },
        {
            "name": "Csutor\u00e1s",
            "kind": "utca",
            "post_code": 0
        },
        {
            "name": "Czelder Orb\u00e1n",
            "kind": "utca",
            "post_code": 0
        },
        {
            "name": "Cz\u00f3bel Minka",
            "kind": "utca",
            "post_code": 0
        },
        {
            "name": "Czuczor Gergely",
            "kind": "utca",
            "post_code": 0
        },
        {
            "name": "D\u00e1lia",
            "kind": "utca",
            "post_code": 0
        },
        {
            "name": "Dalmata",
            "kind": "utca",
            "post_code": 0
        },
        {
            "name": "Damjanich",
            "kind": "utca",
            "post_code": 0
        },
        {
            "name": "Dand\u00e1r",
            "kind": "utca",
            "post_code": 0
        },
        {
            "name": "Dar\u00e1zs",
            "kind": "d\u0171l\u0151",
            "post_code": 0
        },
        {
            "name": "Daru",
            "kind": "utca",
            "post_code": 0
        },
        {
            "name": "De\u00e1k Ferenc",
            "kind": "utca",
            "post_code": 0
        },
        {
            "name": "Debreceni",
            "kind": "\u00fat",
            "post_code": 0
        },
        {
            "name": "Debr\u0151bokor",
            "kind": "",
            "post_code": 0
        },
        {
            "name": "De\u00e9k Ferenc",
            "kind": "utca",
            "post_code": 0
        },
        {
            "name": "Delel\u0151",
            "kind": "utca",
            "post_code": 0
        },
        {
            "name": "D\u00e9lib\u00e1b",
            "kind": "utca",
            "post_code": 0
        },
        {
            "name": "Delicses",
            "kind": "k\u00f6z",
            "post_code": 0
        },
        {
            "name": "D\u00e9li kisk\u00f6r\u00fat",
            "kind": "",
            "post_code": 0
        },
        {
            "name": "D\u00e9li nagyk\u00f6r\u00fat",
            "kind": "",
            "post_code": 0
        },
        {
            "name": "D\u00e9ri Miksa",
            "kind": "utca",
            "post_code": 0
        },
        {
            "name": "Derkovits Gyula",
            "kind": "utca",
            "post_code": 0
        },
        {
            "name": "Der\u0171s",
            "kind": "utca",
            "post_code": 0
        },
        {
            "name": "Der\u0171",
            "kind": "utca",
            "post_code": 0
        },
        {
            "name": "Di\u00e1k",
            "kind": "utca",
            "post_code": 0
        },
        {
            "name": "Dinny\u00e9s",
            "kind": "utca",
            "post_code": 0
        },
        {
            "name": "Di\u00f3liget",
            "kind": "utca",
            "post_code": 0
        },
        {
            "name": "Di\u00f3s",
            "kind": "utca",
            "post_code": 0
        },
        {
            "name": "Doberman",
            "kind": "utca",
            "post_code": 0
        },
        {
            "name": "Dob\u00f3 Istv\u00e1n",
            "kind": "utca",
            "post_code": 0
        },
        {
            "name": "Dobos Andr\u00e1s",
            "kind": "utca",
            "post_code": 0
        },
        {
            "name": "Dobsina",
            "kind": "utca",
            "post_code": 0
        },
        {
            "name": "Dob",
            "kind": "utca",
            "post_code": 0
        },
        {
            "name": "Doh\u00e1ny",
            "kind": "utca",
            "post_code": 0
        },
        {
            "name": "Dolm\u00e1ny",
            "kind": "utca",
            "post_code": 0
        },
        {
            "name": "Domb",
            "kind": "utca",
            "post_code": 0
        },
        {
            "name": "D\u00f3zsa Gy\u00f6rgy",
            "kind": "utca",
            "post_code": 0
        },
        {
            "name": "Dugonics",
            "kind": "k\u00f6z",
            "post_code": 0
        },
        {
            "name": "Dugonics",
            "kind": "utca",
            "post_code": 0
        },
        {
            "name": "Egres",
            "kind": "k\u00f6z",
            "post_code": 0
        },
        {
            "name": "Egyh\u00e1z",
            "kind": "utca",
            "post_code": 0
        },
        {
            "name": "\u00c9kes",
            "kind": "utca",
            "post_code": 0
        },
        {
            "name": "Elekbokor",
            "kind": "",
            "post_code": 0
        },
        {
            "name": "\u00c9let",
            "kind": "utca",
            "post_code": 0
        },
        {
            "name": "El\u0151d",
            "kind": "utca",
            "post_code": 0
        },
        {
            "name": "Els\u0151h\u00e1zhely",
            "kind": "utca",
            "post_code": 0
        },
        {
            "name": "Eml\u00e9k",
            "kind": "utca",
            "post_code": 0
        },
        {
            "name": "E\u00f6tv\u00f6s",
            "kind": "utca",
            "post_code": 0
        },
        {
            "name": "Eperjes",
            "kind": "utca",
            "post_code": 0
        },
        {
            "name": "\u00c9p\u00edt\u0151",
            "kind": "utca",
            "post_code": 0
        },
        {
            "name": "Epreskert",
            "kind": "utca",
            "post_code": 0
        },
        {
            "name": "Erd\u00e9sz",
            "kind": "utca",
            "post_code": 0
        },
        {
            "name": "Erd\u0151alja",
            "kind": "utca",
            "post_code": 0
        },
        {
            "name": "Erd\u0151",
            "kind": "sor",
            "post_code": 0
        },
        {
            "name": "Ereszalja",
            "kind": "k\u00f6z",
            "post_code": 0
        },
        {
            "name": "Ereszalja",
            "kind": "utca",
            "post_code": 0
        },
        {
            "name": "Erika",
            "kind": "utca",
            "post_code": 0
        },
        {
            "name": "Erkel Ferenc",
            "kind": "utca",
            "post_code": 0
        },
        {
            "name": "\u00c9r",
            "kind": "utca",
            "post_code": 0
        },
        {
            "name": "Esthajnal",
            "kind": "utca",
            "post_code": 0
        },
        {
            "name": "\u00c9szaki 1.",
            "kind": "utca",
            "post_code": 0
        },
        {
            "name": "\u00c9szaki",
            "kind": "k\u00f6r\u00fat",
            "post_code": 0
        },
        {
            "name": "Esze Tam\u00e1s",
            "kind": "utca",
            "post_code": 0
        },
        {
            "name": "Eszl\u00e1ri",
            "kind": "\u00fat",
            "post_code": 0
        },
        {
            "name": "Eszperant\u00f3",
            "kind": "t\u00e9r",
            "post_code": 0
        },
        {
            "name": "Etel",
            "kind": "k\u00f6z",
            "post_code": 0
        },
        {
            "name": "Ez\u00fcstfeny\u0151",
            "kind": "utca",
            "post_code": 0
        },
        {
            "name": "Ez\u00fcstkal\u00e1sz",
            "kind": "utca",
            "post_code": 0
        },
        {
            "name": "F\u00e1bi\u00e1n Zolt\u00e1n",
            "kind": "utca",
            "post_code": 0
        },
        {
            "name": "Fabula",
            "kind": "utca",
            "post_code": 0
        },
        {
            "name": "F\u00e1c\u00e1n",
            "kind": "utca",
            "post_code": 0
        },
        {
            "name": "Fagy\u00f6ngy",
            "kind": "utca",
            "post_code": 0
        },
        {
            "name": "Farkas",
            "kind": "utca",
            "post_code": 0
        },
        {
            "name": "F\u00e1y Andr\u00e1s",
            "kind": "utca",
            "post_code": 0
        },
        {
            "name": "Fazekas J\u00e1nos",
            "kind": "t\u00e9r",
            "post_code": 0
        },
        {
            "name": "Fecske",
            "kind": "utca",
            "post_code": 0
        },
        {
            "name": "Fedics Mih\u00e1ly",
            "kind": "utca",
            "post_code": 0
        },
        {
            "name": "Feh\u00e9r G\u00e1bor",
            "kind": "utca",
            "post_code": 0
        },
        {
            "name": "Fejedelem",
            "kind": "utca",
            "post_code": 0
        },
        {
            "name": "Fekete",
            "kind": "d\u0171l\u0151",
            "post_code": 0
        },
        {
            "name": "Felh\u0151",
            "kind": "k\u00f6z",
            "post_code": 0
        },
        {
            "name": "Felh\u0151",
            "kind": "utca",
            "post_code": 0
        },
        {
            "name": "Fels\u0151p\u00e1zsit",
            "kind": "k\u00f6z",
            "post_code": 0
        },
        {
            "name": "Fels\u0151p\u00e1zsit",
            "kind": "utca",
            "post_code": 0
        },
        {
            "name": "Fels\u0151simai",
            "kind": "\u00fat",
            "post_code": 0
        },
        {
            "name": "Fels\u0151s\u00f3sk\u00fat",
            "kind": "",
            "post_code": 0
        },
        {
            "name": "F\u00e9nyes",
            "kind": "utca",
            "post_code": 0
        },
        {
            "name": "Feny\u0151",
            "kind": "utca",
            "post_code": 0
        },
        {
            "name": "F\u00e9ny",
            "kind": "utca",
            "post_code": 0
        },
        {
            "name": "Ferde",
            "kind": "utca",
            "post_code": 0
        },
        {
            "name": "Ferenc",
            "kind": "k\u00f6r\u00fat",
            "post_code": 0
        },
        {
            "name": "Fert\u00e1ly",
            "kind": "utca",
            "post_code": 0
        },
        {
            "name": "F\u00e9szek",
            "kind": "utca",
            "post_code": 0
        },
        {
            "name": "Fill\u00e9r",
            "kind": "utca",
            "post_code": 0
        },
        {
            "name": "Fokos",
            "kind": "utca",
            "post_code": 0
        },
        {
            "name": "F\u00f6ldi",
            "kind": "utca",
            "post_code": 0
        },
        {
            "name": "Foly\u00f3ka",
            "kind": "utca",
            "post_code": 0
        },
        {
            "name": "Fon\u00f3",
            "kind": "utca",
            "post_code": 0
        },
        {
            "name": "Forg\u00f3",
            "kind": "utca",
            "post_code": 0
        },
        {
            "name": "F\u0151",
            "kind": "utca",
            "post_code": 0
        },
        {
            "name": "Foxi",
            "kind": "utca",
            "post_code": 0
        },
        {
            "name": "F\u0151zde",
            "kind": "utca",
            "post_code": 0
        },
        {
            "name": "Friss",
            "kind": "utca",
            "post_code": 0
        },
        {
            "name": "F\u00fclem\u00fcle",
            "kind": "sor",
            "post_code": 0
        },
        {
            "name": "F\u00fcrd\u0151",
            "kind": "k\u00f6z",
            "post_code": 0
        },
        {
            "name": "F\u00fcrd\u0151",
            "kind": "utca",
            "post_code": 0
        },
        {
            "name": "F\u00fcredi",
            "kind": "utca",
            "post_code": 0
        },
        {
            "name": "F\u00fcrj",
            "kind": "utca",
            "post_code": 0
        },
        {
            "name": "Furmint",
            "kind": "utca",
            "post_code": 0
        },
        {
            "name": "Furulya",
            "kind": "utca",
            "post_code": 0
        },
        {
            "name": "Fut\u00f3",
            "kind": "utca",
            "post_code": 0
        },
        {
            "name": "F\u00fctty\u00f6s",
            "kind": "utca",
            "post_code": 0
        },
        {
            "name": "F\u0171zesbokor",
            "kind": "",
            "post_code": 0
        },
        {
            "name": "F\u0171zes",
            "kind": "part",
            "post_code": 0
        },
        {
            "name": "F\u00fczes",
            "kind": "utca",
            "post_code": 0
        },
        {
            "name": "G\u00e1bor \u00c1ron",
            "kind": "utca",
            "post_code": 0
        },
        {
            "name": "G\u00e1bor",
            "kind": "k\u00f6z",
            "post_code": 0
        },
        {
            "name": "G\u00e1bor",
            "kind": "utca",
            "post_code": 0
        },
        {
            "name": "G\u00e1dor B\u00e9la",
            "kind": "k\u00f6z",
            "post_code": 0
        },
        {
            "name": "G\u00e1dor B\u00e9la",
            "kind": "utca",
            "post_code": 0
        },
        {
            "name": "G\u00e1l Ambrus",
            "kind": "utca",
            "post_code": 0
        },
        {
            "name": "Galamb",
            "kind": "utca",
            "post_code": 0
        },
        {
            "name": "Gal\u00e1nta",
            "kind": "utca",
            "post_code": 0
        },
        {
            "name": "G\u00e1lya",
            "kind": "utca",
            "post_code": 0
        },
        {
            "name": "G\u00e1rdonyi G\u00e9za",
            "kind": "utca",
            "post_code": 0
        },
        {
            "name": "Garibaldi",
            "kind": "utca",
            "post_code": 0
        },
        {
            "name": "Gazda",
            "kind": "utca",
            "post_code": 0
        },
        {
            "name": "Geduly Henrik",
            "kind": "utca",
            "post_code": 0
        },
        {
            "name": "G\u00e9mesk\u00fat",
            "kind": "utca",
            "post_code": 0
        },
        {
            "name": "G\u00e9m",
            "kind": "utca",
            "post_code": 0
        },
        {
            "name": "Gerbera",
            "kind": "utca",
            "post_code": 0
        },
        {
            "name": "Gerencs\u00e9r",
            "kind": "utca",
            "post_code": 0
        },
        {
            "name": "Gergely",
            "kind": "utca",
            "post_code": 0
        },
        {
            "name": "Gerh\u00e1tbokor",
            "kind": "",
            "post_code": 0
        },
        {
            "name": "Gerle",
            "kind": "utca",
            "post_code": 0
        },
        {
            "name": "Gerliczky Mih\u00e1ly",
            "kind": "utca",
            "post_code": 0
        },
        {
            "name": "Gerl\u00f3czy G\u00e1bor",
            "kind": "k\u00f6z",
            "post_code": 0
        },
        {
            "name": "Gerl\u00f3czy G\u00e1bor",
            "kind": "utca",
            "post_code": 0
        },
        {
            "name": "Gesztenye",
            "kind": "utca",
            "post_code": 0
        },
        {
            "name": "G\u00e9za",
            "kind": "utca",
            "post_code": 0
        },
        {
            "name": "Gilice",
            "kind": "utca",
            "post_code": 0
        },
        {
            "name": "Gimn\u00e1zium",
            "kind": "k\u00f6z",
            "post_code": 0
        },
        {
            "name": "G\u00f3lyah\u00edr",
            "kind": "k\u00f6z",
            "post_code": 0
        },
        {
            "name": "G\u00f3lyah\u00edr",
            "kind": "utca",
            "post_code": 0
        },
        {
            "name": "G\u00f3lya",
            "kind": "utca",
            "post_code": 0
        },
        {
            "name": "G\u00f3lya",
            "kind": "zug",
            "post_code": 0
        },
        {
            "name": "Gomba",
            "kind": "utca",
            "post_code": 0
        },
        {
            "name": "Gombk\u00f6t\u0151",
            "kind": "utca",
            "post_code": 0
        },
        {
            "name": "Gomb\u00f3d\u00e1s",
            "kind": "k\u00f6z",
            "post_code": 0
        },
        {
            "name": "Gomb\u00f3d\u00e1s",
            "kind": "utca",
            "post_code": 0
        },
        {
            "name": "G\u00f6mb",
            "kind": "utca",
            "post_code": 0
        },
        {
            "name": "Gomolya",
            "kind": "utca",
            "post_code": 0
        },
        {
            "name": "G\u00f6m\u00f6ri",
            "kind": "utca",
            "post_code": 0
        },
        {
            "name": "Gondos",
            "kind": "utca",
            "post_code": 0
        },
        {
            "name": "G\u00f6rgey Art\u00far",
            "kind": "utca",
            "post_code": 0
        },
        {
            "name": "Gulyak\u00fat",
            "kind": "utca",
            "post_code": 0
        },
        {
            "name": "Guly\u00e1s P\u00e1l",
            "kind": "k\u00f6z",
            "post_code": 0
        },
        {
            "name": "Guly\u00e1s P\u00e1l",
            "kind": "utca",
            "post_code": 0
        },
        {
            "name": "Gy\u00edk",
            "kind": "utca",
            "post_code": 0
        },
        {
            "name": "Gy\u00f6ngyike",
            "kind": "utca",
            "post_code": 0
        },
        {
            "name": "Gy\u00f6ngy",
            "kind": "k\u00f6z",
            "post_code": 0
        },
        {
            "name": "Gy\u00f6ngyperje",
            "kind": "utca",
            "post_code": 0
        },
        {
            "name": "Gy\u00f6ngy",
            "kind": "utca",
            "post_code": 0
        },
        {
            "name": "Gy\u00f6ngyvir\u00e1g",
            "kind": "utca",
            "post_code": 0
        },
        {
            "name": "Gyop\u00e1r",
            "kind": "utca",
            "post_code": 0
        },
        {
            "name": "Gyula",
            "kind": "utca",
            "post_code": 0
        },
        {
            "name": "Gy\u0171r\u0171",
            "kind": "utca",
            "post_code": 0
        },
        {
            "name": "Hadlik Andr\u00e1s",
            "kind": "utca",
            "post_code": 0
        },
        {
            "name": "Hadob\u00e1s",
            "kind": "k\u00f6z",
            "post_code": 0
        },
        {
            "name": "Hadob\u00e1s",
            "kind": "sor",
            "post_code": 0
        },
        {
            "name": "Hadob\u00e1s",
            "kind": "utca",
            "post_code": 0
        },
        {
            "name": "Hajd\u00fa",
            "kind": "utca",
            "post_code": 0
        },
        {
            "name": "Hajl\u00e1s",
            "kind": "utca",
            "post_code": 0
        },
        {
            "name": "Hajnalcsillag",
            "kind": "utca",
            "post_code": 0
        },
        {
            "name": "Hajnal",
            "kind": "utca",
            "post_code": 0
        },
        {
            "name": "Haj\u00f3",
            "kind": "utca",
            "post_code": 0
        },
        {
            "name": "Halad\u00e1s",
            "kind": "utca",
            "post_code": 0
        },
        {
            "name": "Hamvas",
            "kind": "utca",
            "post_code": 0
        },
        {
            "name": "Hanga",
            "kind": "utca",
            "post_code": 0
        },
        {
            "name": "Harangoz\u00f3",
            "kind": "utca",
            "post_code": 0
        },
        {
            "name": "H\u00e1rfa",
            "kind": "utca",
            "post_code": 0
        },
        {
            "name": "Hark\u00e1ly",
            "kind": "utca",
            "post_code": 0
        },
        {
            "name": "Harmat",
            "kind": "utca",
            "post_code": 0
        },
        {
            "name": "H\u00e1romsz\u00e9k",
            "kind": "utca",
            "post_code": 0
        },
        {
            "name": "H\u00e1rsfa",
            "kind": "utca",
            "post_code": 0
        },
        {
            "name": "Hat\u00e1r",
            "kind": "utca",
            "post_code": 0
        },
        {
            "name": "Hath\u00e1z",
            "kind": "utca",
            "post_code": 0
        },
        {
            "name": "Hatty\u00fa",
            "kind": "\u00fat",
            "post_code": 0
        },
        {
            "name": "Hatzel",
            "kind": "t\u00e9r",
            "post_code": 0
        },
        {
            "name": "Heged\u0171",
            "kind": "utca",
            "post_code": 0
        },
        {
            "name": "Hegyi",
            "kind": "utca",
            "post_code": 0
        },
        {
            "name": "Henger",
            "kind": "sor",
            "post_code": 0
        },
        {
            "name": "Herman Ott\u00f3",
            "kind": "utca",
            "post_code": 0
        },
        {
            "name": "H\u00edmes",
            "kind": "utca",
            "post_code": 0
        },
        {
            "name": "Hold",
            "kind": "utca",
            "post_code": 0
        },
        {
            "name": "Holl\u00f3",
            "kind": "utca",
            "post_code": 0
        },
        {
            "name": "Homok",
            "kind": "sor",
            "post_code": 0
        },
        {
            "name": "Homok",
            "kind": "t\u00e9r",
            "post_code": 0
        },
        {
            "name": "Homok",
            "kind": "\u00fat",
            "post_code": 0
        },
        {
            "name": "Honfoglal\u00e1s",
            "kind": "k\u00f6z",
            "post_code": 0
        },
        {
            "name": "Honfoglal\u00e1s",
            "kind": "utca",
            "post_code": 0
        },
        {
            "name": "Honv\u00e9d",
            "kind": "utca",
            "post_code": 0
        },
        {
            "name": "Horg\u00e1sztanya",
            "kind": "utca",
            "post_code": 0
        },
        {
            "name": "Horgony",
            "kind": "utca",
            "post_code": 0
        },
        {
            "name": "H\u0151s\u00f6k",
            "kind": "tere",
            "post_code": 0
        },
        {
            "name": "Hossz\u00fah\u00e1ti",
            "kind": "\u00fat",
            "post_code": 0
        },
        {
            "name": "H\u00f3vir\u00e1g",
            "kind": "utca",
            "post_code": 0
        },
        {
            "name": "Huba",
            "kind": "utca",
            "post_code": 0
        },
        {
            "name": "Hunyadi",
            "kind": "\u00fat",
            "post_code": 0
        },
        {
            "name": "Hunyadi",
            "kind": "utca",
            "post_code": 0
        },
        {
            "name": "Husz\u00e1r",
            "kind": "sor",
            "post_code": 0
        },
        {
            "name": "Husz\u00e1r",
            "kind": "t\u00e9r",
            "post_code": 0
        },
        {
            "name": "Ibolya",
            "kind": "utca",
            "post_code": 0
        },
        {
            "name": "Ifj\u00fas\u00e1g",
            "kind": "utca",
            "post_code": 0
        },
        {
            "name": "Igl\u00f3",
            "kind": "utca",
            "post_code": 0
        },
        {
            "name": "Igrice",
            "kind": "k\u00f6z",
            "post_code": 0
        },
        {
            "name": "Igrice",
            "kind": "s\u00e9t\u00e1ny",
            "post_code": 0
        },
        {
            "name": "Igrice",
            "kind": "utca",
            "post_code": 0
        },
        {
            "name": "\u00cdj\u00e1sz",
            "kind": "utca",
            "post_code": 0
        },
        {
            "name": "Ill\u00e9s",
            "kind": "utca",
            "post_code": 0
        },
        {
            "name": "Ilonatanya",
            "kind": "bek\u00f6t\u0151\u00fat",
            "post_code": 0
        },
        {
            "name": "Ilona",
            "kind": "utca",
            "post_code": 0
        },
        {
            "name": "Incz\u00e9dy",
            "kind": "sor",
            "post_code": 0
        },
        {
            "name": "Inda",
            "kind": "k\u00f6z",
            "post_code": 0
        },
        {
            "name": "Inda",
            "kind": "utca",
            "post_code": 0
        },
        {
            "name": "Ipari",
            "kind": "utca",
            "post_code": 0
        },
        {
            "name": "Irinyi J\u00e1nos",
            "kind": "utca",
            "post_code": 0
        },
        {
            "name": "\u00cdrisz",
            "kind": "utca",
            "post_code": 0
        },
        {
            "name": "Iskola",
            "kind": "utca",
            "post_code": 0
        },
        {
            "name": "Istv\u00e1nbokor",
            "kind": "",
            "post_code": 0
        },
        {
            "name": "Istv\u00e1n",
            "kind": "utca",
            "post_code": 0
        },
        {
            "name": "\u00cdv",
            "kind": "utca",
            "post_code": 0
        },
        {
            "name": "Izabella",
            "kind": "k\u00f6z",
            "post_code": 0
        },
        {
            "name": "Izabella",
            "kind": "utca",
            "post_code": 0
        },
        {
            "name": "J\u00e1cint",
            "kind": "k\u00f6z",
            "post_code": 0
        },
        {
            "name": "J\u00e1cint",
            "kind": "utca",
            "post_code": 0
        },
        {
            "name": "J\u00e1nosbokor",
            "kind": "",
            "post_code": 0
        },
        {
            "name": "J\u00e1nos",
            "kind": "utca",
            "post_code": 0
        },
        {
            "name": "J\u00e1szol",
            "kind": "utca",
            "post_code": 0
        },
        {
            "name": "J\u00e1t\u00e9k",
            "kind": "utca",
            "post_code": 0
        },
        {
            "name": "J\u00e1tsz\u00f3",
            "kind": "utca",
            "post_code": 0
        },
        {
            "name": "J\u00e1vorka P\u00e1l",
            "kind": "utca",
            "post_code": 0
        },
        {
            "name": "J\u00e1zmin",
            "kind": "k\u00f6z",
            "post_code": 0
        },
        {
            "name": "J\u00e1zmin",
            "kind": "utca",
            "post_code": 0
        },
        {
            "name": "Jegenye",
            "kind": "utca",
            "post_code": 0
        },
        {
            "name": "J\u00e9g",
            "kind": "utca",
            "post_code": 0
        },
        {
            "name": "Jelv\u00e9ny",
            "kind": "utca",
            "post_code": 0
        },
        {
            "name": "J\u00f3kai M\u00f3r",
            "kind": "t\u00e9r",
            "post_code": 0
        },
        {
            "name": "J\u00f3kai",
            "kind": "t\u00e9r",
            "post_code": 0
        },
        {
            "name": "Jonat\u00e1n",
            "kind": "utca",
            "post_code": 0
        },
        {
            "name": "J\u00f3sa Andr\u00e1s",
            "kind": "utca",
            "post_code": 0
        },
        {
            "name": "J\u00f3sika Mikl\u00f3s",
            "kind": "utca",
            "post_code": 0
        },
        {
            "name": "J\u00f3",
            "kind": "utca",
            "post_code": 0
        },
        {
            "name": "J\u00f3zsef Attila",
            "kind": "utca",
            "post_code": 0
        },
        {
            "name": "Juhar",
            "kind": "utca",
            "post_code": 0
        },
        {
            "name": "Juh\u00e1sz Gyula",
            "kind": "utca",
            "post_code": 0
        },
        {
            "name": "Jupiter",
            "kind": "utca",
            "post_code": 0
        },
        {
            "name": "Kabay J\u00e1nos",
            "kind": "utca",
            "post_code": 0
        },
        {
            "name": "Kacag\u00f3",
            "kind": "utca",
            "post_code": 0
        },
        {
            "name": "Kagyl\u00f3",
            "kind": "utca",
            "post_code": 0
        },
        {
            "name": "Kakukkf\u0171",
            "kind": "utca",
            "post_code": 0
        },
        {
            "name": "Kalapos",
            "kind": "utca",
            "post_code": 0
        },
        {
            "name": "Kal\u00e1szos",
            "kind": "utca",
            "post_code": 0
        },
        {
            "name": "Kalevala",
            "kind": "s\u00e9t\u00e1ny",
            "post_code": 0
        },
        {
            "name": "K\u00e1llair\u00e9t",
            "kind": "",
            "post_code": 0
        },
        {
            "name": "K\u00e1ll\u00f3i",
            "kind": "\u00fat",
            "post_code": 0
        },
        {
            "name": "K\u00e1ll\u00f3i",
            "kind": "utca",
            "post_code": 0
        },
        {
            "name": "K\u00e1lm\u00e1n",
            "kind": "utca",
            "post_code": 0
        },
        {
            "name": "K\u00e1lvin",
            "kind": "t\u00e9r",
            "post_code": 0
        },
        {
            "name": "Kamilla",
            "kind": "utca",
            "post_code": 0
        },
        {
            "name": "Kamra",
            "kind": "utca",
            "post_code": 0
        },
        {
            "name": "Kan\u00e1sz",
            "kind": "utca",
            "post_code": 0
        },
        {
            "name": "Kancs\u00f3",
            "kind": "utca",
            "post_code": 0
        },
        {
            "name": "Kand\u00f3 K\u00e1lm\u00e1n",
            "kind": "utca",
            "post_code": 0
        },
        {
            "name": "Kankalin",
            "kind": "utca",
            "post_code": 0
        },
        {
            "name": "Kant\u00e1r",
            "kind": "utca",
            "post_code": 0
        },
        {
            "name": "Kapit\u00e1ny",
            "kind": "utca",
            "post_code": 0
        },
        {
            "name": "K\u00e1pl\u00e1r",
            "kind": "utca",
            "post_code": 0
        },
        {
            "name": "Kapor",
            "kind": "utca",
            "post_code": 0
        },
        {
            "name": "Kapt\u00e1r",
            "kind": "utca",
            "post_code": 0
        },
        {
            "name": "K\u00e1r\u00e1sz",
            "kind": "utca",
            "post_code": 0
        },
        {
            "name": "Kard",
            "kind": "utca",
            "post_code": 0
        },
        {
            "name": "Kar\u00e9j",
            "kind": "utca",
            "post_code": 0
        },
        {
            "name": "Karik\u00e1s",
            "kind": "utca",
            "post_code": 0
        },
        {
            "name": "K\u00e1rp\u00e1talja",
            "kind": "utca",
            "post_code": 0
        },
        {
            "name": "Kassa",
            "kind": "k\u00f6z",
            "post_code": 0
        },
        {
            "name": "Kassa",
            "kind": "utca",
            "post_code": 0
        },
        {
            "name": "Katalin",
            "kind": "utca",
            "post_code": 0
        },
        {
            "name": "Kat\u00e1ng",
            "kind": "utca",
            "post_code": 0
        },
        {
            "name": "Katica",
            "kind": "utca",
            "post_code": 0
        },
        {
            "name": "Katona",
            "kind": "k\u00f6z",
            "post_code": 0
        },
        {
            "name": "Katona",
            "kind": "utca",
            "post_code": 0
        },
        {
            "name": "Kavics",
            "kind": "utca",
            "post_code": 0
        },
        {
            "name": "Kazal",
            "kind": "utca",
            "post_code": 0
        },
        {
            "name": "Kaz\u00e1rbokor",
            "kind": "",
            "post_code": 0
        },
        {
            "name": "Kazinczy Ferenc",
            "kind": "utca",
            "post_code": 0
        },
        {
            "name": "Kecsege",
            "kind": "utca",
            "post_code": 0
        },
        {
            "name": "Kecsk\u00e9s",
            "kind": "d\u0171l\u0151",
            "post_code": 0
        },
        {
            "name": "K\u00e9kfest\u0151",
            "kind": "k\u00f6z",
            "post_code": 0
        },
        {
            "name": "K\u00e9kfest\u0151",
            "kind": "utca",
            "post_code": 0
        },
        {
            "name": "Keleti 1.",
            "kind": "utca",
            "post_code": 0
        },
        {
            "name": "Keleti 2.",
            "kind": "utca",
            "post_code": 0
        },
        {
            "name": "Keleti M\u00e1rton",
            "kind": "utca",
            "post_code": 0
        },
        {
            "name": "Keleti terel\u0151\u00fat",
            "kind": "",
            "post_code": 0
        },
        {
            "name": "Kemecsei",
            "kind": "\u00fat",
            "post_code": 0
        },
        {
            "name": "Kemence",
            "kind": "utca",
            "post_code": 0
        },
        {
            "name": "K\u00e9m\u00e9nysepr\u0151",
            "kind": "utca",
            "post_code": 0
        },
        {
            "name": "Kengyel",
            "kind": "utca",
            "post_code": 0
        },
        {
            "name": "K\u00e9p\u00edr\u00f3",
            "kind": "utca",
            "post_code": 0
        },
        {
            "name": "Ker\u00e9kgy\u00e1rt\u00f3",
            "kind": "utca",
            "post_code": 0
        },
        {
            "name": "Ker\u00e9k",
            "kind": "utca",
            "post_code": 0
        },
        {
            "name": "Kereszt",
            "kind": "utca",
            "post_code": 0
        },
        {
            "name": "Ker\u00edt\u00e9s",
            "kind": "utca",
            "post_code": 0
        },
        {
            "name": "Kert\u00e9sz",
            "kind": "utca",
            "post_code": 0
        },
        {
            "name": "Kert",
            "kind": "k\u00f6z",
            "post_code": 0
        },
        {
            "name": "Kert",
            "kind": "utca",
            "post_code": 0
        },
        {
            "name": "Ker\u00fcl\u0151",
            "kind": "utca",
            "post_code": 0
        },
        {
            "name": "K\u00e9ry J\u00f3zsef",
            "kind": "utca",
            "post_code": 0
        },
        {
            "name": "Kesely\u0171s",
            "kind": "sor",
            "post_code": 0
        },
        {
            "name": "Kesely\u0171s",
            "kind": "utca",
            "post_code": 0
        },
        {
            "name": "Kesely\u0171s",
            "kind": "zug",
            "post_code": 0
        },
        {
            "name": "Keskeny",
            "kind": "k\u00f6z",
            "post_code": 0
        },
        {
            "name": "Keskeny",
            "kind": "t\u00e9r",
            "post_code": 0
        },
        {
            "name": "Keskeny",
            "kind": "utca",
            "post_code": 0
        },
        {
            "name": "K\u00e9th\u00e1z",
            "kind": "utca",
            "post_code": 0
        },
        {
            "name": "Kezd\u0151",
            "kind": "k\u00f6z",
            "post_code": 0
        },
        {
            "name": "Kezd\u0151",
            "kind": "utca",
            "post_code": 0
        },
        {
            "name": "K\u00e9z",
            "kind": "utca",
            "post_code": 0
        },
        {
            "name": "Kies",
            "kind": "utca",
            "post_code": 0
        },
        {
            "name": "K\u00edgy\u00f3",
            "kind": "utca",
            "post_code": 0
        },
        {
            "name": "Kikelet",
            "kind": "utca",
            "post_code": 0
        },
        {
            "name": "Kikerics",
            "kind": "utca",
            "post_code": 0
        },
        {
            "name": "Kil\u00e1t\u00f3",
            "kind": "utca",
            "post_code": 0
        },
        {
            "name": "Kil\u00e1t\u00f3",
            "kind": "zug",
            "post_code": 0
        },
        {
            "name": "Kimen\u0151",
            "kind": "utca",
            "post_code": 0
        },
        {
            "name": "Kincses",
            "kind": "k\u00f6z",
            "post_code": 0
        },
        {
            "name": "Kincskeres\u0151",
            "kind": "utca",
            "post_code": 0
        },
        {
            "name": "Kincs",
            "kind": "k\u00f6z",
            "post_code": 0
        },
        {
            "name": "Kincs",
            "kind": "utca",
            "post_code": 0
        },
        {
            "name": "Kinizsi P\u00e1l",
            "kind": "utca",
            "post_code": 0
        },
        {
            "name": "Kisdi\u00f3fa",
            "kind": "utca",
            "post_code": 0
        },
        {
            "name": "Kiss Ern\u0151",
            "kind": "utca",
            "post_code": 0
        },
        {
            "name": "Kiss Lajos",
            "kind": "utca",
            "post_code": 0
        },
        {
            "name": "Kistelekibokori",
            "kind": "utca",
            "post_code": 0
        },
        {
            "name": "Kis",
            "kind": "utca",
            "post_code": 0
        },
        {
            "name": "Kniep",
            "kind": "s\u00e9t\u00e1ny",
            "post_code": 0
        },
        {
            "name": "K\u00f3csag",
            "kind": "utca",
            "post_code": 0
        },
        {
            "name": "Kocs\u00e1ny",
            "kind": "utca",
            "post_code": 0
        },
        {
            "name": "Kocsis",
            "kind": "utca",
            "post_code": 0
        },
        {
            "name": "Kod\u00e1ly Zolt\u00e1n",
            "kind": "utca",
            "post_code": 0
        },
        {
            "name": "K\u00f6dm\u00f6n",
            "kind": "utca",
            "post_code": 0
        },
        {
            "name": "K\u00f6k\u00e9ny",
            "kind": "utca",
            "post_code": 0
        },
        {
            "name": "K\u00f6k\u00f6rcsin",
            "kind": "utca",
            "post_code": 0
        },
        {
            "name": "K\u00f6lcsey Ferenc",
            "kind": "utca",
            "post_code": 0
        },
        {
            "name": "Koll\u00e9gium",
            "kind": "utca",
            "post_code": 0
        },
        {
            "name": "Komondor",
            "kind": "utca",
            "post_code": 0
        },
        {
            "name": "K\u0151m\u0171ves",
            "kind": "utca",
            "post_code": 0
        },
        {
            "name": "Kond",
            "kind": "utca",
            "post_code": 0
        },
        {
            "name": "K\u00f6ny\u00f6k",
            "kind": "utca",
            "post_code": 0
        },
        {
            "name": "K\u00f6nyves",
            "kind": "",
            "post_code": 0
        },
        {
            "name": "K\u00f6nyves",
            "kind": "utca",
            "post_code": 0
        },
        {
            "name": "Kopog\u00f3",
            "kind": "utca",
            "post_code": 0
        },
        {
            "name": "Kop\u00f3",
            "kind": "utca",
            "post_code": 0
        },
        {
            "name": "Kor\u00e1nyi Frigyes",
            "kind": "k\u00f6z",
            "post_code": 0
        },
        {
            "name": "Kor\u00e1nyi Frigyes",
            "kind": "\u00fat",
            "post_code": 0
        },
        {
            "name": "Kor\u00e1nyi Frigyes",
            "kind": "utca",
            "post_code": 0
        },
        {
            "name": "Kor\u00e1nyi",
            "kind": "k\u00f6z",
            "post_code": 0
        },
        {
            "name": "Kordov\u00e1nbokor",
            "kind": "",
            "post_code": 0
        },
        {
            "name": "Korh\u00e1ny",
            "kind": "d\u0171l\u0151",
            "post_code": 0
        },
        {
            "name": "K\u00f3rh\u00e1z",
            "kind": "k\u00f6z",
            "post_code": 0
        },
        {
            "name": "K\u00f3rh\u00e1z",
            "kind": "utca",
            "post_code": 0
        },
        {
            "name": "K\u0151ris",
            "kind": "utca",
            "post_code": 0
        },
        {
            "name": "Koronaf\u00fcrt",
            "kind": "utca",
            "post_code": 0
        },
        {
            "name": "Korong",
            "kind": "utca",
            "post_code": 0
        },
        {
            "name": "K\u0151r\u00f6si Csoma S\u00e1ndor",
            "kind": "utca",
            "post_code": 0
        },
        {
            "name": "Kors\u00f3",
            "kind": "utca",
            "post_code": 0
        },
        {
            "name": "K\u00f6rte",
            "kind": "utca",
            "post_code": 0
        },
        {
            "name": "Kosbor",
            "kind": "utca",
            "post_code": 0
        },
        {
            "name": "Kossuth Lajos",
            "kind": "utca",
            "post_code": 0
        },
        {
            "name": "Kossuth",
            "kind": "t\u00e9r",
            "post_code": 0
        },
        {
            "name": "Kossuth",
            "kind": "utca",
            "post_code": 0
        },
        {
            "name": "Koszor\u00fa",
            "kind": "utca",
            "post_code": 0
        },
        {
            "name": "Kosztol\u00e1nyi Dezs\u0151",
            "kind": "utca",
            "post_code": 0
        },
        {
            "name": "K\u00f3taji",
            "kind": "\u00fat",
            "post_code": 0
        },
        {
            "name": "K\u00f6t\u00e9ny",
            "kind": "utca",
            "post_code": 0
        },
        {
            "name": "Kov\u00e1csbokor",
            "kind": "",
            "post_code": 0
        },
        {
            "name": "K\u00f6z\u00e9p",
            "kind": "utca",
            "post_code": 0
        },
        {
            "name": "Krisztina",
            "kind": "utca",
            "post_code": 0
        },
        {
            "name": "Krizant\u00e9m",
            "kind": "utca",
            "post_code": 0
        },
        {
            "name": "Kr\u00fady Gyula",
            "kind": "k\u00f6z",
            "post_code": 0
        },
        {
            "name": "Kr\u00fady Gyula",
            "kind": "utca",
            "post_code": 0
        },
        {
            "name": "Kr\u00fady",
            "kind": "udvar",
            "post_code": 0
        },
        {
            "name": "K\u00fck\u00fcll\u0151",
            "kind": "utca",
            "post_code": 0
        },
        {
            "name": "Kulacs",
            "kind": "utca",
            "post_code": 0
        },
        {
            "name": "Kulcs\u00e1r",
            "kind": "utca",
            "post_code": 0
        },
        {
            "name": "Kupa",
            "kind": "utca",
            "post_code": 0
        },
        {
            "name": "K\u00fcrt",
            "kind": "utca",
            "post_code": 0
        },
        {
            "name": "Kuvasz",
            "kind": "utca",
            "post_code": 0
        },
        {
            "name": "Labda",
            "kind": "utca",
            "post_code": 0
        },
        {
            "name": "Labrador",
            "kind": "k\u00f6z",
            "post_code": 0
        },
        {
            "name": "Labrador",
            "kind": "utca",
            "post_code": 0
        },
        {
            "name": "Lajos",
            "kind": "utca",
            "post_code": 0
        },
        {
            "name": "Lajtos",
            "kind": "utca",
            "post_code": 0
        },
        {
            "name": "Lakatos",
            "kind": "k\u00f6z",
            "post_code": 0
        },
        {
            "name": "Lakatos",
            "kind": "utca",
            "post_code": 0
        },
        {
            "name": "Laktanya",
            "kind": "t\u00e9r",
            "post_code": 0
        },
        {
            "name": "Lap\u00e1ly",
            "kind": "utca",
            "post_code": 0
        },
        {
            "name": "L\u00e1szl\u00f3csere",
            "kind": "d\u0171l\u0151",
            "post_code": 0
        },
        {
            "name": "L\u00e1szl\u00f3tanya",
            "kind": "",
            "post_code": 0
        },
        {
            "name": "L\u00e1szl\u00f3",
            "kind": "utca",
            "post_code": 0
        },
        {
            "name": "L\u00e1z\u00e1r K\u00e1roly",
            "kind": "utca",
            "post_code": 0
        },
        {
            "name": "Leffler S\u00e1muel",
            "kind": "utca",
            "post_code": 0
        },
        {
            "name": "Lefon\u00f3",
            "kind": "utca",
            "post_code": 0
        },
        {
            "name": "Legel\u0151",
            "kind": "utca",
            "post_code": 0
        },
        {
            "name": "Lego",
            "kind": "utca",
            "post_code": 0
        },
        {
            "name": "Legyez\u0151",
            "kind": "utca",
            "post_code": 0
        },
        {
            "name": "Leh\u00e1r Ferenc",
            "kind": "utca",
            "post_code": 0
        },
        {
            "name": "Lehel",
            "kind": "utca",
            "post_code": 0
        },
        {
            "name": "Lejt\u0151",
            "kind": "utca",
            "post_code": 0
        },
        {
            "name": "Leng\u0151",
            "kind": "k\u00f6z",
            "post_code": 0
        },
        {
            "name": "Leng\u0151",
            "kind": "utca",
            "post_code": 0
        },
        {
            "name": "Lengyel",
            "kind": "utca",
            "post_code": 0
        },
        {
            "name": "Lenke",
            "kind": "utca",
            "post_code": 0
        },
        {
            "name": "Lepke",
            "kind": "utca",
            "post_code": 0
        },
        {
            "name": "Leveleki",
            "kind": "k\u00f6z",
            "post_code": 0
        },
        {
            "name": "Leveleki",
            "kind": "utca",
            "post_code": 0
        },
        {
            "name": "Lev\u00e9l",
            "kind": "k\u00f6z",
            "post_code": 0
        },
        {
            "name": "Lev\u00e9l",
            "kind": "utca",
            "post_code": 0
        },
        {
            "name": "Levendula",
            "kind": "utca",
            "post_code": 0
        },
        {
            "name": "Liget",
            "kind": "utca",
            "post_code": 0
        },
        {
            "name": "Liliom",
            "kind": "utca",
            "post_code": 0
        },
        {
            "name": "Liszt Ferenc",
            "kind": "utca",
            "post_code": 0
        },
        {
            "name": "Lobog\u00f3",
            "kind": "utca",
            "post_code": 0
        },
        {
            "name": "L\u0151cse",
            "kind": "utca",
            "post_code": 0
        },
        {
            "name": "L\u00f3czibokor",
            "kind": "",
            "post_code": 0
        },
        {
            "name": "Lombkorona",
            "kind": "k\u00f6z",
            "post_code": 0
        },
        {
            "name": "Lombkorona",
            "kind": "utca",
            "post_code": 0
        },
        {
            "name": "Lomb",
            "kind": "utca",
            "post_code": 0
        },
        {
            "name": "L\u0151t\u00e9r",
            "kind": "utca",
            "post_code": 0
        },
        {
            "name": "Lovag",
            "kind": "utca",
            "post_code": 0
        },
        {
            "name": "Lovas",
            "kind": "utca",
            "post_code": 0
        },
        {
            "name": "Luby Margit",
            "kind": "utca",
            "post_code": 0
        },
        {
            "name": "Lugas",
            "kind": "utca",
            "post_code": 0
        },
        {
            "name": "Lujza",
            "kind": "utca",
            "post_code": 0
        },
        {
            "name": "Luk\u00e1cs \u00d6d\u00f6n",
            "kind": "utca",
            "post_code": 0
        },
        {
            "name": "Luther",
            "kind": "k\u00f6z",
            "post_code": 0
        },
        {
            "name": "Luther",
            "kind": "t\u00e9r",
            "post_code": 0
        },
        {
            "name": "Luther",
            "kind": "utca",
            "post_code": 0
        },
        {
            "name": "Mack\u00f3",
            "kind": "utca",
            "post_code": 0
        },
        {
            "name": "Mad\u00e1ch Imre",
            "kind": "utca",
            "post_code": 0
        },
        {
            "name": "Madar\u00e1sz",
            "kind": "utca",
            "post_code": 0
        },
        {
            "name": "Mad\u00e1r",
            "kind": "utca",
            "post_code": 0
        },
        {
            "name": "Magdolna",
            "kind": "utca",
            "post_code": 0
        },
        {
            "name": "Magt\u00e1r",
            "kind": "utca",
            "post_code": 0
        },
        {
            "name": "Magvet\u0151",
            "kind": "utca",
            "post_code": 0
        },
        {
            "name": "Magyar",
            "kind": "utca",
            "post_code": 0
        },
        {
            "name": "Magyarv\u00e9g",
            "kind": "utca",
            "post_code": 0
        },
        {
            "name": "Maj\u00e1lis",
            "kind": "utca",
            "post_code": 0
        },
        {
            "name": "Majoranna",
            "kind": "utca",
            "post_code": 0
        },
        {
            "name": "Major",
            "kind": "utca",
            "post_code": 0
        },
        {
            "name": "M\u00e1jus 1.",
            "kind": "t\u00e9r",
            "post_code": 0
        },
        {
            "name": "M\u00e1jusfa",
            "kind": "utca",
            "post_code": 0
        },
        {
            "name": "Makay Istv\u00e1n",
            "kind": "utca",
            "post_code": 0
        },
        {
            "name": "M\u00e1k",
            "kind": "utca",
            "post_code": 0
        },
        {
            "name": "Mal\u00e1ta",
            "kind": "utca",
            "post_code": 0
        },
        {
            "name": "M\u00e1lna",
            "kind": "utca",
            "post_code": 0
        },
        {
            "name": "Malom",
            "kind": "k\u00f6z",
            "post_code": 0
        },
        {
            "name": "Malom",
            "kind": "utca",
            "post_code": 0
        },
        {
            "name": "M\u00e1lyva",
            "kind": "utca",
            "post_code": 0
        },
        {
            "name": "Mandabokor I.",
            "kind": "",
            "post_code": 0
        },
        {
            "name": "Mandabokor II.",
            "kind": "",
            "post_code": 0
        },
        {
            "name": "Mandabokor III.",
            "kind": "",
            "post_code": 0
        },
        {
            "name": "Mandabokori",
            "kind": "\u00fat",
            "post_code": 0
        },
        {
            "name": "Mandula",
            "kind": "utca",
            "post_code": 0
        },
        {
            "name": "M\u00e1nyoki \u00c1d\u00e1m",
            "kind": "utca",
            "post_code": 0
        },
        {
            "name": "Margar\u00e9ta",
            "kind": "utca",
            "post_code": 0
        },
        {
            "name": "M\u00e1ria",
            "kind": "utca",
            "post_code": 0
        },
        {
            "name": "Martinovics",
            "kind": "t\u00e9r",
            "post_code": 0
        },
        {
            "name": "M\u00e1rv\u00e1ny",
            "kind": "utca",
            "post_code": 0
        },
        {
            "name": "Matr\u00f3z",
            "kind": "utca",
            "post_code": 0
        },
        {
            "name": "M\u00e1ty\u00e1sbokor",
            "kind": "",
            "post_code": 0
        },
        {
            "name": "M\u00e1ty\u00e1s",
            "kind": "utca",
            "post_code": 0
        },
        {
            "name": "Matyk\u00f3",
            "kind": "k\u00f6z",
            "post_code": 0
        },
        {
            "name": "Matyk\u00f3",
            "kind": "utca",
            "post_code": 0
        },
        {
            "name": "Mazsola",
            "kind": "utca",
            "post_code": 0
        },
        {
            "name": "M\u00e9csvir\u00e1g",
            "kind": "utca",
            "post_code": 0
        },
        {
            "name": "Meggyes",
            "kind": "utca",
            "post_code": 0
        },
        {
            "name": "Meggyfa",
            "kind": "utca",
            "post_code": 0
        },
        {
            "name": "M\u00e9h\u00e9sz",
            "kind": "utca",
            "post_code": 0
        },
        {
            "name": "Merk\u00far",
            "kind": "utca",
            "post_code": 0
        },
        {
            "name": "M\u00e9rleg",
            "kind": "utca",
            "post_code": 0
        },
        {
            "name": "M\u00e9r\u0151",
            "kind": "k\u00f6z",
            "post_code": 0
        },
        {
            "name": "M\u00e9r\u0151",
            "kind": "utca",
            "post_code": 0
        },
        {
            "name": "Mesk\u00f3 P\u00e1l",
            "kind": "utca",
            "post_code": 0
        },
        {
            "name": "Mester",
            "kind": "utca",
            "post_code": 0
        },
        {
            "name": "Mez\u0151",
            "kind": "utca",
            "post_code": 0
        },
        {
            "name": "Mezsgye",
            "kind": "utca",
            "post_code": 0
        },
        {
            "name": "Mih\u00e1ly",
            "kind": "utca",
            "post_code": 0
        },
        {
            "name": "Mikecz K\u00e1lm\u00e1n",
            "kind": "utca",
            "post_code": 0
        },
        {
            "name": "Mikes Kelemen",
            "kind": "utca",
            "post_code": 0
        },
        {
            "name": "Miksz\u00e1th K\u00e1lm\u00e1n",
            "kind": "utca",
            "post_code": 0
        },
        {
            "name": "M\u00edves",
            "kind": "utca",
            "post_code": 0
        },
        {
            "name": "Mocs\u00e1r",
            "kind": "utca",
            "post_code": 0
        },
        {
            "name": "Mogyor\u00f3s",
            "kind": "utca",
            "post_code": 0
        },
        {
            "name": "Mogyor\u00f3",
            "kind": "utca",
            "post_code": 0
        },
        {
            "name": "Moh\u00e1cs",
            "kind": "utca",
            "post_code": 0
        },
        {
            "name": "Moha",
            "kind": "utca",
            "post_code": 0
        },
        {
            "name": "Mohosbokor",
            "kind": "",
            "post_code": 0
        },
        {
            "name": "M\u00f3kus",
            "kind": "k\u00f6z",
            "post_code": 0
        },
        {
            "name": "Moln\u00e1r",
            "kind": "utca",
            "post_code": 0
        },
        {
            "name": "M\u00f3ra Ferenc",
            "kind": "k\u00f6z",
            "post_code": 0
        },
        {
            "name": "M\u00f3ra Ferenc",
            "kind": "utca",
            "post_code": 0
        },
        {
            "name": "M\u00f3ricz Zsigmond",
            "kind": "utca",
            "post_code": 0
        },
        {
            "name": "Moszkva",
            "kind": "utca",
            "post_code": 0
        },
        {
            "name": "Munk\u00e1csy Mih\u00e1ly",
            "kind": "utca",
            "post_code": 0
        },
        {
            "name": "Munk\u00e1s",
            "kind": "utca",
            "post_code": 0
        },
        {
            "name": "Musk\u00e1tli",
            "kind": "k\u00f6z",
            "post_code": 0
        },
        {
            "name": "Musk\u00e1tli",
            "kind": "utca",
            "post_code": 0
        },
        {
            "name": "Muskot\u00e1ly",
            "kind": "k\u00f6z",
            "post_code": 0
        },
        {
            "name": "Muskot\u00e1ly",
            "kind": "utca",
            "post_code": 0
        },
        {
            "name": "N\u00e1dasbokor",
            "kind": "",
            "post_code": 0
        },
        {
            "name": "N\u00e1dor",
            "kind": "utca",
            "post_code": 0
        },
        {
            "name": "N\u00e1d",
            "kind": "utca",
            "post_code": 0
        },
        {
            "name": "Nagy Imre",
            "kind": "t\u00e9r",
            "post_code": 0
        },
        {
            "name": "Nagyk\u00e1ll\u00f3i",
            "kind": "\u00fat",
            "post_code": 0
        },
        {
            "name": "Nagyv\u00e1rad",
            "kind": "utca",
            "post_code": 0
        },
        {
            "name": "Napf\u00e9ny",
            "kind": "utca",
            "post_code": 0
        },
        {
            "name": "Napkelte",
            "kind": "utca",
            "post_code": 0
        },
        {
            "name": "Napkorong",
            "kind": "utca",
            "post_code": 0
        },
        {
            "name": "Naplemente",
            "kind": "utca",
            "post_code": 0
        },
        {
            "name": "Napraforg\u00f3",
            "kind": "utca",
            "post_code": 0
        },
        {
            "name": "Napsug\u00e1r",
            "kind": "utca",
            "post_code": 0
        },
        {
            "name": "Nap",
            "kind": "utca",
            "post_code": 0
        },
        {
            "name": "Napv\u00edr\u00e1g",
            "kind": "utca",
            "post_code": 0
        },
        {
            "name": "N\u00e1rcisz",
            "kind": "k\u00f6z",
            "post_code": 0
        },
        {
            "name": "N\u00e1rcisz",
            "kind": "utca",
            "post_code": 0
        },
        {
            "name": "Naspolya",
            "kind": "k\u00f6z",
            "post_code": 0
        },
        {
            "name": "Naspolya",
            "kind": "utca",
            "post_code": 0
        },
        {
            "name": "Nefelejcs",
            "kind": "utca",
            "post_code": 0
        },
        {
            "name": "N\u00e9gyes husz\u00e1rok",
            "kind": "\u00fatja",
            "post_code": 0
        },
        {
            "name": "N\u00e9pkert",
            "kind": "utca",
            "post_code": 0
        },
        {
            "name": "Ny\u00e1r",
            "kind": "utca",
            "post_code": 0
        },
        {
            "name": "Nyereg",
            "kind": "utca",
            "post_code": 0
        },
        {
            "name": "Ny\u00edl",
            "kind": "utca",
            "post_code": 0
        },
        {
            "name": "Ny\u00edregyh\u00e1zi",
            "kind": "\u00fat",
            "post_code": 0
        },
        {
            "name": "Ny\u00edrfa",
            "kind": "t\u00e9r",
            "post_code": 0
        },
        {
            "name": "Ny\u00edrfa",
            "kind": "utca",
            "post_code": 0
        },
        {
            "name": "Ny\u00edrs\u00e9g",
            "kind": "utca",
            "post_code": 0
        },
        {
            "name": "Ny\u00edrsz\u0151l\u0151si",
            "kind": "\u00fat",
            "post_code": 0
        },
        {
            "name": "Nyitra",
            "kind": "utca",
            "post_code": 0
        },
        {
            "name": "Nyugati 1.",
            "kind": "utca",
            "post_code": 0
        },
        {
            "name": "Nyugati 2.",
            "kind": "utca",
            "post_code": 0
        },
        {
            "name": "Nyugati elker\u00fcl\u0151",
            "kind": "\u00fat",
            "post_code": 0
        },
        {
            "name": "Nyugati terel\u0151\u00fat",
            "kind": "",
            "post_code": 0
        },
        {
            "name": "Okt\u00f3ber 23.",
            "kind": "t\u00e9r",
            "post_code": 0
        },
        {
            "name": "Ol\u00e1hr\u00e9ti",
            "kind": "\u00fat",
            "post_code": 0
        },
        {
            "name": "Orgona",
            "kind": "k\u00f6z",
            "post_code": 0
        },
        {
            "name": "Orgona",
            "kind": "utca",
            "post_code": 0
        },
        {
            "name": "\u0150rmester",
            "kind": "utca",
            "post_code": 0
        },
        {
            "name": "Orosi",
            "kind": "\u00fat",
            "post_code": 0
        },
        {
            "name": "Orosi",
            "kind": "utca",
            "post_code": 0
        },
        {
            "name": "Orsolya",
            "kind": "utca",
            "post_code": 0
        },
        {
            "name": "Orsz\u00e1gz\u00e1szl\u00f3",
            "kind": "t\u00e9r",
            "post_code": 0
        },
        {
            "name": "Ostor",
            "kind": "utca",
            "post_code": 0
        },
        {
            "name": "\u00d6sv\u00e9ny",
            "kind": "utca",
            "post_code": 0
        },
        {
            "name": "\u00d3sz\u0151l\u0151",
            "kind": "utca",
            "post_code": 0
        },
        {
            "name": "\u00d3voda",
            "kind": "utca",
            "post_code": 0
        },
        {
            "name": "\u0150z",
            "kind": "k\u00f6z",
            "post_code": 0
        },
        {
            "name": "\u0150z",
            "kind": "utca",
            "post_code": 0
        },
        {
            "name": "Pacsirta",
            "kind": "utca",
            "post_code": 0
        },
        {
            "name": "Padka",
            "kind": "utca",
            "post_code": 0
        },
        {
            "name": "P\u00e1fr\u00e1ny",
            "kind": "utca",
            "post_code": 0
        },
        {
            "name": "Pajta",
            "kind": "utca",
            "post_code": 0
        },
        {
            "name": "Pajzsikaf\u0171",
            "kind": "utca",
            "post_code": 0
        },
        {
            "name": "Pal\u00e1nta",
            "kind": "utca",
            "post_code": 0
        },
        {
            "name": "P\u00e1lfi Ern\u0151",
            "kind": "utca",
            "post_code": 0
        },
        {
            "name": "P\u00e1lma",
            "kind": "utca",
            "post_code": 0
        },
        {
            "name": "Pann\u00f3nia",
            "kind": "utca",
            "post_code": 0
        },
        {
            "name": "P\u00e1ntlika",
            "kind": "utca",
            "post_code": 0
        },
        {
            "name": "Paripa",
            "kind": "utca",
            "post_code": 0
        },
        {
            "name": "P\u00e1rta",
            "kind": "utca",
            "post_code": 0
        },
        {
            "name": "P\u00e1sztor",
            "kind": "k\u00f6z",
            "post_code": 0
        },
        {
            "name": "P\u00e1sztor",
            "kind": "utca",
            "post_code": 0
        },
        {
            "name": "Patak",
            "kind": "utca",
            "post_code": 0
        },
        {
            "name": "Patics",
            "kind": "utca",
            "post_code": 0
        },
        {
            "name": "Patk\u00f3",
            "kind": "utca",
            "post_code": 0
        },
        {
            "name": "P\u00e1va",
            "kind": "k\u00f6z",
            "post_code": 0
        },
        {
            "name": "P\u00e1vaszem",
            "kind": "utca",
            "post_code": 0
        },
        {
            "name": "Pazonyi",
            "kind": "t\u00e9r",
            "post_code": 0
        },
        {
            "name": "Pazonyi",
            "kind": "\u00fat",
            "post_code": 0
        },
        {
            "name": "P\u00e1zsit",
            "kind": "utca",
            "post_code": 0
        },
        {
            "name": "Pereces",
            "kind": "utca",
            "post_code": 0
        },
        {
            "name": "Perem",
            "kind": "utca",
            "post_code": 0
        },
        {
            "name": "P\u00e9ter",
            "kind": "utca",
            "post_code": 0
        },
        {
            "name": "Pet\u0151fi",
            "kind": "t\u00e9r",
            "post_code": 0
        },
        {
            "name": "Pet\u0151fi",
            "kind": "utca",
            "post_code": 0
        },
        {
            "name": "Pet\u0151",
            "kind": "utca",
            "post_code": 0
        },
        {
            "name": "Petrence",
            "kind": "utca",
            "post_code": 0
        },
        {
            "name": "Petrikovics",
            "kind": "utca",
            "post_code": 0
        },
        {
            "name": "Pihen\u0151",
            "kind": "utca",
            "post_code": 0
        },
        {
            "name": "Pikkely",
            "kind": "k\u00f6z",
            "post_code": 0
        },
        {
            "name": "Pikkely",
            "kind": "utca",
            "post_code": 0
        },
        {
            "name": "Pillang\u00f3",
            "kind": "utca",
            "post_code": 0
        },
        {
            "name": "Pille",
            "kind": "utca",
            "post_code": 0
        },
        {
            "name": "Pince",
            "kind": "utca",
            "post_code": 0
        },
        {
            "name": "Pipacs",
            "kind": "utca",
            "post_code": 0
        },
        {
            "name": "Pipit\u00e9r",
            "kind": "utca",
            "post_code": 0
        },
        {
            "name": "Pirkadat",
            "kind": "utca",
            "post_code": 0
        },
        {
            "name": "Pitvarkert",
            "kind": "utca",
            "post_code": 0
        },
        {
            "name": "Pitvar",
            "kind": "utca",
            "post_code": 0
        },
        {
            "name": "Pitypang",
            "kind": "utca",
            "post_code": 0
        },
        {
            "name": "Plat\u00e1n",
            "kind": "k\u00f6z",
            "post_code": 0
        },
        {
            "name": "Plat\u00e1n",
            "kind": "utca",
            "post_code": 0
        },
        {
            "name": "Poly\u00e1kbokor",
            "kind": "",
            "post_code": 0
        },
        {
            "name": "Pomp\u00e1s",
            "kind": "utca",
            "post_code": 0
        },
        {
            "name": "Ponty",
            "kind": "utca",
            "post_code": 0
        },
        {
            "name": "Posta",
            "kind": "utca",
            "post_code": 0
        },
        {
            "name": "Pr\u00e1ga",
            "kind": "utca",
            "post_code": 0
        },
        {
            "name": "Pr\u00e9s",
            "kind": "utca",
            "post_code": 0
        },
        {
            "name": "Puli",
            "kind": "k\u00f6z",
            "post_code": 0
        },
        {
            "name": "Puli",
            "kind": "utca",
            "post_code": 0
        },
        {
            "name": "Puszp\u00e1ng",
            "kind": "utca",
            "post_code": 0
        },
        {
            "name": "Puttony",
            "kind": "utca",
            "post_code": 0
        },
        {
            "name": "Puttyon",
            "kind": "utca",
            "post_code": 0
        },
        {
            "name": "R\u00e1day P\u00e1l",
            "kind": "utca",
            "post_code": 0
        },
        {
            "name": "R\u00e1dy J\u00f3zsef",
            "kind": "utca",
            "post_code": 0
        },
        {
            "name": "Ragyog\u00f3",
            "kind": "utca",
            "post_code": 0
        },
        {
            "name": "R\u00e1k\u00f3czi",
            "kind": "\u00fat",
            "post_code": 0
        },
        {
            "name": "R\u00e1k\u00f3czi",
            "kind": "utca",
            "post_code": 0
        },
        {
            "name": "Repk\u00e9ny",
            "kind": "utca",
            "post_code": 0
        },
        {
            "name": "Rep\u00fcl\u0151t\u00e9r",
            "kind": "utca",
            "post_code": 0
        },
        {
            "name": "R\u00e9t",
            "kind": "utca",
            "post_code": 0
        },
        {
            "name": "Rezeda",
            "kind": "k\u00f6z",
            "post_code": 0
        },
        {
            "name": "Rezeda",
            "kind": "utca",
            "post_code": 0
        },
        {
            "name": "Ricsa",
            "kind": "d\u0171l\u0151",
            "post_code": 0
        },
        {
            "name": "Rig\u00f3",
            "kind": "utca",
            "post_code": 0
        },
        {
            "name": "Rizling",
            "kind": "utca",
            "post_code": 0
        },
        {
            "name": "R\u00f3kabokor",
            "kind": "",
            "post_code": 0
        },
        {
            "name": "R\u00f3kabokori",
            "kind": "\u00fat",
            "post_code": 0
        },
        {
            "name": "R\u00f3kad\u0171l\u0151",
            "kind": "",
            "post_code": 0
        },
        {
            "name": "R\u00f3ka",
            "kind": "utca",
            "post_code": 0
        },
        {
            "name": "R\u00f3ka",
            "kind": "zug",
            "post_code": 0
        },
        {
            "name": "Rokka",
            "kind": "utca",
            "post_code": 0
        },
        {
            "name": "Rokolya",
            "kind": "utca",
            "post_code": 0
        },
        {
            "name": "R\u00f3na",
            "kind": "utca",
            "post_code": 0
        },
        {
            "name": "R\u00f6vid",
            "kind": "utca",
            "post_code": 0
        },
        {
            "name": "Rozmaring",
            "kind": "utca",
            "post_code": 0
        },
        {
            "name": "R\u00f3zsa",
            "kind": "utca",
            "post_code": 0
        },
        {
            "name": "Rozsnyai",
            "kind": "utca",
            "post_code": 0
        },
        {
            "name": "Rozsny\u00f3",
            "kind": "utca",
            "post_code": 0
        },
        {
            "name": "Rozsr\u00e9tbokor I.",
            "kind": "",
            "post_code": 0
        },
        {
            "name": "Rozsr\u00e9tbokor II.",
            "kind": "",
            "post_code": 0
        },
        {
            "name": "Rozsr\u00e9tbokori",
            "kind": "utca",
            "post_code": 0
        },
        {
            "name": "Rozsr\u00e9tbokori",
            "kind": "zug",
            "post_code": 0
        },
        {
            "name": "Rozstelek",
            "kind": "utca",
            "post_code": 0
        },
        {
            "name": "S\u00e1fr\u00e1ny",
            "kind": "utca",
            "post_code": 0
        },
        {
            "name": "Salamonbokor",
            "kind": "",
            "post_code": 0
        },
        {
            "name": "Sal\u00e9trom",
            "kind": "k\u00f6z",
            "post_code": 0
        },
        {
            "name": "Samassa J\u00f3zsef",
            "kind": "t\u00e9r",
            "post_code": 0
        },
        {
            "name": "Sam\u00f3ka",
            "kind": "utca",
            "post_code": 0
        },
        {
            "name": "Sarkanty\u00fa",
            "kind": "utca",
            "post_code": 0
        },
        {
            "name": "Sarl\u00f3",
            "kind": "utca",
            "post_code": 0
        },
        {
            "name": "Sas",
            "kind": "utca",
            "post_code": 0
        },
        {
            "name": "S\u00e1s",
            "kind": "utca",
            "post_code": 0
        },
        {
            "name": "S\u00e1tor",
            "kind": "utca",
            "post_code": 0
        },
        {
            "name": "Schmidt Mih\u00e1ly",
            "kind": "utca",
            "post_code": 0
        },
        {
            "name": "Selyem",
            "kind": "utca",
            "post_code": 0
        },
        {
            "name": "Semmelweis",
            "kind": "utca",
            "post_code": 0
        },
        {
            "name": "Sereg\u00e9ly",
            "kind": "utca",
            "post_code": 0
        },
        {
            "name": "Serh\u00e1z",
            "kind": "utca",
            "post_code": 0
        },
        {
            "name": "Sert\u00e9stelep",
            "kind": "utca",
            "post_code": 0
        },
        {
            "name": "S\u00e9t\u00e1ny",
            "kind": "k\u00f6z",
            "post_code": 0
        },
        {
            "name": "S\u00e9t\u00e1ny",
            "kind": "utca",
            "post_code": 0
        },
        {
            "name": "Sikl\u00f3",
            "kind": "k\u00f6z",
            "post_code": 0
        },
        {
            "name": "Sikl\u00f3",
            "kind": "utca",
            "post_code": 0
        },
        {
            "name": "Simai",
            "kind": "t\u00e9r",
            "post_code": 0
        },
        {
            "name": "Simai",
            "kind": "\u00fat",
            "post_code": 0
        },
        {
            "name": "Simonyi \u00d3bester",
            "kind": "utca",
            "post_code": 0
        },
        {
            "name": "Sipkai Barna",
            "kind": "utca",
            "post_code": 0
        },
        {
            "name": "S\u00edp",
            "kind": "utca",
            "post_code": 0
        },
        {
            "name": "Sir\u00e1ly",
            "kind": "utca",
            "post_code": 0
        },
        {
            "name": "Solt\u00e9sz Istv\u00e1n",
            "kind": "utca",
            "post_code": 0
        },
        {
            "name": "S\u00f3lyom",
            "kind": "k\u00f6z",
            "post_code": 0
        },
        {
            "name": "S\u00f3lyom",
            "kind": "utca",
            "post_code": 0
        },
        {
            "name": "Sonkoly",
            "kind": "utca",
            "post_code": 0
        },
        {
            "name": "S\u00f6rte",
            "kind": "utca",
            "post_code": 0
        },
        {
            "name": "S\u00f3st\u00f3hegyi",
            "kind": "\u00fat",
            "post_code": 0
        },
        {
            "name": "S\u00f3st\u00f3i",
            "kind": "\u00fat",
            "post_code": 0
        },
        {
            "name": "S\u00f3st\u00f3i",
            "kind": "utca",
            "post_code": 0
        },
        {
            "name": "S\u00f6v\u00e9ny",
            "kind": "utca",
            "post_code": 0
        },
        {
            "name": "Sp\u00e1niel",
            "kind": "utca",
            "post_code": 0
        },
        {
            "name": "Sport",
            "kind": "utca",
            "post_code": 0
        },
        {
            "name": "Stadion",
            "kind": "k\u00f6z",
            "post_code": 0
        },
        {
            "name": "Stadion",
            "kind": "utca",
            "post_code": 0
        },
        {
            "name": "Suba",
            "kind": "utca",
            "post_code": 0
        },
        {
            "name": "Sug\u00e1r",
            "kind": "utca",
            "post_code": 0
        },
        {
            "name": "S\u00fcg\u00e9r",
            "kind": "utca",
            "post_code": 0
        },
        {
            "name": "Suly\u00e1nbokor",
            "kind": "",
            "post_code": 0
        },
        {
            "name": "S\u00fcveg",
            "kind": "utca",
            "post_code": 0
        },
        {
            "name": "Szabads\u00e1gbokor",
            "kind": "",
            "post_code": 0
        },
        {
            "name": "Szabads\u00e1g",
            "kind": "t\u00e9r",
            "post_code": 0
        },
        {
            "name": "Szabads\u00e1g",
            "kind": "utca",
            "post_code": 0
        },
        {
            "name": "Szabolcs",
            "kind": "utca",
            "post_code": 0
        },
        {
            "name": "Szab\u00f3 L\u0151rinc",
            "kind": "utca",
            "post_code": 0
        },
        {
            "name": "Szajk\u00f3",
            "kind": "utca",
            "post_code": 0
        },
        {
            "name": "Szalag",
            "kind": "utca",
            "post_code": 0
        },
        {
            "name": "Sz\u00e1ll\u00e1si",
            "kind": "\u00fat",
            "post_code": 0
        },
        {
            "name": "Sz\u00e1ll\u00e1si",
            "kind": "utca",
            "post_code": 0
        },
        {
            "name": "Szalma",
            "kind": "utca",
            "post_code": 0
        },
        {
            "name": "Szalonka",
            "kind": "utca",
            "post_code": 0
        },
        {
            "name": "Sz\u00e1mad\u00f3",
            "kind": "k\u00f6z",
            "post_code": 0
        },
        {
            "name": "Sz\u00e1mad\u00f3",
            "kind": "utca",
            "post_code": 0
        },
        {
            "name": "Szam\u00f3ca",
            "kind": "utca",
            "post_code": 0
        },
        {
            "name": "Szamos",
            "kind": "utca",
            "post_code": 0
        },
        {
            "name": "Sz\u00e1nk\u00f3",
            "kind": "utca",
            "post_code": 0
        },
        {
            "name": "Sz\u00e1nt\u00f3 Kov\u00e1cs J\u00e1nos",
            "kind": "utca",
            "post_code": 0
        },
        {
            "name": "Szarkal\u00e1b",
            "kind": "utca",
            "post_code": 0
        },
        {
            "name": "Szarka",
            "kind": "utca",
            "post_code": 0
        },
        {
            "name": "Szarvas",
            "kind": "utca",
            "post_code": 0
        },
        {
            "name": "Szatm\u00e1ri",
            "kind": "utca",
            "post_code": 0
        },
        {
            "name": "Sz\u00e1zados",
            "kind": "utca",
            "post_code": 0
        },
        {
            "name": "Sz\u00e1zk\u00fattanya",
            "kind": "",
            "post_code": 0
        },
        {
            "name": "Sz\u00e1zszorsz\u00e9p",
            "kind": "utca",
            "post_code": 0
        },
        {
            "name": "Sz\u00e9chenyi",
            "kind": "utca",
            "post_code": 0
        },
        {
            "name": "Szeder",
            "kind": "utca",
            "post_code": 0
        },
        {
            "name": "Szeg\u00e9ly",
            "kind": "utca",
            "post_code": 0
        },
        {
            "name": "Szeg\u00e9y",
            "kind": "k\u00f6z",
            "post_code": 0
        },
        {
            "name": "Szegf\u0171",
            "kind": "utca",
            "post_code": 0
        },
        {
            "name": "Szek\u00e9r",
            "kind": "utca",
            "post_code": 0
        },
        {
            "name": "Szelesbokor",
            "kind": "",
            "post_code": 0
        },
        {
            "name": "Szell\u0151",
            "kind": "utca",
            "post_code": 0
        },
        {
            "name": "Sz\u00e9ls\u0151bokor",
            "kind": "",
            "post_code": 0
        },
        {
            "name": "Sz\u00e9ls\u0151bokori",
            "kind": "\u00fat",
            "post_code": 0
        },
        {
            "name": "Sz\u00e9l",
            "kind": "utca",
            "post_code": 0
        },
        {
            "name": "Sz\u00e9na",
            "kind": "t\u00e9r",
            "post_code": 0
        },
        {
            "name": "Szent-Gy\u00f6rgyi Albert",
            "kind": "utca",
            "post_code": 0
        },
        {
            "name": "Szenth\u00e1roms\u00e1g",
            "kind": "t\u00e9r",
            "post_code": 0
        },
        {
            "name": "Szent Istv\u00e1n",
            "kind": "utca",
            "post_code": 0
        },
        {
            "name": "Szent Mikl\u00f3s",
            "kind": "t\u00e9r",
            "post_code": 0
        },
        {
            "name": "Szer\u00e9n",
            "kind": "utca",
            "post_code": 0
        },
        {
            "name": "Szer\u00e9ny",
            "kind": "utca",
            "post_code": 0
        },
        {
            "name": "Szerk\u0151",
            "kind": "utca",
            "post_code": 0
        },
        {
            "name": "Sz\u00e9r\u0171skert",
            "kind": "utca",
            "post_code": 0
        },
        {
            "name": "Szetter",
            "kind": "utca",
            "post_code": 0
        },
        {
            "name": "Sziget",
            "kind": "k\u00f6z",
            "post_code": 0
        },
        {
            "name": "Sziget",
            "kind": "utca",
            "post_code": 0
        },
        {
            "name": "Sz\u00edjgy\u00e1rt\u00f3",
            "kind": "utca",
            "post_code": 0
        },
        {
            "name": "Szikes",
            "kind": "utca",
            "post_code": 0
        },
        {
            "name": "Szike",
            "kind": "utca",
            "post_code": 0
        },
        {
            "name": "Szikla",
            "kind": "utca",
            "post_code": 0
        },
        {
            "name": "Szilfa",
            "kind": "utca",
            "post_code": 0
        },
        {
            "name": "Sz\u00edlvav\u00f6lgy",
            "kind": "s\u00e9t\u00e1ny",
            "post_code": 0
        },
        {
            "name": "Szinb\u00e1d",
            "kind": "s\u00e9t\u00e1ny",
            "post_code": 0
        },
        {
            "name": "Sz\u00ednes",
            "kind": "utca",
            "post_code": 0
        },
        {
            "name": "Sz\u00ednh\u00e1z",
            "kind": "utca",
            "post_code": 0
        },
        {
            "name": "Szirom",
            "kind": "utca",
            "post_code": 0
        },
        {
            "name": "Szitak\u00f6t\u0151",
            "kind": "utca",
            "post_code": 0
        },
        {
            "name": "Szittya",
            "kind": "utca",
            "post_code": 0
        },
        {
            "name": "Sziv\u00e1rv\u00e1ny",
            "kind": "k\u00f6z",
            "post_code": 0
        },
        {
            "name": "Sziv\u00e1rv\u00e1ny",
            "kind": "utca",
            "post_code": 0
        },
        {
            "name": "Sz\u00edv",
            "kind": "utca",
            "post_code": 0
        },
        {
            "name": "Sz\u00f6cske",
            "kind": "utca",
            "post_code": 0
        },
        {
            "name": "Sz\u00f3dah\u00e1z",
            "kind": "utca",
            "post_code": 0
        },
        {
            "name": "Sz\u00f3fia",
            "kind": "utca",
            "post_code": 0
        },
        {
            "name": "Sz\u0151l\u0151",
            "kind": "k\u00f6z",
            "post_code": 0
        },
        {
            "name": "Sz\u0151l\u0151skert",
            "kind": "utca",
            "post_code": 0
        },
        {
            "name": "Sz\u0151l\u0151szem",
            "kind": "utca",
            "post_code": 0
        },
        {
            "name": "Sz\u0151l\u0151",
            "kind": "utca",
            "post_code": 0
        },
        {
            "name": "Sz\u0151l\u0151",
            "kind": "zug",
            "post_code": 0
        },
        {
            "name": "Sz\u00fcret",
            "kind": "utca",
            "post_code": 0
        },
        {
            "name": "Sz\u0171rszab\u00f3",
            "kind": "utca",
            "post_code": 0
        },
        {
            "name": "T\u00e1bla",
            "kind": "\u00fat",
            "post_code": 0
        },
        {
            "name": "T\u00e1bor",
            "kind": "utca",
            "post_code": 0
        },
        {
            "name": "Tacsk\u00f3",
            "kind": "utca",
            "post_code": 0
        },
        {
            "name": "Tagl\u00f3",
            "kind": "k\u00f6z",
            "post_code": 0
        },
        {
            "name": "Tagl\u00f3",
            "kind": "utca",
            "post_code": 0
        },
        {
            "name": "Tak\u00e1cs",
            "kind": "utca",
            "post_code": 0
        },
        {
            "name": "Takar\u00e9k",
            "kind": "k\u00f6z",
            "post_code": 0
        },
        {
            "name": "Taliga",
            "kind": "utca",
            "post_code": 0
        },
        {
            "name": "Tall\u00e9r",
            "kind": "k\u00f6z",
            "post_code": 0
        },
        {
            "name": "Tall\u00e9r",
            "kind": "utca",
            "post_code": 0
        },
        {
            "name": "T\u00e1ltos",
            "kind": "utca",
            "post_code": 0
        },
        {
            "name": "Tam\u00e1si \u00c1ron",
            "kind": "utca",
            "post_code": 0
        },
        {
            "name": "Tam\u00e1s",
            "kind": "utca",
            "post_code": 0
        },
        {
            "name": "Tambura",
            "kind": "utca",
            "post_code": 0
        },
        {
            "name": "T\u00e1ncsics Mih\u00e1ly",
            "kind": "utca",
            "post_code": 0
        },
        {
            "name": "Tarcsay Istv\u00e1n",
            "kind": "utca",
            "post_code": 0
        },
        {
            "name": "Tarl\u00f3",
            "kind": "utca",
            "post_code": 0
        },
        {
            "name": "T\u00e1rogat\u00f3",
            "kind": "utca",
            "post_code": 0
        },
        {
            "name": "T\u00e1rol\u00f3",
            "kind": "utca",
            "post_code": 0
        },
        {
            "name": "Tarpai M\u00e1rton",
            "kind": "utca",
            "post_code": 0
        },
        {
            "name": "Tarsoly",
            "kind": "utca",
            "post_code": 0
        },
        {
            "name": "Tarzan \u00f6sv\u00e9nye",
            "kind": "",
            "post_code": 0
        },
        {
            "name": "Tas",
            "kind": "utca",
            "post_code": 0
        },
        {
            "name": "T\u00e1tika",
            "kind": "utca",
            "post_code": 0
        },
        {
            "name": "Tavasz",
            "kind": "utca",
            "post_code": 0
        },
        {
            "name": "Tegez",
            "kind": "utca",
            "post_code": 0
        },
        {
            "name": "T\u00e9gla",
            "kind": "utca",
            "post_code": 0
        },
        {
            "name": "T\u00e9glavet\u0151",
            "kind": "utca",
            "post_code": 0
        },
        {
            "name": "Teke",
            "kind": "utca",
            "post_code": 0
        },
        {
            "name": "Telek",
            "kind": "utca",
            "post_code": 0
        },
        {
            "name": "Temet\u0151",
            "kind": "k\u00f6z",
            "post_code": 0
        },
        {
            "name": "Temet\u0151",
            "kind": "utca",
            "post_code": 0
        },
        {
            "name": "Templom",
            "kind": "utca",
            "post_code": 0
        },
        {
            "name": "Tenisz",
            "kind": "utca",
            "post_code": 0
        },
        {
            "name": "Terrier",
            "kind": "utca",
            "post_code": 0
        },
        {
            "name": "Than M\u00f3r",
            "kind": "utca",
            "post_code": 0
        },
        {
            "name": "Th\u00f6k\u00f6ly Imre",
            "kind": "t\u00e9r",
            "post_code": 0
        },
        {
            "name": "Th\u00f6k\u00f6ly Imre",
            "kind": "utca",
            "post_code": 0
        },
        {
            "name": "Tim\u00e1r",
            "kind": "utca",
            "post_code": 0
        },
        {
            "name": "Tiszafa",
            "kind": "utca",
            "post_code": 0
        },
        {
            "name": "Tiszal\u00f6ki",
            "kind": "\u00fat",
            "post_code": 0
        },
        {
            "name": "Tiszavasv\u00e1ri",
            "kind": "\u00fat",
            "post_code": 0
        },
        {
            "name": "Tiszavir\u00e1g",
            "kind": "utca",
            "post_code": 0
        },
        {
            "name": "Tisztesf\u0171",
            "kind": "utca",
            "post_code": 0
        },
        {
            "name": "Titel",
            "kind": "utca",
            "post_code": 0
        },
        {
            "name": "Tokaji",
            "kind": "\u00fat",
            "post_code": 0
        },
        {
            "name": "T\u0151ke",
            "kind": "utca",
            "post_code": 0
        },
        {
            "name": "Toldi Mikl\u00f3s",
            "kind": "utca",
            "post_code": 0
        },
        {
            "name": "Toldi",
            "kind": "utca",
            "post_code": 0
        },
        {
            "name": "T\u00f6lgyes",
            "kind": "utca",
            "post_code": 0
        },
        {
            "name": "Tompa Mih\u00e1ly",
            "kind": "utca",
            "post_code": 0
        },
        {
            "name": "Torn\u00e1cos",
            "kind": "utca",
            "post_code": 0
        },
        {
            "name": "Torok",
            "kind": "utca",
            "post_code": 0
        },
        {
            "name": "T\u00f6r\u00f6kvir\u00e1g",
            "kind": "utca",
            "post_code": 0
        },
        {
            "name": "T\u00f6rpe",
            "kind": "utca",
            "post_code": 0
        },
        {
            "name": "T\u00f6rzs",
            "kind": "utca",
            "post_code": 0
        },
        {
            "name": "T\u00f3th \u00c1rp\u00e1d",
            "kind": "utca",
            "post_code": 0
        },
        {
            "name": "T\u00f3",
            "kind": "utca",
            "post_code": 0
        },
        {
            "name": "T\u00f6vis",
            "kind": "utca",
            "post_code": 0
        },
        {
            "name": "T\u00fccsok",
            "kind": "utca",
            "post_code": 0
        },
        {
            "name": "Tujafa",
            "kind": "k\u00f6z",
            "post_code": 0
        },
        {
            "name": "Tujafa",
            "kind": "utca",
            "post_code": 0
        },
        {
            "name": "T\u00fck\u00f6r",
            "kind": "utca",
            "post_code": 0
        },
        {
            "name": "Tulip\u00e1n",
            "kind": "k\u00f6z",
            "post_code": 0
        },
        {
            "name": "Tulip\u00e1n",
            "kind": "utca",
            "post_code": 0
        },
        {
            "name": "T\u00fcnde",
            "kind": "k\u00f6z",
            "post_code": 0
        },
        {
            "name": "T\u00fcnde",
            "kind": "utca",
            "post_code": 0
        },
        {
            "name": "Turi S\u00e1ndor",
            "kind": "utca",
            "post_code": 0
        },
        {
            "name": "T\u00fcske",
            "kind": "utca",
            "post_code": 0
        },
        {
            "name": "T\u00fcskev\u00e1r",
            "kind": "utca",
            "post_code": 0
        },
        {
            "name": "T\u00fcz\u00e9r",
            "kind": "utca",
            "post_code": 0
        },
        {
            "name": "T\u0171zolt\u00f3",
            "kind": "utca",
            "post_code": 0
        },
        {
            "name": "\u00dajer\u0151",
            "kind": "utca",
            "post_code": 0
        },
        {
            "name": "\u00dajh\u00e1z",
            "kind": "sor",
            "post_code": 0
        },
        {
            "name": "\u00dajsortanya",
            "kind": "",
            "post_code": 0
        },
        {
            "name": "\u00dajsz\u0151l\u0151",
            "kind": "utca",
            "post_code": 0
        },
        {
            "name": "\u00dajtelekbokor",
            "kind": "",
            "post_code": 0
        },
        {
            "name": "\u00daj",
            "kind": "utca",
            "post_code": 0
        },
        {
            "name": "Ungv\u00e1r",
            "kind": "s\u00e9t\u00e1ny",
            "post_code": 0
        },
        {
            "name": "\u00dcst\u00f6k\u00f6s",
            "kind": "utca",
            "post_code": 0
        },
        {
            "name": "Uszk\u00e1r",
            "kind": "utca",
            "post_code": 0
        },
        {
            "name": "V\u00e1ci Mih\u00e1ly",
            "kind": "\u00fat",
            "post_code": 0
        },
        {
            "name": "V\u00e1ci Mih\u00e1ly",
            "kind": "utca",
            "post_code": 0
        },
        {
            "name": "Vackor",
            "kind": "utca",
            "post_code": 0
        },
        {
            "name": "Vadalma",
            "kind": "utca",
            "post_code": 0
        },
        {
            "name": "Vadastanya",
            "kind": "",
            "post_code": 0
        },
        {
            "name": "Vadastanya",
            "kind": "utca",
            "post_code": 0
        },
        {
            "name": "Vad\u00e1sz",
            "kind": "utca",
            "post_code": 0
        },
        {
            "name": "Vadritka",
            "kind": "d\u0171l\u0151",
            "post_code": 0
        },
        {
            "name": "Vadr\u00f3zsa",
            "kind": "utca",
            "post_code": 0
        },
        {
            "name": "Vadvir\u00e1g",
            "kind": "utca",
            "post_code": 0
        },
        {
            "name": "Vajdabokor",
            "kind": "",
            "post_code": 0
        },
        {
            "name": "V\u00e1lyog",
            "kind": "utca",
            "post_code": 0
        },
        {
            "name": "V\u00e1ndlik M\u00e1rton",
            "kind": "utca",
            "post_code": 0
        },
        {
            "name": "Var\u00e1zs",
            "kind": "utca",
            "post_code": 0
        },
        {
            "name": "Vargabokor",
            "kind": "",
            "post_code": 0
        },
        {
            "name": "Varj\u00fa",
            "kind": "utca",
            "post_code": 0
        },
        {
            "name": "V\u00e1rosmajor",
            "kind": "utca",
            "post_code": 0
        },
        {
            "name": "Vars\u00f3",
            "kind": "utca",
            "post_code": 0
        },
        {
            "name": "V\u00e1s\u00e1rosnam\u00e9nyi",
            "kind": "\u00fat",
            "post_code": 0
        },
        {
            "name": "Vasgy\u00e1r",
            "kind": "utca",
            "post_code": 0
        },
        {
            "name": "Vaskapu",
            "kind": "utca",
            "post_code": 0
        },
        {
            "name": "Vasutas",
            "kind": "utca",
            "post_code": 0
        },
        {
            "name": "Vas\u00fat",
            "kind": "utca",
            "post_code": 0
        },
        {
            "name": "Vasv\u00e1ri P\u00e1l",
            "kind": "\u00fat",
            "post_code": 0
        },
        {
            "name": "Vasv\u00e1ri P\u00e1l",
            "kind": "utca",
            "post_code": 0
        },
        {
            "name": "Vattay alt\u00e1bornagy",
            "kind": "utca",
            "post_code": 0
        },
        {
            "name": "Vay \u00c1d\u00e1m",
            "kind": "k\u00f6r\u00fat",
            "post_code": 0
        },
        {
            "name": "Vay \u00c1d\u00e1m",
            "kind": "utca",
            "post_code": 0
        },
        {
            "name": "V\u00e9csey",
            "kind": "k\u00f6z",
            "post_code": 0
        },
        {
            "name": "V\u00e9csey",
            "kind": "utca",
            "post_code": 0
        },
        {
            "name": "V\u00e9g",
            "kind": "utca",
            "post_code": 0
        },
        {
            "name": "V\u00e9ka",
            "kind": "utca",
            "post_code": 0
        },
        {
            "name": "Velence",
            "kind": "utca",
            "post_code": 0
        },
        {
            "name": "V\u00e9nusz",
            "kind": "utca",
            "post_code": 0
        },
        {
            "name": "Venyige",
            "kind": "utca",
            "post_code": 0
        },
        {
            "name": "V\u00e9rcse",
            "kind": "utca",
            "post_code": 0
        },
        {
            "name": "Verecke",
            "kind": "utca",
            "post_code": 0
        },
        {
            "name": "Verescs\u00e1rda d\u00fcll\u0151",
            "kind": "",
            "post_code": 0
        },
        {
            "name": "Verescs\u00e1rda",
            "kind": "d\u0171l\u0151",
            "post_code": 0
        },
        {
            "name": "Ver\u0151ce",
            "kind": "utca",
            "post_code": 0
        },
        {
            "name": "Ver\u0151f\u00e9ny",
            "kind": "utca",
            "post_code": 0
        },
        {
            "name": "Verseny",
            "kind": "utca",
            "post_code": 0
        },
        {
            "name": "V\u00e9rtan\u00fak",
            "kind": "\u00fatja",
            "post_code": 0
        },
        {
            "name": "V\u00e9s\u0151",
            "kind": "utca",
            "post_code": 0
        },
        {
            "name": "Vez\u00e9r",
            "kind": "utca",
            "post_code": 0
        },
        {
            "name": "Vid\u00e1m",
            "kind": "utca",
            "post_code": 0
        },
        {
            "name": "Vidra",
            "kind": "utca",
            "post_code": 0
        },
        {
            "name": "Vietorisz J\u00f3zsef",
            "kind": "utca",
            "post_code": 0
        },
        {
            "name": "Vil\u00e1gos",
            "kind": "utca",
            "post_code": 0
        },
        {
            "name": "Vincell\u00e9r",
            "kind": "utca",
            "post_code": 0
        },
        {
            "name": "Viola",
            "kind": "utca",
            "post_code": 0
        },
        {
            "name": "Vir\u00e1gf\u00fcrt",
            "kind": "utca",
            "post_code": 0
        },
        {
            "name": "Vir\u00e1g",
            "kind": "k\u00f6z",
            "post_code": 0
        },
        {
            "name": "Vir\u00e1g",
            "kind": "utca",
            "post_code": 0
        },
        {
            "name": "Vitorl\u00e1s",
            "kind": "utca",
            "post_code": 0
        },
        {
            "name": "Vizsla",
            "kind": "utca",
            "post_code": 0
        },
        {
            "name": "V\u00edz",
            "kind": "utca",
            "post_code": 0
        },
        {
            "name": "Vonat",
            "kind": "utca",
            "post_code": 0
        },
        {
            "name": "V\u00f6r\u00f6smarty",
            "kind": "k\u00f6z",
            "post_code": 0
        },
        {
            "name": "V\u00f6r\u00f6smarty",
            "kind": "t\u00e9r",
            "post_code": 0
        },
        {
            "name": "V\u00f6r\u00f6smarty",
            "kind": "utca",
            "post_code": 0
        },
        {
            "name": "Westsik Vilmos",
            "kind": "\u00fat",
            "post_code": 0
        },
        {
            "name": "Z\u00e1gr\u00e1b",
            "kind": "utca",
            "post_code": 0
        },
        {
            "name": "Z\u00e1por",
            "kind": "utca",
            "post_code": 0
        },
        {
            "name": "Z\u00e1szl\u00f3s",
            "kind": "utca",
            "post_code": 0
        },
        {
            "name": "Zenit",
            "kind": "utca",
            "post_code": 0
        },
        {
            "name": "Zenta",
            "kind": "utca",
            "post_code": 0
        },
        {
            "name": "Zerge",
            "kind": "utca",
            "post_code": 0
        },
        {
            "name": "Zimony",
            "kind": "utca",
            "post_code": 0
        },
        {
            "name": "Zivatar",
            "kind": "utca",
            "post_code": 0
        },
        {
            "name": "Z\u00f6ldfa",
            "kind": "utca",
            "post_code": 0
        },
        {
            "name": "Z\u00f6ldmez\u0151",
            "kind": "utca",
            "post_code": 0
        },
        {
            "name": "Zomboribokor",
            "kind": "",
            "post_code": 0
        },
        {
            "name": "Zr\u00ednyi Ilona",
            "kind": "utca",
            "post_code": 0
        },
        {
            "name": "Zs\u00e1k",
            "kind": "utca",
            "post_code": 0
        },
        {
            "name": "Zs\u00e1lya",
            "kind": "utca",
            "post_code": 0
        },
        {
            "name": "Zsindely",
            "kind": "utca",
            "post_code": 0
        },
        {
            "name": "Zsomb\u00e9k",
            "kind": "utca",
            "post_code": 0
        },
        {
            "name": "Zsurl\u00f3",
            "kind": "utca",
            "post_code": 0
        },
        {
            "name": "Zsuzsanna",
            "kind": "utca",
            "post_code": 0
        },
        {
            "name": "Szabads\u00e1g",
            "kind": "t\u00e9r",
            "post_code": 0
        }
    ]
}