{
    "codes": {
        "8414": [
            "Olaszfalu",
            null
        ]
    },
    "streets": [
        {
            "name": "Babits Mih\u00e1ly",
            "kind": "utca",
            "post_code": 0
        },
        {
            "name": "Berzsenyi D\u00e1niel",
            "kind": "utca",
            "post_code": 0
        },
        {
            "name": "Csokonai Vit\u00e9z Mih\u00e1ly",
            "kind": "utca",
            "post_code": 0
        },
        {
            "name": "felm\u00e9rend\u0151",
            "kind": "",
            "post_code": 0
        },
        {
            "name": "Fels\u0151pere",
            "kind": "",
            "post_code": 0
        },
        {
            "name": "G\u00e1rdonyi G\u00e9za",
            "kind": "utca",
            "post_code": 0
        },
        {
            "name": "Ibolya",
            "kind": "utca",
            "post_code": 0
        },
        {
            "name": "K\u00e1lv\u00e1ria",
            "kind": "k\u00f6z",
            "post_code": 0
        },
        {
            "name": "Major",
            "kind": "utca",
            "post_code": 0
        },
        {
            "name": "Tarkar\u00e9t",
            "kind": "utca",
            "post_code": 0
        },
        {
            "name": "V\u00e1ci Mih\u00e1ly",
            "kind": "k\u00f6z",
            "post_code": 0
        },
        {
            "name": "V\u00e1ci Mih\u00e1ly",
            "kind": "utca",
            "post_code": 0
        },
        {
            "name": "V\u00f6lgy",
            "kind": "utca",
            "post_code": 0
        },
        {
            "name": "V\u00f6r\u00f6smarty MIh\u00e1ly",
            "kind": "utca",
            "post_code": 0
        }
    ]
}