{
    "codes": {
        "5900": [
            "Orosh\u00e1za",
            null
        ],
        "5903": [
            "Orosh\u00e1za",
            "R\u00e1k\u00f3czitelep"
        ],
        "5904": [
            "Orosh\u00e1za",
            "Gyop\u00e1rosf\u00fcrd\u0151"
        ],
        "5905": [
            "Orosh\u00e1za",
            "Szentetornya"
        ]
    },
    "streets": [
        {
            "name": "\u00c1chim",
            "kind": "utca",
            "post_code": 0
        },
        {
            "name": "Ady Endre",
            "kind": "utca",
            "post_code": 0
        },
        {
            "name": "Ak\u00e1cfa",
            "kind": "utca",
            "post_code": 0
        },
        {
            "name": "Alkotm\u00e1ny",
            "kind": "utca",
            "post_code": 0
        },
        {
            "name": "\u00c1llom\u00e1s",
            "kind": "utca",
            "post_code": 0
        },
        {
            "name": "\u00c1lmos vez\u00e9r",
            "kind": "utca",
            "post_code": 0
        },
        {
            "name": "Als\u00f3tany\u00e1k",
            "kind": "",
            "post_code": 0
        },
        {
            "name": "Aradi",
            "kind": "utca",
            "post_code": 0
        },
        {
            "name": "Aranyes\u0151",
            "kind": "utca",
            "post_code": 0
        },
        {
            "name": "Arany J\u00e1nos",
            "kind": "utca",
            "post_code": 0
        },
        {
            "name": "\u00c1rp\u00e1d",
            "kind": "utca",
            "post_code": 0
        },
        {
            "name": "\u00c1rv\u00e1cska",
            "kind": "utca",
            "post_code": 0
        },
        {
            "name": "Avar",
            "kind": "k\u00f6z",
            "post_code": 0
        },
        {
            "name": "Avar",
            "kind": "utca",
            "post_code": 0
        },
        {
            "name": "Babits Mih\u00e1ly",
            "kind": "utca",
            "post_code": 0
        },
        {
            "name": "B\u00e1cska",
            "kind": "utca",
            "post_code": 0
        },
        {
            "name": "Bajcsy-Zsilinszky",
            "kind": "utca",
            "post_code": 0
        },
        {
            "name": "Bajnok",
            "kind": "utca",
            "post_code": 0
        },
        {
            "name": "Bajza",
            "kind": "utca",
            "post_code": 0
        },
        {
            "name": "Bak\u00f3 J\u00f3zsef",
            "kind": "utca",
            "post_code": 0
        },
        {
            "name": "Balassa P\u00e1l",
            "kind": "utca",
            "post_code": 0
        },
        {
            "name": "Balassi B\u00e1lint",
            "kind": "utca",
            "post_code": 0
        },
        {
            "name": "Balaton",
            "kind": "utca",
            "post_code": 0
        },
        {
            "name": "B\u00e1lv\u00e1ny",
            "kind": "utca",
            "post_code": 0
        },
        {
            "name": "Bar\u00e1ts\u00e1g",
            "kind": "utca",
            "post_code": 0
        },
        {
            "name": "Baross",
            "kind": "utca",
            "post_code": 0
        },
        {
            "name": "Bart\u00f3k B\u00e9la",
            "kind": "\u00fat",
            "post_code": 0
        },
        {
            "name": "Bart\u00f3k B\u00e9la",
            "kind": "utca",
            "post_code": 0
        },
        {
            "name": "B\u00e1thori",
            "kind": "utca",
            "post_code": 0
        },
        {
            "name": "Batthy\u00e1ny",
            "kind": "utca",
            "post_code": 0
        },
        {
            "name": "B\u00e9ke",
            "kind": "utca",
            "post_code": 0
        },
        {
            "name": "Bels\u0151hossz\u00fasor",
            "kind": "tanya",
            "post_code": 0
        },
        {
            "name": "Bels\u0151monortanya",
            "kind": "",
            "post_code": 0
        },
        {
            "name": "Bem J\u00f3zsef",
            "kind": "utca",
            "post_code": 0
        },
        {
            "name": "Bercs\u00e9nyi",
            "kind": "utca",
            "post_code": 0
        },
        {
            "name": "Berzsenyi D\u00e1niel",
            "kind": "utca",
            "post_code": 0
        },
        {
            "name": "Bethlen G\u00e1bor",
            "kind": "utca",
            "post_code": 0
        },
        {
            "name": "Bik\u00e1di",
            "kind": "utca",
            "post_code": 0
        },
        {
            "name": "Bocskai",
            "kind": "utca",
            "post_code": 0
        },
        {
            "name": "Bokr\u00e9ta",
            "kind": "utca",
            "post_code": 0
        },
        {
            "name": "Bor\u00f3ka",
            "kind": "k\u00f6z",
            "post_code": 0
        },
        {
            "name": "Borosty\u00e1n",
            "kind": "utca",
            "post_code": 0
        },
        {
            "name": "Borsika",
            "kind": "utca",
            "post_code": 0
        },
        {
            "name": "Botond",
            "kind": "utca",
            "post_code": 0
        },
        {
            "name": "Budai Nagy Antal",
            "kind": "utca",
            "post_code": 0
        },
        {
            "name": "B\u00faza",
            "kind": "utca",
            "post_code": 0
        },
        {
            "name": "B\u00fazavir\u00e1g",
            "kind": "utca",
            "post_code": 0
        },
        {
            "name": "C\u00e9drus",
            "kind": "k\u00f6z",
            "post_code": 0
        },
        {
            "name": "Ciprus",
            "kind": "k\u00f6z",
            "post_code": 0
        },
        {
            "name": "Corvin J\u00e1nos",
            "kind": "utca",
            "post_code": 0
        },
        {
            "name": "Csabai",
            "kind": "utca",
            "post_code": 0
        },
        {
            "name": "Csalog\u00e1ny",
            "kind": "utca",
            "post_code": 0
        },
        {
            "name": "Csap",
            "kind": "utca",
            "post_code": 0
        },
        {
            "name": "Csendes",
            "kind": "utca",
            "post_code": 0
        },
        {
            "name": "Csengeri",
            "kind": "utca",
            "post_code": 0
        },
        {
            "name": "Csepel",
            "kind": "utca",
            "post_code": 0
        },
        {
            "name": "Csik\u00f3s",
            "kind": "utca",
            "post_code": 0
        },
        {
            "name": "Csillag",
            "kind": "utca",
            "post_code": 0
        },
        {
            "name": "Csizmadia S\u00e1ndor",
            "kind": "utca",
            "post_code": 0
        },
        {
            "name": "Csokonai",
            "kind": "utca",
            "post_code": 0
        },
        {
            "name": "Csongor",
            "kind": "utca",
            "post_code": 0
        },
        {
            "name": "Csorv\u00e1si",
            "kind": "\u00fat",
            "post_code": 0
        },
        {
            "name": "Cs\u0151szh\u00e1z",
            "kind": "utca",
            "post_code": 0
        },
        {
            "name": "Cs\u0151sz",
            "kind": "utca",
            "post_code": 0
        },
        {
            "name": "Dalnok",
            "kind": "utca",
            "post_code": 0
        },
        {
            "name": "Damjanich",
            "kind": "utca",
            "post_code": 0
        },
        {
            "name": "Dank\u00f3 Istv\u00e1n",
            "kind": "utca",
            "post_code": 0
        },
        {
            "name": "De\u00e1k Ferenc",
            "kind": "utca",
            "post_code": 0
        },
        {
            "name": "D\u00e9li",
            "kind": "\u00fat",
            "post_code": 0
        },
        {
            "name": "D\u00e9nes tan\u00edt\u00f3",
            "kind": "utca",
            "post_code": 0
        },
        {
            "name": "Der\u0171",
            "kind": "utca",
            "post_code": 0
        },
        {
            "name": "Dessewffy",
            "kind": "utca",
            "post_code": 0
        },
        {
            "name": "Di\u00f3fa",
            "kind": "utca",
            "post_code": 0
        },
        {
            "name": "Dob\u00f3 Istv\u00e1n",
            "kind": "utca",
            "post_code": 0
        },
        {
            "name": "D\u00f3zsa Gy\u00f6rgy",
            "kind": "utca",
            "post_code": 0
        },
        {
            "name": "Dr. L\u00e1szl\u00f3 Elek",
            "kind": "lak\u00f3telep",
            "post_code": 0
        },
        {
            "name": "Egressy",
            "kind": "utca",
            "post_code": 0
        },
        {
            "name": "Egyet\u00e9rt\u00e9s",
            "kind": "utca",
            "post_code": 0
        },
        {
            "name": "El\u0151d",
            "kind": "utca",
            "post_code": 0
        },
        {
            "name": "E\u00f6tv\u00f6s",
            "kind": "t\u00e9r",
            "post_code": 0
        },
        {
            "name": "E\u00f6tv\u00f6s",
            "kind": "utca",
            "post_code": 0
        },
        {
            "name": "Erd\u0151",
            "kind": "utca",
            "post_code": 0
        },
        {
            "name": "Erkel",
            "kind": "utca",
            "post_code": 0
        },
        {
            "name": "\u00c9szaki",
            "kind": "sor",
            "post_code": 0
        },
        {
            "name": "\u00c9szak",
            "kind": "utca",
            "post_code": 0
        },
        {
            "name": "Esze Tam\u00e1s",
            "kind": "utca",
            "post_code": 0
        },
        {
            "name": "Eszperant\u00f3",
            "kind": "utca",
            "post_code": 0
        },
        {
            "name": "Ez\u00fcsth\u00e1rs",
            "kind": "s\u00e9t\u00e1ny",
            "post_code": 0
        },
        {
            "name": "F\u00e1c\u00e1nos",
            "kind": "utca",
            "post_code": 0
        },
        {
            "name": "Fagy\u00f6ngy",
            "kind": "utca",
            "post_code": 0
        },
        {
            "name": "Falus Elek",
            "kind": "utca",
            "post_code": 0
        },
        {
            "name": "Fasor",
            "kind": "utca",
            "post_code": 0
        },
        {
            "name": "Fecske",
            "kind": "utca",
            "post_code": 0
        },
        {
            "name": "Felh\u0151",
            "kind": "utca",
            "post_code": 0
        },
        {
            "name": "Fels\u0151s\u00f3stany\u00e1k",
            "kind": "",
            "post_code": 0
        },
        {
            "name": "Fels\u0151tany\u00e1k",
            "kind": "",
            "post_code": 0
        },
        {
            "name": "Feny\u0151",
            "kind": "utca",
            "post_code": 0
        },
        {
            "name": "F\u00e9szek",
            "kind": "utca",
            "post_code": 0
        },
        {
            "name": "F\u00f6ldv\u00e1ri",
            "kind": "\u00fat",
            "post_code": 0
        },
        {
            "name": "F\u0151",
            "kind": "utca",
            "post_code": 0
        },
        {
            "name": "F\u00fcrd\u0151",
            "kind": "utca",
            "post_code": 0
        },
        {
            "name": "F\u0171t\u0151h\u00e1z",
            "kind": "utca",
            "post_code": 0
        },
        {
            "name": "G\u00e1bor \u00c1ron",
            "kind": "utca",
            "post_code": 0
        },
        {
            "name": "G\u00e1dorosi",
            "kind": "utca",
            "post_code": 0
        },
        {
            "name": "Galamb",
            "kind": "utca",
            "post_code": 0
        },
        {
            "name": "G\u00e1rdonyi G\u00e9za",
            "kind": "utca",
            "post_code": 0
        },
        {
            "name": "Gell\u00e9rt",
            "kind": "utca",
            "post_code": 0
        },
        {
            "name": "Gizella",
            "kind": "utca",
            "post_code": 0
        },
        {
            "name": "G\u00f3lya",
            "kind": "utca",
            "post_code": 0
        },
        {
            "name": "Gomba",
            "kind": "utca",
            "post_code": 0
        },
        {
            "name": "Gy\u00e1rtelep",
            "kind": "utca",
            "post_code": 0
        },
        {
            "name": "Gy\u00e1r",
            "kind": "utca",
            "post_code": 0
        },
        {
            "name": "Gy\u00f6ngyvir\u00e1g",
            "kind": "utca",
            "post_code": 0
        },
        {
            "name": "Gyop\u00e1rosi",
            "kind": "\u00fat",
            "post_code": 0
        },
        {
            "name": "Gyop\u00e1r",
            "kind": "utca",
            "post_code": 0
        },
        {
            "name": "Gy\u0151ri Vilmos",
            "kind": "t\u00e9r",
            "post_code": 0
        },
        {
            "name": "Gy\u0151zelem",
            "kind": "utca",
            "post_code": 0
        },
        {
            "name": "Gyulai",
            "kind": "utca",
            "post_code": 0
        },
        {
            "name": "Hajnal",
            "kind": "k\u00f6z",
            "post_code": 0
        },
        {
            "name": "Hajnal",
            "kind": "utca",
            "post_code": 0
        },
        {
            "name": "Haj\u00f3",
            "kind": "utca",
            "post_code": 0
        },
        {
            "name": "Hark\u00e1ly",
            "kind": "utca",
            "post_code": 0
        },
        {
            "name": "Harmat",
            "kind": "utca",
            "post_code": 0
        },
        {
            "name": "H\u00e1rsfa",
            "kind": "utca",
            "post_code": 0
        },
        {
            "name": "Hat\u00e1r\u0151r",
            "kind": "utca",
            "post_code": 0
        },
        {
            "name": "Heged\u0171s Istv\u00e1n",
            "kind": "utca",
            "post_code": 0
        },
        {
            "name": "Hern\u00e1d",
            "kind": "utca",
            "post_code": 0
        },
        {
            "name": "H\u00edd",
            "kind": "utca",
            "post_code": 0
        },
        {
            "name": "Hold",
            "kind": "utca",
            "post_code": 0
        },
        {
            "name": "Honv\u00e9d",
            "kind": "utca",
            "post_code": 0
        },
        {
            "name": "Horv\u00e1th Gy\u00f6rgy",
            "kind": "utca",
            "post_code": 0
        },
        {
            "name": "Horv\u00e1th-Pap",
            "kind": "utca",
            "post_code": 0
        },
        {
            "name": "Hossz\u00fa",
            "kind": "utca",
            "post_code": 0
        },
        {
            "name": "H\u00f3vir\u00e1g",
            "kind": "utca",
            "post_code": 0
        },
        {
            "name": "Huba",
            "kind": "utca",
            "post_code": 0
        },
        {
            "name": "Hun",
            "kind": "utca",
            "post_code": 0
        },
        {
            "name": "Hunyadi J\u00e1nos",
            "kind": "utca",
            "post_code": 0
        },
        {
            "name": "Hunyadi L\u00e1szl\u00f3",
            "kind": "utca",
            "post_code": 0
        },
        {
            "name": "Husz\u00e1r",
            "kind": "utca",
            "post_code": 0
        },
        {
            "name": "H\u0171v\u00f6s",
            "kind": "k\u00f6z",
            "post_code": 0
        },
        {
            "name": "H\u0171v\u00f6s",
            "kind": "utca",
            "post_code": 0
        },
        {
            "name": "Ibolya",
            "kind": "utca",
            "post_code": 0
        },
        {
            "name": "Ifj\u00fas\u00e1g",
            "kind": "utca",
            "post_code": 0
        },
        {
            "name": "Igl\u00f3i",
            "kind": "\u00fat",
            "post_code": 0
        },
        {
            "name": "Illy\u00e9s Gyula",
            "kind": "utca",
            "post_code": 0
        },
        {
            "name": "Ir\u00e1nyi D\u00e1niel",
            "kind": "utca",
            "post_code": 0
        },
        {
            "name": "Iskola",
            "kind": "k\u00f6z",
            "post_code": 0
        },
        {
            "name": "Iskola",
            "kind": "utca",
            "post_code": 0
        },
        {
            "name": "J\u00e1cint",
            "kind": "utca",
            "post_code": 0
        },
        {
            "name": "J\u00e1szai-Horv\u00e1th",
            "kind": "utca",
            "post_code": 0
        },
        {
            "name": "J\u00e1zmin",
            "kind": "utca",
            "post_code": 0
        },
        {
            "name": "Jegenye",
            "kind": "utca",
            "post_code": 0
        },
        {
            "name": "J\u00f3kai",
            "kind": "utca",
            "post_code": 0
        },
        {
            "name": "J\u00f3zsef Attila",
            "kind": "utca",
            "post_code": 0
        },
        {
            "name": "Juh\u00e1sz Gyula",
            "kind": "k\u00f6z",
            "post_code": 0
        },
        {
            "name": "Juh\u00e1sz Gyula",
            "kind": "utca",
            "post_code": 0
        },
        {
            "name": "Justh Zsigmond",
            "kind": "utca",
            "post_code": 0
        },
        {
            "name": "Kakassz\u00e9ktanya",
            "kind": "",
            "post_code": 0
        },
        {
            "name": "K\u00e1lm\u00e1n Imre",
            "kind": "utca",
            "post_code": 0
        },
        {
            "name": "Kamilla",
            "kind": "utca",
            "post_code": 0
        },
        {
            "name": "K\u00e1r\u00e1sz",
            "kind": "utca",
            "post_code": 0
        },
        {
            "name": "K\u00e1rolyi Mih\u00e1ly",
            "kind": "utca",
            "post_code": 0
        },
        {
            "name": "K\u00e1rp\u00e1t",
            "kind": "utca",
            "post_code": 0
        },
        {
            "name": "Katona-Kis",
            "kind": "utca",
            "post_code": 0
        },
        {
            "name": "Katona",
            "kind": "utca",
            "post_code": 0
        },
        {
            "name": "Kazinczy",
            "kind": "k\u00f6z",
            "post_code": 0
        },
        {
            "name": "Kazinczy",
            "kind": "utca",
            "post_code": 0
        },
        {
            "name": "K\u00e9knefelejcs",
            "kind": "utca",
            "post_code": 0
        },
        {
            "name": "Kelet",
            "kind": "utca",
            "post_code": 0
        },
        {
            "name": "K\u00e9pessy Istv\u00e1n",
            "kind": "utca",
            "post_code": 0
        },
        {
            "name": "Kerekt\u00f3",
            "kind": "utca",
            "post_code": 0
        },
        {
            "name": "Kerek",
            "kind": "utca",
            "post_code": 0
        },
        {
            "name": "Kereszt",
            "kind": "utca",
            "post_code": 0
        },
        {
            "name": "Kert\u00e9szh\u00e1z",
            "kind": "utca",
            "post_code": 0
        },
        {
            "name": "Kert\u00e9sz",
            "kind": "utca",
            "post_code": 0
        },
        {
            "name": "Kert",
            "kind": "utca",
            "post_code": 0
        },
        {
            "name": "Kett\u0151ss\u00e1nc",
            "kind": "t\u00e9r",
            "post_code": 0
        },
        {
            "name": "K\u00edgy\u00f3",
            "kind": "utca",
            "post_code": 0
        },
        {
            "name": "Kinizsi",
            "kind": "utca",
            "post_code": 0
        },
        {
            "name": "Kisfaludy",
            "kind": "utca",
            "post_code": 0
        },
        {
            "name": "Kishegy",
            "kind": "utca",
            "post_code": 0
        },
        {
            "name": "Kis",
            "kind": "k\u00f6z",
            "post_code": 0
        },
        {
            "name": "Kismarton",
            "kind": "utca",
            "post_code": 0
        },
        {
            "name": "Kiss Ern\u0151",
            "kind": "utca",
            "post_code": 0
        },
        {
            "name": "Kisszik",
            "kind": "utca",
            "post_code": 0
        },
        {
            "name": "Kistemplom",
            "kind": "utca",
            "post_code": 0
        },
        {
            "name": "Kis",
            "kind": "utca",
            "post_code": 0
        },
        {
            "name": "Kisvas\u00fat",
            "kind": "utca",
            "post_code": 0
        },
        {
            "name": "Klapka Gy\u00f6rgy",
            "kind": "utca",
            "post_code": 0
        },
        {
            "name": "Kod\u00e1ly Zolt\u00e1n",
            "kind": "utca",
            "post_code": 0
        },
        {
            "name": "Koh\u00e1n Gy\u00f6rgy",
            "kind": "utca",
            "post_code": 0
        },
        {
            "name": "K\u00f6lcsey Ferenc",
            "kind": "utca",
            "post_code": 0
        },
        {
            "name": "K\u00f6nd",
            "kind": "utca",
            "post_code": 0
        },
        {
            "name": "K\u00f3rh\u00e1z",
            "kind": "utca",
            "post_code": 0
        },
        {
            "name": "K\u0151r\u00f6si Csoma S\u00e1ndor",
            "kind": "utca",
            "post_code": 0
        },
        {
            "name": "K\u00f6rte",
            "kind": "utca",
            "post_code": 0
        },
        {
            "name": "K\u00f3s K\u00e1roly",
            "kind": "utca",
            "post_code": 0
        },
        {
            "name": "Kossuth Lajos",
            "kind": "utca",
            "post_code": 0
        },
        {
            "name": "Kossuth",
            "kind": "t\u00e9r",
            "post_code": 0
        },
        {
            "name": "Koszor\u00fa",
            "kind": "utca",
            "post_code": 0
        },
        {
            "name": "Kosztol\u00e1nyi Dezs\u0151",
            "kind": "utca",
            "post_code": 0
        },
        {
            "name": "K\u00f6z\u00e9pd\u0171l\u0151",
            "kind": "utca",
            "post_code": 0
        },
        {
            "name": "K\u00f6z\u00e9plaki",
            "kind": "utca",
            "post_code": 0
        },
        {
            "name": "K\u00f6zs\u00e9gporta",
            "kind": "",
            "post_code": 0
        },
        {
            "name": "Kupa vez\u00e9r",
            "kind": "utca",
            "post_code": 0
        },
        {
            "name": "Kurta",
            "kind": "utca",
            "post_code": 0
        },
        {
            "name": "Kutasi",
            "kind": "utca",
            "post_code": 0
        },
        {
            "name": "Lachner Gy\u00f6rgy",
            "kind": "utca",
            "post_code": 0
        },
        {
            "name": "Laposi f\u00f6ldek",
            "kind": "tanya",
            "post_code": 0
        },
        {
            "name": "L\u00e1z\u00e1r Vilmos",
            "kind": "utca",
            "post_code": 0
        },
        {
            "name": "Lehel",
            "kind": "utca",
            "post_code": 0
        },
        {
            "name": "L\u00e9nia",
            "kind": "utca",
            "post_code": 0
        },
        {
            "name": "Lenkei",
            "kind": "utca",
            "post_code": 0
        },
        {
            "name": "Lepke",
            "kind": "utca",
            "post_code": 0
        },
        {
            "name": "Lev\u00e9l",
            "kind": "utca",
            "post_code": 0
        },
        {
            "name": "Libapiac",
            "kind": "t\u00e9r",
            "post_code": 0
        },
        {
            "name": "Liget",
            "kind": "sor",
            "post_code": 0
        },
        {
            "name": "Liget",
            "kind": "utca",
            "post_code": 0
        },
        {
            "name": "Liliom",
            "kind": "utca",
            "post_code": 0
        },
        {
            "name": "Liszt Ferenc",
            "kind": "utca",
            "post_code": 0
        },
        {
            "name": "Lomb",
            "kind": "utca",
            "post_code": 0
        },
        {
            "name": "L\u00f3r\u00e1ntffy",
            "kind": "utca",
            "post_code": 0
        },
        {
            "name": "Lugas",
            "kind": "utca",
            "post_code": 0
        },
        {
            "name": "Luther",
            "kind": "utca",
            "post_code": 0
        },
        {
            "name": "Mad\u00e1ch",
            "kind": "utca",
            "post_code": 0
        },
        {
            "name": "Major",
            "kind": "utca",
            "post_code": 0
        },
        {
            "name": "Makkos",
            "kind": "utca",
            "post_code": 0
        },
        {
            "name": "Mak\u00f3i",
            "kind": "utca",
            "post_code": 0
        },
        {
            "name": "M\u00e1lna",
            "kind": "utca",
            "post_code": 0
        },
        {
            "name": "Malom",
            "kind": "utca",
            "post_code": 0
        },
        {
            "name": "M\u00e1rcius 15.",
            "kind": "t\u00e9r",
            "post_code": 0
        },
        {
            "name": "Maros",
            "kind": "utca",
            "post_code": 0
        },
        {
            "name": "Martinovics",
            "kind": "utca",
            "post_code": 0
        },
        {
            "name": "M\u00e1ty\u00e1s Kir\u00e1ly",
            "kind": "utca",
            "post_code": 0
        },
        {
            "name": "Melinda",
            "kind": "utca",
            "post_code": 0
        },
        {
            "name": "Mez\u0151",
            "kind": "utca",
            "post_code": 0
        },
        {
            "name": "Mikes",
            "kind": "utca",
            "post_code": 0
        },
        {
            "name": "Mikolai",
            "kind": "utca",
            "post_code": 0
        },
        {
            "name": "Miksz\u00e1th K\u00e1lm\u00e1n",
            "kind": "utca",
            "post_code": 0
        },
        {
            "name": "Mogyor\u00f3",
            "kind": "utca",
            "post_code": 0
        },
        {
            "name": "Moh\u00e1cs",
            "kind": "utca",
            "post_code": 0
        },
        {
            "name": "Mokry S\u00e1muel",
            "kind": "utca",
            "post_code": 0
        },
        {
            "name": "M\u00f3ra Ferenc",
            "kind": "utca",
            "post_code": 0
        },
        {
            "name": "M\u00f3ricz Zsigmond",
            "kind": "utca",
            "post_code": 0
        },
        {
            "name": "Motor",
            "kind": "utca",
            "post_code": 0
        },
        {
            "name": "Mozdony",
            "kind": "utca",
            "post_code": 0
        },
        {
            "name": "Munk\u00e1csy Mih\u00e1ly",
            "kind": "utca",
            "post_code": 0
        },
        {
            "name": "N\u00e1dasdy",
            "kind": "utca",
            "post_code": 0
        },
        {
            "name": "N\u00e1dor",
            "kind": "utca",
            "post_code": 0
        },
        {
            "name": "Nagyat\u00e1di Szab\u00f3 Istv\u00e1n",
            "kind": "utca",
            "post_code": 0
        },
        {
            "name": "Nagyhegyi",
            "kind": "\u00fat",
            "post_code": 0
        },
        {
            "name": "Nagy L\u00e1szl\u00f3",
            "kind": "utca",
            "post_code": 0
        },
        {
            "name": "Nagy S\u00e1ndor",
            "kind": "utca",
            "post_code": 0
        },
        {
            "name": "Napsug\u00e1r",
            "kind": "utca",
            "post_code": 0
        },
        {
            "name": "Nap",
            "kind": "utca",
            "post_code": 0
        },
        {
            "name": "N\u00e1rcisz",
            "kind": "utca",
            "post_code": 0
        },
        {
            "name": "Nefelejcs",
            "kind": "utca",
            "post_code": 0
        },
        {
            "name": "N\u00e9meth L\u00e1szl\u00f3",
            "kind": "utca",
            "post_code": 0
        },
        {
            "name": "Ny\u00e1rfa",
            "kind": "utca",
            "post_code": 0
        },
        {
            "name": "Ny\u00e1r",
            "kind": "utca",
            "post_code": 0
        },
        {
            "name": "Okt\u00f3ber 6.",
            "kind": "utca",
            "post_code": 0
        },
        {
            "name": "Ol\u00e1h Istv\u00e1n",
            "kind": "utca",
            "post_code": 0
        },
        {
            "name": "Ond",
            "kind": "utca",
            "post_code": 0
        },
        {
            "name": "Orgona",
            "kind": "utca",
            "post_code": 0
        },
        {
            "name": "\u0150szir\u00f3zsa",
            "kind": "utca",
            "post_code": 0
        },
        {
            "name": "\u0150sz",
            "kind": "utca",
            "post_code": 0
        },
        {
            "name": "Pacsirta",
            "kind": "utca",
            "post_code": 0
        },
        {
            "name": "Paprika",
            "kind": "utca",
            "post_code": 0
        },
        {
            "name": "Park",
            "kind": "k\u00f6z",
            "post_code": 0
        },
        {
            "name": "Park",
            "kind": "utca",
            "post_code": 0
        },
        {
            "name": "Patak",
            "kind": "utca",
            "post_code": 0
        },
        {
            "name": "P\u00e1va",
            "kind": "utca",
            "post_code": 0
        },
        {
            "name": "P\u00e1zsit",
            "kind": "utca",
            "post_code": 0
        },
        {
            "name": "P\u00e9ter P\u00e1l",
            "kind": "utca",
            "post_code": 0
        },
        {
            "name": "Pet\u0151fi",
            "kind": "utca",
            "post_code": 0
        },
        {
            "name": "Pipacs",
            "kind": "utca",
            "post_code": 0
        },
        {
            "name": "Posta",
            "kind": "utca",
            "post_code": 0
        },
        {
            "name": "Pusztaszenttornya",
            "kind": "",
            "post_code": 0
        },
        {
            "name": "Pusztaszeri",
            "kind": "\u00fat",
            "post_code": 0
        },
        {
            "name": "Radn\u00f3ti Mikl\u00f3s",
            "kind": "utca",
            "post_code": 0
        },
        {
            "name": "Rajki J\u00f3zsef",
            "kind": "utca",
            "post_code": 0
        },
        {
            "name": "R\u00e1k\u00f3czi",
            "kind": "\u00fat",
            "post_code": 0
        },
        {
            "name": "Raks\u00e1nyi Imre",
            "kind": "\u00fat",
            "post_code": 0
        },
        {
            "name": "Raks\u00e1nyi",
            "kind": "k\u00f6z",
            "post_code": 0
        },
        {
            "name": "Retek",
            "kind": "utca",
            "post_code": 0
        },
        {
            "name": "R\u00e9t",
            "kind": "utca",
            "post_code": 0
        },
        {
            "name": "Rezeda",
            "kind": "utca",
            "post_code": 0
        },
        {
            "name": "Rig\u00f3",
            "kind": "utca",
            "post_code": 0
        },
        {
            "name": "R\u00f3na",
            "kind": "utca",
            "post_code": 0
        },
        {
            "name": "R\u00f6vid",
            "kind": "k\u00f6z",
            "post_code": 0
        },
        {
            "name": "Rozmaring",
            "kind": "utca",
            "post_code": 0
        },
        {
            "name": "R\u00f3zsa",
            "kind": "utca",
            "post_code": 0
        },
        {
            "name": "Saj\u00f3",
            "kind": "utca",
            "post_code": 0
        },
        {
            "name": "S\u00e1msoni",
            "kind": "utca",
            "post_code": 0
        },
        {
            "name": "Sas",
            "kind": "utca",
            "post_code": 0
        },
        {
            "name": "S\u00edp",
            "kind": "utca",
            "post_code": 0
        },
        {
            "name": "So\u00f3s J\u00f3zsef",
            "kind": "utca",
            "post_code": 0
        },
        {
            "name": "Sport",
            "kind": "utca",
            "post_code": 0
        },
        {
            "name": "Springer",
            "kind": "d\u0171l\u0151",
            "post_code": 0
        },
        {
            "name": "Szabads\u00e1g",
            "kind": "t\u00e9r",
            "post_code": 0
        },
        {
            "name": "Szabads\u00e1g",
            "kind": "utca",
            "post_code": 0
        },
        {
            "name": "Szab\u00f3 Dezs\u0151",
            "kind": "utca",
            "post_code": 0
        },
        {
            "name": "Szabolcs",
            "kind": "utca",
            "post_code": 0
        },
        {
            "name": "Szab\u00f3 L\u0151rinc",
            "kind": "utca",
            "post_code": 0
        },
        {
            "name": "Szamos",
            "kind": "utca",
            "post_code": 0
        },
        {
            "name": "Sz\u00e1nt\u00f3 Kov\u00e1cs J\u00e1nos",
            "kind": "utca",
            "post_code": 0
        },
        {
            "name": "Szarvasi",
            "kind": "\u00fat",
            "post_code": 0
        },
        {
            "name": "Szarvasi",
            "kind": "utca",
            "post_code": 0
        },
        {
            "name": "Sz\u00e1zszorsz\u00e9p",
            "kind": "utca",
            "post_code": 0
        },
        {
            "name": "Sz\u00e9chenyi",
            "kind": "t\u00e9r",
            "post_code": 0
        },
        {
            "name": "Szegf\u0171",
            "kind": "utca",
            "post_code": 0
        },
        {
            "name": "Sz\u00e9k\u00e1cs J\u00f3zsef",
            "kind": "utca",
            "post_code": 0
        },
        {
            "name": "Sz\u00e9kely",
            "kind": "utca",
            "post_code": 0
        },
        {
            "name": "Sz\u00e9ls\u0151",
            "kind": "utca",
            "post_code": 0
        },
        {
            "name": "Szentesi",
            "kind": "\u00fat",
            "post_code": 0
        },
        {
            "name": "Szent Istv\u00e1n",
            "kind": "utca",
            "post_code": 0
        },
        {
            "name": "Szeszf\u0151zde",
            "kind": "utca",
            "post_code": 0
        },
        {
            "name": "Sziget",
            "kind": "utca",
            "post_code": 0
        },
        {
            "name": "Szil\u00e1gyi Erzs\u00e9bet",
            "kind": "utca",
            "post_code": 0
        },
        {
            "name": "Sz\u00edv",
            "kind": "utca",
            "post_code": 0
        },
        {
            "name": "Sz\u0151l\u0151\u00e1rok",
            "kind": "utca",
            "post_code": 0
        },
        {
            "name": "Sz\u0151l\u0151",
            "kind": "k\u00f6r\u00fat",
            "post_code": 0
        },
        {
            "name": "Szondy",
            "kind": "utca",
            "post_code": 0
        },
        {
            "name": "Sz\u00f6vetkez\u00e9s",
            "kind": "utca",
            "post_code": 0
        },
        {
            "name": "Sz\u00fcret",
            "kind": "utca",
            "post_code": 0
        },
        {
            "name": "T\u00e1bor",
            "kind": "utca",
            "post_code": 0
        },
        {
            "name": "Tam\u00e1si \u00c1ron",
            "kind": "utca",
            "post_code": 0
        },
        {
            "name": "T\u00e1ncsics Mih\u00e1ly",
            "kind": "utca",
            "post_code": 0
        },
        {
            "name": "T\u00e1rogat\u00f3",
            "kind": "utca",
            "post_code": 0
        },
        {
            "name": "Tass",
            "kind": "utca",
            "post_code": 0
        },
        {
            "name": "Tat\u00e1rs\u00e1nctanya",
            "kind": "",
            "post_code": 0
        },
        {
            "name": "T\u00e1tika",
            "kind": "utca",
            "post_code": 0
        },
        {
            "name": "T\u00e1tra",
            "kind": "utca",
            "post_code": 0
        },
        {
            "name": "Tavasz",
            "kind": "utca",
            "post_code": 0
        },
        {
            "name": "T\u00e9glagy\u00e1ri",
            "kind": "\u00fat",
            "post_code": 0
        },
        {
            "name": "Teleki",
            "kind": "utca",
            "post_code": 0
        },
        {
            "name": "T\u00e9l",
            "kind": "utca",
            "post_code": 0
        },
        {
            "name": "Temet\u0151",
            "kind": "utca",
            "post_code": 0
        },
        {
            "name": "Ter\u00e9z",
            "kind": "utca",
            "post_code": 0
        },
        {
            "name": "Th\u00e9k Endre",
            "kind": "utca",
            "post_code": 0
        },
        {
            "name": "Th\u00f6k\u00f6ly",
            "kind": "utca",
            "post_code": 0
        },
        {
            "name": "Tin\u00f3di",
            "kind": "utca",
            "post_code": 0
        },
        {
            "name": "T\u00f6h\u00f6t\u00f6m",
            "kind": "utca",
            "post_code": 0
        },
        {
            "name": "Toldi Mikl\u00f3s",
            "kind": "utca",
            "post_code": 0
        },
        {
            "name": "Tolnai",
            "kind": "utca",
            "post_code": 0
        },
        {
            "name": "Tompa Mih\u00e1ly",
            "kind": "utca",
            "post_code": 0
        },
        {
            "name": "T\u00f3part",
            "kind": "utca",
            "post_code": 0
        },
        {
            "name": "Torkos K\u00e1roly",
            "kind": "utca",
            "post_code": 0
        },
        {
            "name": "T\u00f6r\u00f6k Ign\u00e1c",
            "kind": "utca",
            "post_code": 0
        },
        {
            "name": "T\u00f3",
            "kind": "utca",
            "post_code": 0
        },
        {
            "name": "T\u00fck\u00f6r",
            "kind": "utca",
            "post_code": 0
        },
        {
            "name": "Tulip\u00e1n",
            "kind": "utca",
            "post_code": 0
        },
        {
            "name": "\u00dcveg",
            "kind": "k\u00f6z",
            "post_code": 0
        },
        {
            "name": "Uzsoki",
            "kind": "utca",
            "post_code": 0
        },
        {
            "name": "V\u00e1ci Mih\u00e1ly",
            "kind": "utca",
            "post_code": 0
        },
        {
            "name": "Vad\u00e1sz",
            "kind": "utca",
            "post_code": 0
        },
        {
            "name": "Vajda",
            "kind": "k\u00f6z",
            "post_code": 0
        },
        {
            "name": "Vajda",
            "kind": "utca",
            "post_code": 0
        },
        {
            "name": "V\u00e1s\u00e1rhelyi",
            "kind": "\u00fat",
            "post_code": 0
        },
        {
            "name": "Vasv\u00e1ri P\u00e1l",
            "kind": "utca",
            "post_code": 0
        },
        {
            "name": "V\u00e9csei",
            "kind": "utca",
            "post_code": 0
        },
        {
            "name": "V\u00e9g",
            "kind": "k\u00f6z",
            "post_code": 0
        },
        {
            "name": "Vereckei",
            "kind": "utca",
            "post_code": 0
        },
        {
            "name": "Veres P\u00e9ter",
            "kind": "utca",
            "post_code": 0
        },
        {
            "name": "Veress J\u00f3zsef",
            "kind": "utca",
            "post_code": 0
        },
        {
            "name": "Vez\u00e9r",
            "kind": "utca",
            "post_code": 0
        },
        {
            "name": "Viola",
            "kind": "utca",
            "post_code": 0
        },
        {
            "name": "Vir\u00e1g",
            "kind": "utca",
            "post_code": 0
        },
        {
            "name": "Vit\u00e1lis Istv\u00e1n",
            "kind": "utca",
            "post_code": 0
        },
        {
            "name": "V\u00edz",
            "kind": "utca",
            "post_code": 0
        },
        {
            "name": "V\u00f6r\u00f6smarty",
            "kind": "utca",
            "post_code": 0
        },
        {
            "name": "Z\u00f6ldfa",
            "kind": "k\u00f6z",
            "post_code": 0
        },
        {
            "name": "Z\u00f6ldfa",
            "kind": "utca",
            "post_code": 0
        },
        {
            "name": "Z\u00f6ldmez\u0151",
            "kind": "utca",
            "post_code": 0
        },
        {
            "name": "Zombai",
            "kind": "utca",
            "post_code": 0
        },
        {
            "name": "Zr\u00ednyi",
            "kind": "utca",
            "post_code": 0
        },
        {
            "name": "Zsin\u00f3r",
            "kind": "utca",
            "post_code": 0
        }
    ]
}