{
    "codes": {
        "9090": [
            "Pannonhalma",
            null
        ]
    },
    "streets": [
        {
            "name": "Ady Endre",
            "kind": "utca",
            "post_code": 0
        },
        {
            "name": "Alkotm\u00e1ny",
            "kind": "\u00fat",
            "post_code": 0
        },
        {
            "name": "Arany J\u00e1nos",
            "kind": "\u00fat",
            "post_code": 0
        },
        {
            "name": "Arany J\u00e1nos",
            "kind": "utca",
            "post_code": 0
        },
        {
            "name": "\u00c1rp\u00e1d",
            "kind": "utca",
            "post_code": 0
        },
        {
            "name": "Attila",
            "kind": "utca",
            "post_code": 0
        },
        {
            "name": "Bajcsy-Zsilinszky Endre",
            "kind": "utca",
            "post_code": 0
        },
        {
            "name": "B\u00e9ke",
            "kind": "utca",
            "post_code": 0
        },
        {
            "name": "Bocskai",
            "kind": "utca",
            "post_code": 0
        },
        {
            "name": "Cseiderv\u00f6lgy",
            "kind": "",
            "post_code": 0
        },
        {
            "name": "Dallos S\u00e1ndor",
            "kind": "utca",
            "post_code": 0
        },
        {
            "name": "D\u00f3zsa Gy\u00f6rgy",
            "kind": "utca",
            "post_code": 0
        },
        {
            "name": "Fenyvesalja",
            "kind": "utca",
            "post_code": 0
        },
        {
            "name": "Gizella kir\u00e1lyn\u00e9",
            "kind": "\u00fatja",
            "post_code": 0
        },
        {
            "name": "H\u00f3vir\u00e1g",
            "kind": "utca",
            "post_code": 0
        },
        {
            "name": "Hunyadi",
            "kind": "utca",
            "post_code": 0
        },
        {
            "name": "Illakalja",
            "kind": "",
            "post_code": 0
        },
        {
            "name": "Imre herceg",
            "kind": "\u00fatja",
            "post_code": 0
        },
        {
            "name": "Istv\u00e1n kir\u00e1ly",
            "kind": "utca",
            "post_code": 0
        },
        {
            "name": "Kisfaludy",
            "kind": "utca",
            "post_code": 0
        },
        {
            "name": "Kossuth Lajos",
            "kind": "utca",
            "post_code": 0
        },
        {
            "name": "Lest\u00e1r",
            "kind": "utca",
            "post_code": 0
        },
        {
            "name": "M\u00e1ty\u00e1s kir\u00e1ly",
            "kind": "utca",
            "post_code": 0
        },
        {
            "name": "Pet\u0151fi S\u00e1ndor",
            "kind": "utca",
            "post_code": 0
        },
        {
            "name": "Radn\u00f3ti Mikl\u00f3s",
            "kind": "utca",
            "post_code": 0
        },
        {
            "name": "R\u00e1k\u00f3czi Ferenc",
            "kind": "utca",
            "post_code": 0
        },
        {
            "name": "R\u00e1k",
            "kind": "utca",
            "post_code": 0
        },
        {
            "name": "S\u00e1gv\u00e1ri Endre",
            "kind": "utca",
            "post_code": 0
        },
        {
            "name": "Szabads\u00e1g",
            "kind": "t\u00e9r",
            "post_code": 0
        },
        {
            "name": "Tab\u00e1n",
            "kind": "",
            "post_code": 0
        },
        {
            "name": "T\u00f3thegy",
            "kind": "",
            "post_code": 0
        },
        {
            "name": "V\u00e1ralja",
            "kind": "utca",
            "post_code": 0
        },
        {
            "name": "Zr\u00ednyi",
            "kind": "utca",
            "post_code": 0
        }
    ]
}