{
    "codes": {
        "3242": [
            "Par\u00e1dsasv\u00e1r",
            null
        ]
    },
    "streets": [
        {
            "name": "Arany J\u00e1nos",
            "kind": "utca",
            "post_code": 0
        },
        {
            "name": "B\u00e9ke",
            "kind": "utca",
            "post_code": 0
        },
        {
            "name": "F\u00e9nyes-pagony",
            "kind": "",
            "post_code": 0
        },
        {
            "name": "gerinc",
            "kind": "",
            "post_code": 0
        },
        {
            "name": "Geszteny\u00e9s",
            "kind": "utca",
            "post_code": 0
        },
        {
            "name": "Gilice",
            "kind": "utca",
            "post_code": 0
        },
        {
            "name": "Imr\u00e9di-kanyar",
            "kind": "",
            "post_code": 0
        },
        {
            "name": "Kossuth Lajos",
            "kind": "utca",
            "post_code": 0
        },
        {
            "name": "Pet\u0151fi S\u00e1ndor",
            "kind": "utca",
            "post_code": 0
        },
        {
            "name": "R\u00e1k\u00f3czi Ferenc",
            "kind": "utca",
            "post_code": 0
        },
        {
            "name": "Rudolftanyai-\u00fat",
            "kind": "",
            "post_code": 0
        },
        {
            "name": "Szabads\u00e1g",
            "kind": "utca",
            "post_code": 0
        },
        {
            "name": "T\u00e9rfy B\u00e9la",
            "kind": "\u00fat",
            "post_code": 0
        },
        {
            "name": "Vizt\u00e1roz\u00f3",
            "kind": "",
            "post_code": 0
        }
    ]
}