{
    "codes": {
        "3240": [
            "Par\u00e1d",
            null
        ],
        "3244": [
            "Par\u00e1d",
            "Par\u00e1df\u00fcrd\u0151"
        ]
    },
    "streets": [
        {
            "name": "Ady Endre",
            "kind": "utca",
            "post_code": 0
        },
        {
            "name": "Ak\u00e1cfa",
            "kind": "utca",
            "post_code": 0
        },
        {
            "name": "B\u00e1nyalaposi",
            "kind": "utca",
            "post_code": 0
        },
        {
            "name": "B\u00e9ke",
            "kind": "utca",
            "post_code": 0
        },
        {
            "name": "Cifra",
            "kind": "utca",
            "post_code": 0
        },
        {
            "name": "Clarissa",
            "kind": "utca",
            "post_code": 0
        },
        {
            "name": "Dank\u00f3 Pista",
            "kind": "utca",
            "post_code": 0
        },
        {
            "name": "Dobra",
            "kind": "utca",
            "post_code": 0
        },
        {
            "name": "D\u00f3zsa Gy\u00f6rgy",
            "kind": "utca",
            "post_code": 0
        },
        {
            "name": "\u00c9m\u00e1ly",
            "kind": "utca",
            "post_code": 0
        },
        {
            "name": "Erd\u0151 alja",
            "kind": "utca",
            "post_code": 0
        },
        {
            "name": "F\u00e1y Andr\u00e1s",
            "kind": "utca",
            "post_code": 0
        },
        {
            "name": "Feh\u00e9rk\u0151",
            "kind": "utca",
            "post_code": 0
        },
        {
            "name": "F\u00e9nyes-pagony",
            "kind": "",
            "post_code": 0
        },
        {
            "name": "Fenyves",
            "kind": "\u00fat",
            "post_code": 0
        },
        {
            "name": "H\u00e1rsfa",
            "kind": "utca",
            "post_code": 0
        },
        {
            "name": "Hegyalja",
            "kind": "utca",
            "post_code": 0
        },
        {
            "name": "Hidegki",
            "kind": "\u00fat",
            "post_code": 0
        },
        {
            "name": "Hunyadi J\u00e1nos",
            "kind": "utca",
            "post_code": 0
        },
        {
            "name": "Hurok",
            "kind": "\u00fat",
            "post_code": 0
        },
        {
            "name": "Ifj\u00fas\u00e1g",
            "kind": "k\u00f6z",
            "post_code": 0
        },
        {
            "name": "Ifj\u00fas\u00e1g",
            "kind": "utca",
            "post_code": 0
        },
        {
            "name": "II. R\u00e1k\u00f3czi Ferenc",
            "kind": "utca",
            "post_code": 0
        },
        {
            "name": "J\u00f3kai M\u00f3r",
            "kind": "utca",
            "post_code": 0
        },
        {
            "name": "K\u00e1rolyi Mih\u00e1ly",
            "kind": "utca",
            "post_code": 0
        },
        {
            "name": "K\u00e9kesi",
            "kind": "\u00fat",
            "post_code": 0
        },
        {
            "name": "Kossuth Lajos",
            "kind": "\u00fat",
            "post_code": 0
        },
        {
            "name": "Krist\u00e1ly",
            "kind": "\u00fat",
            "post_code": 0
        },
        {
            "name": "M\u00e1trai",
            "kind": "utca",
            "post_code": 0
        },
        {
            "name": "M\u00e9h\u00e9szkert",
            "kind": "utca",
            "post_code": 0
        },
        {
            "name": "Mohos",
            "kind": "\u00fat",
            "post_code": 0
        },
        {
            "name": "M\u00fcller",
            "kind": "k\u00f6z",
            "post_code": 0
        },
        {
            "name": "Pavilon",
            "kind": "sor",
            "post_code": 0
        },
        {
            "name": "Peres",
            "kind": "utca",
            "post_code": 0
        },
        {
            "name": "Pet\u0151fi S\u00e1ndor",
            "kind": "utca",
            "post_code": 0
        },
        {
            "name": "R\u00f3zsa Ferenc",
            "kind": "utca",
            "post_code": 0
        },
        {
            "name": "S\u00e1ri",
            "kind": "\u00fat",
            "post_code": 0
        },
        {
            "name": "S\u00edfut\u00f3",
            "kind": "\u00fat",
            "post_code": 0
        },
        {
            "name": "Simon",
            "kind": "utca",
            "post_code": 0
        },
        {
            "name": "Szabads\u00e1g",
            "kind": "utca",
            "post_code": 0
        },
        {
            "name": "Sz\u00e9chenyi Istv\u00e1n",
            "kind": "\u00fat",
            "post_code": 0
        },
        {
            "name": "Sziget",
            "kind": "utca",
            "post_code": 0
        },
        {
            "name": "Temet\u0151",
            "kind": "utca",
            "post_code": 0
        },
        {
            "name": "Toldi Mikl\u00f3s",
            "kind": "utca",
            "post_code": 0
        },
        {
            "name": "T\u00f6lgyfa",
            "kind": "utca",
            "post_code": 0
        },
        {
            "name": "V\u00e1rhegy",
            "kind": "utca",
            "post_code": 0
        },
        {
            "name": "Volt Cifra h\u00edd",
            "kind": "",
            "post_code": 0
        },
        {
            "name": "Wessel\u00e9nyi Mikl\u00f3s",
            "kind": "utca",
            "post_code": 0
        },
        {
            "name": "Wiltner",
            "kind": "\u00fat",
            "post_code": 0
        }
    ]
}