{
    "codes": {
        "2009": [
            "Pilisszentl\u00e1szl\u00f3",
            null
        ]
    },
    "streets": [
        {
            "name": "\u00c1rnyas",
            "kind": "utca",
            "post_code": 0
        },
        {
            "name": "B\u00e9ke",
            "kind": "utca",
            "post_code": 0
        },
        {
            "name": "B\u00e9la kir\u00e1ly",
            "kind": "utca",
            "post_code": 0
        },
        {
            "name": "Csalog\u00e1ny",
            "kind": "utca",
            "post_code": 0
        },
        {
            "name": "D\u00f3zsa Gy\u00f6rgy",
            "kind": "utca",
            "post_code": 0
        },
        {
            "name": "Erd\u0151alja",
            "kind": "utca",
            "post_code": 0
        },
        {
            "name": "Feny\u0151sor",
            "kind": "utca",
            "post_code": 0
        },
        {
            "name": "Galagonya",
            "kind": "utca",
            "post_code": 0
        },
        {
            "name": "Gerle",
            "kind": "utca",
            "post_code": 0
        },
        {
            "name": "Honv\u00e9d",
            "kind": "utca",
            "post_code": 0
        },
        {
            "name": "Ibolya",
            "kind": "utca",
            "post_code": 0
        },
        {
            "name": "K\u00e1polna",
            "kind": "k\u00f6z",
            "post_code": 0
        },
        {
            "name": "K\u00e9kes",
            "kind": "utca",
            "post_code": 0
        },
        {
            "name": "K\u00f6k\u00e9ny",
            "kind": "utca",
            "post_code": 0
        },
        {
            "name": "Kossuth Lajos",
            "kind": "utca",
            "post_code": 0
        },
        {
            "name": "Mozg\u00e1ss\u00e9r\u00fclt felhajt\u00f3",
            "kind": "",
            "post_code": 0
        },
        {
            "name": "Pet\u0151fi S\u00e1ndor",
            "kind": "utca",
            "post_code": 0
        },
        {
            "name": "Pet\u0151fi",
            "kind": "t\u00e9r",
            "post_code": 0
        },
        {
            "name": "R\u00f3zsahegy",
            "kind": "utca",
            "post_code": 0
        },
        {
            "name": "Som",
            "kind": "k\u00f6z",
            "post_code": 0
        },
        {
            "name": "Szabads\u00e1g",
            "kind": "t\u00e9r",
            "post_code": 0
        },
        {
            "name": "Szarvas",
            "kind": "utca",
            "post_code": 0
        },
        {
            "name": "Szentendrei",
            "kind": "\u00fat",
            "post_code": 0
        },
        {
            "name": "Szentendrei",
            "kind": "utca",
            "post_code": 0
        },
        {
            "name": "Templom",
            "kind": "k\u00f6z",
            "post_code": 0
        },
        {
            "name": "T\u00f6lgyfa",
            "kind": "utca",
            "post_code": 0
        },
        {
            "name": "Vadr\u00f3zsa",
            "kind": "utca",
            "post_code": 0
        }
    ]
}