{
    "streets": [
        {
            "name": "Ady Endre",
            "kind": "utca",
            "post_code": 0
        },
        {
            "name": "Ak\u00e1cfa",
            "kind": "utca",
            "post_code": 0
        },
        {
            "name": "\u00c1lmos vez\u00e9r",
            "kind": "utca",
            "post_code": 0
        },
        {
            "name": "\u00c1lomv\u00f6lgyi",
            "kind": "lak\u00f3park",
            "post_code": 0
        },
        {
            "name": "Arany J\u00e1nos",
            "kind": "utca",
            "post_code": 0
        },
        {
            "name": "\u00c1rok",
            "kind": "utca",
            "post_code": 0
        },
        {
            "name": "\u00c1rp\u00e1d vez\u00e9r",
            "kind": "utca",
            "post_code": 0
        },
        {
            "name": "Attila",
            "kind": "utca",
            "post_code": 0
        },
        {
            "name": "Aulich Lajos",
            "kind": "utca",
            "post_code": 0
        },
        {
            "name": "Bajcsy-Zsilinszky",
            "kind": "utca",
            "post_code": 0
        },
        {
            "name": "Balassi B\u00e1lint",
            "kind": "utca",
            "post_code": 0
        },
        {
            "name": "Bart\u00f3k B\u00e9la",
            "kind": "utca",
            "post_code": 0
        },
        {
            "name": "Batthy\u00e1ny Lajos",
            "kind": "utca",
            "post_code": 0
        },
        {
            "name": "B\u00e9la kir\u00e1ly",
            "kind": "utca",
            "post_code": 0
        },
        {
            "name": "B\u00e9rc",
            "kind": "k\u00f6z",
            "post_code": 0
        },
        {
            "name": "B\u00e9rc",
            "kind": "utca",
            "post_code": 0
        },
        {
            "name": "Berek",
            "kind": "utca",
            "post_code": 0
        },
        {
            "name": "Bethlen G\u00e1bor",
            "kind": "utca",
            "post_code": 0
        },
        {
            "name": "Bodzavir\u00e1g",
            "kind": "utca",
            "post_code": 0
        },
        {
            "name": "Borosty\u00e1n",
            "kind": "utca",
            "post_code": 0
        },
        {
            "name": "B\u00fckk\u00f6s-\u00e1rok",
            "kind": "",
            "post_code": 0
        },
        {
            "name": "B\u00fazavir\u00e1g",
            "kind": "k\u00f6z",
            "post_code": 0
        },
        {
            "name": "Csabagy\u00f6ngye",
            "kind": "s\u00e9t\u00e1ny",
            "post_code": 0
        },
        {
            "name": "Csaba kir\u00e1lyfi",
            "kind": "utca",
            "post_code": 0
        },
        {
            "name": "Cs\u00e9vi",
            "kind": "\u00fat",
            "post_code": 0
        },
        {
            "name": "Csokonai",
            "kind": "utca",
            "post_code": 0
        },
        {
            "name": "Cs\u00fccs\u00f6k-k\u00f6z",
            "kind": "",
            "post_code": 0
        },
        {
            "name": "Damjanich J\u00e1nos",
            "kind": "utca",
            "post_code": 0
        },
        {
            "name": "De\u00e1k Ferenc",
            "kind": "utca",
            "post_code": 0
        },
        {
            "name": "Dessewffy Arisztid",
            "kind": "utca",
            "post_code": 0
        },
        {
            "name": "D\u00e9v\u00e9nyi Antal",
            "kind": "utca",
            "post_code": 0
        },
        {
            "name": "Domb",
            "kind": "utca",
            "post_code": 0
        },
        {
            "name": "D\u0171l\u0151",
            "kind": "utca",
            "post_code": 0
        },
        {
            "name": "Egyetem K\u00f6z",
            "kind": "",
            "post_code": 0
        },
        {
            "name": "Egyetem",
            "kind": "utca",
            "post_code": 0
        },
        {
            "name": "Erd\u0151sor",
            "kind": "utca",
            "post_code": 0
        },
        {
            "name": "Erkel Ferenc",
            "kind": "utca",
            "post_code": 0
        },
        {
            "name": "Erzs\u00e9bet",
            "kind": "k\u00f6z",
            "post_code": 0
        },
        {
            "name": "F\u00e9nyesliget",
            "kind": "s\u00e9t\u00e1ny",
            "post_code": 0
        },
        {
            "name": "Fenyvesligeti",
            "kind": "s\u00e9t\u00e1ny",
            "post_code": 0
        },
        {
            "name": "Ferenc forr\u00e1s",
            "kind": "\u00fatja",
            "post_code": 0
        },
        {
            "name": "F\u0151",
            "kind": "\u00fat",
            "post_code": 0
        },
        {
            "name": "Galagonya",
            "kind": "utca",
            "post_code": 0
        },
        {
            "name": "Garancsi",
            "kind": "\u00fat",
            "post_code": 0
        },
        {
            "name": "Garancs",
            "kind": "s\u00e9t\u00e1ny",
            "post_code": 0
        },
        {
            "name": "G\u00e1rdonyi G\u00e9za",
            "kind": "utca",
            "post_code": 0
        },
        {
            "name": "Golgota",
            "kind": "utca",
            "post_code": 0
        },
        {
            "name": "Gomba",
            "kind": "k\u00f6z",
            "post_code": 0
        },
        {
            "name": "Gomba",
            "kind": "utca",
            "post_code": 0
        },
        {
            "name": "Gy\u00f6ngyvir\u00e1g",
            "kind": "utca",
            "post_code": 0
        },
        {
            "name": "H\u00e1rsfa",
            "kind": "utca",
            "post_code": 0
        },
        {
            "name": "Hegyalja",
            "kind": "utca",
            "post_code": 0
        },
        {
            "name": "Hegy",
            "kind": "utca",
            "post_code": 0
        },
        {
            "name": "Honfoglal\u00e1s",
            "kind": "\u00fatja",
            "post_code": 0
        },
        {
            "name": "Honv\u00e9d",
            "kind": "utca",
            "post_code": 0
        },
        {
            "name": "H\u00f3vir\u00e1g",
            "kind": "utca",
            "post_code": 0
        },
        {
            "name": "Hrabina",
            "kind": "utca",
            "post_code": 0
        },
        {
            "name": "Ibolya",
            "kind": "utca",
            "post_code": 0
        },
        {
            "name": "Iskola",
            "kind": "utca",
            "post_code": 0
        },
        {
            "name": "J\u00f3kai M\u00f3r",
            "kind": "utca",
            "post_code": 0
        },
        {
            "name": "J\u00f3zsef Attila",
            "kind": "k\u00f6z",
            "post_code": 0
        },
        {
            "name": "J\u00f3zsef Attila",
            "kind": "utca",
            "post_code": 0
        },
        {
            "name": "J\u00f3zsef liget",
            "kind": "k\u00f6z",
            "post_code": 0
        },
        {
            "name": "J\u00f3zsef liget",
            "kind": "utca",
            "post_code": 0
        },
        {
            "name": "Juhar",
            "kind": "fasor",
            "post_code": 0
        },
        {
            "name": "K\u00e1lm\u00e1n kir\u00e1ly",
            "kind": "utca",
            "post_code": 0
        },
        {
            "name": "K\u00e1lv\u00e1ria",
            "kind": "utca",
            "post_code": 0
        },
        {
            "name": "Kamillavir\u00e1g",
            "kind": "k\u00f6z",
            "post_code": 0
        },
        {
            "name": "K\u00e1rolyi Mih\u00e1ly",
            "kind": "utca",
            "post_code": 0
        },
        {
            "name": "Kenderesi",
            "kind": "\u00fat",
            "post_code": 0
        },
        {
            "name": "Kert",
            "kind": "utca",
            "post_code": 0
        },
        {
            "name": "Kil\u00e1t\u00f3",
            "kind": "utca",
            "post_code": 0
        },
        {
            "name": "Kinizsi P\u00e1l",
            "kind": "utca",
            "post_code": 0
        },
        {
            "name": "Kisfaludy",
            "kind": "utca",
            "post_code": 0
        },
        {
            "name": "K\u00f6k\u00e9ny",
            "kind": "utca",
            "post_code": 0
        },
        {
            "name": "K\u0151ris",
            "kind": "fasor",
            "post_code": 0
        },
        {
            "name": "K\u0151ris-v\u00f6lgy",
            "kind": "",
            "post_code": 0
        },
        {
            "name": "Kossuth Lajos",
            "kind": "k\u00f6z",
            "post_code": 0
        },
        {
            "name": "Kossuth Lajos",
            "kind": "utca",
            "post_code": 0
        },
        {
            "name": "Levendula",
            "kind": "k\u00f6z",
            "post_code": 0
        },
        {
            "name": "Levendula",
            "kind": "utca",
            "post_code": 0
        },
        {
            "name": "Levente",
            "kind": "utca",
            "post_code": 0
        },
        {
            "name": "Liszt Ferenc",
            "kind": "utca",
            "post_code": 0
        },
        {
            "name": "Lovarda",
            "kind": "k\u00f6z",
            "post_code": 0
        },
        {
            "name": "M\u00e1jus 1.",
            "kind": "utca",
            "post_code": 0
        },
        {
            "name": "Margar\u00e9ta",
            "kind": "k\u00f6z",
            "post_code": 0
        },
        {
            "name": "M\u00e1ria-park",
            "kind": "utca",
            "post_code": 0
        },
        {
            "name": "M\u00e1ria",
            "kind": "utca",
            "post_code": 0
        },
        {
            "name": "M\u00e1ty\u00e1s kir\u00e1ly",
            "kind": "utca",
            "post_code": 0
        },
        {
            "name": "M\u00e1ty\u00e1s",
            "kind": "k\u00f6z",
            "post_code": 0
        },
        {
            "name": "M\u00f3ricz Zsigmond",
            "kind": "utca",
            "post_code": 0
        },
        {
            "name": "Munk\u00e1csy Mih\u00e1ly",
            "kind": "k\u00f6z",
            "post_code": 0
        },
        {
            "name": "Munk\u00e1csy Mih\u00e1ly",
            "kind": "utca",
            "post_code": 0
        },
        {
            "name": "N\u00e1das",
            "kind": "utca",
            "post_code": 0
        },
        {
            "name": "N\u00e1dorerd\u0151",
            "kind": "utca",
            "post_code": 0
        },
        {
            "name": "Nagybaczoni Nagy Vilmos",
            "kind": "utca",
            "post_code": 0
        },
        {
            "name": "N\u00e1rcisz",
            "kind": "utca",
            "post_code": 0
        },
        {
            "name": "Ny\u00e1r",
            "kind": "fasor",
            "post_code": 0
        },
        {
            "name": "Orgona",
            "kind": "k\u00f6z",
            "post_code": 0
        },
        {
            "name": "Panor\u00e1ma",
            "kind": "\u00fat",
            "post_code": 0
        },
        {
            "name": "P\u00e1skom liget",
            "kind": "utca",
            "post_code": 0
        },
        {
            "name": "P\u00e1zm\u00e1ny P\u00e9ter",
            "kind": "k\u00f6z",
            "post_code": 0
        },
        {
            "name": "Pet\u0151fi S\u00e1ndor",
            "kind": "utca",
            "post_code": 0
        },
        {
            "name": "Pipacs",
            "kind": "k\u00f6z",
            "post_code": 0
        },
        {
            "name": "Plat\u00e1n",
            "kind": "k\u00f6z",
            "post_code": 0
        },
        {
            "name": "R\u00e1czv\u00f6lgy",
            "kind": "k\u00f6z",
            "post_code": 0
        },
        {
            "name": "R\u00e1czv\u00f6lgy",
            "kind": "utca",
            "post_code": 0
        },
        {
            "name": "Radn\u00f3ti Mikl\u00f3s",
            "kind": "utca",
            "post_code": 0
        },
        {
            "name": "R\u00e9t",
            "kind": "utca",
            "post_code": 0
        },
        {
            "name": "R\u00f3mai",
            "kind": "utca",
            "post_code": 0
        },
        {
            "name": "R\u00f3zsa",
            "kind": "k\u00f6z",
            "post_code": 0
        },
        {
            "name": "R\u00f3zsa",
            "kind": "utca",
            "post_code": 0
        },
        {
            "name": "Somly\u00f3",
            "kind": "k\u00f6z",
            "post_code": 0
        },
        {
            "name": "Somly\u00f3",
            "kind": "utca",
            "post_code": 0
        },
        {
            "name": "Sz\u00e1ll\u00e1s",
            "kind": "k\u00f6z",
            "post_code": 0
        },
        {
            "name": "Sz\u00e1ll\u00e1s",
            "kind": "utca",
            "post_code": 0
        },
        {
            "name": "Sz\u00e1nt\u00f3i",
            "kind": "utca",
            "post_code": 0
        },
        {
            "name": "Szarkal\u00e1b",
            "kind": "k\u00f6z",
            "post_code": 0
        },
        {
            "name": "Sz\u00e9chenyi",
            "kind": "k\u00f6z",
            "post_code": 0
        },
        {
            "name": "Sz\u00e9chenyi",
            "kind": "utca",
            "post_code": 0
        },
        {
            "name": "Szent Istv\u00e1n kir\u00e1ly",
            "kind": "k\u00f6z",
            "post_code": 0
        },
        {
            "name": "Szent Istv\u00e1n kir\u00e1ly",
            "kind": "\u00fatja",
            "post_code": 0
        },
        {
            "name": "Szent L\u00e1szl\u00f3 kir\u00e1ly",
            "kind": "utca",
            "post_code": 0
        },
        {
            "name": "T\u00e1bor",
            "kind": "k\u00f6z",
            "post_code": 0
        },
        {
            "name": "Tam\u00e1si \u00c1ron",
            "kind": "utca",
            "post_code": 0
        },
        {
            "name": "Temet\u0151",
            "kind": "utca",
            "post_code": 0
        },
        {
            "name": "Templom",
            "kind": "t\u00e9r",
            "post_code": 0
        },
        {
            "name": "Tompa Mih\u00e1ly",
            "kind": "utca",
            "post_code": 0
        },
        {
            "name": "T\u00f3",
            "kind": "s\u00e9t\u00e1ny",
            "post_code": 0
        },
        {
            "name": "\u00daj",
            "kind": "utca",
            "post_code": 0
        },
        {
            "name": "Vadrezeda",
            "kind": "k\u00f6z",
            "post_code": 0
        },
        {
            "name": "V\u00e1r",
            "kind": "utca",
            "post_code": 0
        },
        {
            "name": "Vas\u00fat",
            "kind": "utca",
            "post_code": 0
        },
        {
            "name": "V\u00e9gs\u0151",
            "kind": "utca",
            "post_code": 0
        },
        {
            "name": "Veres P\u00e9ter",
            "kind": "utca",
            "post_code": 0
        },
        {
            "name": "V\u00f6lgy",
            "kind": "utca",
            "post_code": 0
        },
        {
            "name": "V\u00f6r\u00f6smarty Mih\u00e1ly",
            "kind": "utca",
            "post_code": 0
        },
        {
            "name": "Wessel\u00e9nyi",
            "kind": "utca",
            "post_code": 0
        },
        {
            "name": "Zajn\u00e1thegyi",
            "kind": "utca",
            "post_code": 0
        },
        {
            "name": "Zajn\u00e1t",
            "kind": "k\u00f6z",
            "post_code": 0
        },
        {
            "name": "Zr\u00ednyi Mikl\u00f3s",
            "kind": "utca",
            "post_code": 0
        }
    ]
}