{
    "codes": {
        "5665": [
            "Pusztaottlaka",
            null
        ]
    },
    "streets": [
        {
            "name": "Cig\u00e1nyhomok",
            "kind": "d\u0171l\u0151",
            "post_code": 0
        },
        {
            "name": "D\u00e9l-B\u00e9k\u00e9si",
            "kind": "utca",
            "post_code": 0
        },
        {
            "name": "D\u00f3zsa",
            "kind": "utca",
            "post_code": 0
        },
        {
            "name": "Drag\u00e1n",
            "kind": "utca",
            "post_code": 0
        },
        {
            "name": "Hunyadi",
            "kind": "utca",
            "post_code": 0
        },
        {
            "name": "J\u00f3zsef Attila",
            "kind": "utca",
            "post_code": 0
        },
        {
            "name": "Kossuth",
            "kind": "utca",
            "post_code": 0
        },
        {
            "name": "Szent Gy\u00f6rgy",
            "kind": "utca",
            "post_code": 0
        },
        {
            "name": "Tavasz",
            "kind": "utca",
            "post_code": 0
        }
    ]
}