{
    "codes": {
        "3630": [
            "Putnok",
            null
        ]
    },
    "streets": [
        {
            "name": "Ady Endre",
            "kind": "\u00fat",
            "post_code": 0
        },
        {
            "name": "Ak\u00e1cos",
            "kind": "\u00fat",
            "post_code": 0
        },
        {
            "name": "\u00c1llom\u00e1s",
            "kind": "\u00fat",
            "post_code": 0
        },
        {
            "name": "Andr\u00e1ssy D\u00e9nes",
            "kind": "\u00fat",
            "post_code": 0
        },
        {
            "name": "Arany J\u00e1nos",
            "kind": "\u00fat",
            "post_code": 0
        },
        {
            "name": "\u00c1rp\u00e1d vez\u00e9r",
            "kind": "\u00fat",
            "post_code": 0
        },
        {
            "name": "Bajcsy-Zsilinszky",
            "kind": "\u00fat",
            "post_code": 0
        },
        {
            "name": "Balogh B\u00e9la",
            "kind": "\u00fat",
            "post_code": 0
        },
        {
            "name": "B\u00e1ny\u00e1sz-t\u00e9r",
            "kind": "",
            "post_code": 0
        },
        {
            "name": "B\u00e1ny\u00e1sz",
            "kind": "\u00fat",
            "post_code": 0
        },
        {
            "name": "Bart\u00f3k B\u00e9la",
            "kind": "\u00fat",
            "post_code": 0
        },
        {
            "name": "B\u00e1thori",
            "kind": "\u00fat",
            "post_code": 0
        },
        {
            "name": "Bem J\u00f3zsef",
            "kind": "t\u00e9r",
            "post_code": 0
        },
        {
            "name": "Berkenye",
            "kind": "\u00fat",
            "post_code": 0
        },
        {
            "name": "Csemetekert",
            "kind": "",
            "post_code": 0
        },
        {
            "name": "Csokonai",
            "kind": "\u00fat",
            "post_code": 0
        },
        {
            "name": "Dank\u00f3",
            "kind": "telep",
            "post_code": 0
        },
        {
            "name": "Dienesfalvi",
            "kind": "\u00fat",
            "post_code": 0
        },
        {
            "name": "D\u00f3zsa Gy\u00f6rgy",
            "kind": "\u00fat",
            "post_code": 0
        },
        {
            "name": "Erd\u00e9lyi",
            "kind": "\u00fat",
            "post_code": 0
        },
        {
            "name": "Fancsal",
            "kind": "\u00fat",
            "post_code": 0
        },
        {
            "name": "F\u00fcrd\u0151",
            "kind": "\u00fat",
            "post_code": 0
        },
        {
            "name": "G\u00e1rdonyi",
            "kind": "\u00fat",
            "post_code": 0
        },
        {
            "name": "G\u00f6m\u00f6ri",
            "kind": "\u00fat",
            "post_code": 0
        },
        {
            "name": "Hat\u00e1r",
            "kind": "\u00fat",
            "post_code": 0
        },
        {
            "name": "H\u00e9ti",
            "kind": "\u00fat",
            "post_code": 0
        },
        {
            "name": "Hunyadi",
            "kind": "\u00fat",
            "post_code": 0
        },
        {
            "name": "Husz\u00e1r",
            "kind": "\u00fat",
            "post_code": 0
        },
        {
            "name": "J\u00f3kai",
            "kind": "\u00fat",
            "post_code": 0
        },
        {
            "name": "K\u00edgy\u00f3",
            "kind": "\u00fat",
            "post_code": 0
        },
        {
            "name": "Kir\u00e1ldi h\u00edd",
            "kind": "",
            "post_code": 0
        },
        {
            "name": "Kir\u00e1ldi",
            "kind": "\u00fat",
            "post_code": 0
        },
        {
            "name": "Kisk\u00f6z",
            "kind": "",
            "post_code": 0
        },
        {
            "name": "K\u00f6lcsey Ferenc",
            "kind": "\u00fat",
            "post_code": 0
        },
        {
            "name": "Kossuth",
            "kind": "\u00fat",
            "post_code": 0
        },
        {
            "name": "Lak\u00f3telep",
            "kind": "",
            "post_code": 0
        },
        {
            "name": "Lehel vez\u00e9r",
            "kind": "\u00fat",
            "post_code": 0
        },
        {
            "name": "M\u00e1ty\u00e1s kir\u00e1ly",
            "kind": "t\u00e9r",
            "post_code": 0
        },
        {
            "name": "Miksz\u00e1th K\u00e1lm\u00e1n",
            "kind": "\u00fat",
            "post_code": 0
        },
        {
            "name": "Mohos",
            "kind": "s\u00e9t\u00e1ny",
            "post_code": 0
        },
        {
            "name": "Moln\u00e1r",
            "kind": "\u00fat",
            "post_code": 0
        },
        {
            "name": "M\u00f3ricz Zsigmond",
            "kind": "\u00fat",
            "post_code": 0
        },
        {
            "name": "P\u00e1st",
            "kind": "\u00fat",
            "post_code": 0
        },
        {
            "name": "P\u00e9czeli",
            "kind": "\u00fat",
            "post_code": 0
        },
        {
            "name": "Pet\u0151fi",
            "kind": "\u00fat",
            "post_code": 0
        },
        {
            "name": "Pogonyi",
            "kind": "\u00fat",
            "post_code": 0
        },
        {
            "name": "Pokaj",
            "kind": "\u00fat",
            "post_code": 0
        },
        {
            "name": "Posta-k\u00f6z",
            "kind": "",
            "post_code": 0
        },
        {
            "name": "Pusk\u00e1s Ferenc",
            "kind": "\u00fat",
            "post_code": 0
        },
        {
            "name": "R\u00e1k\u00f3czi",
            "kind": "\u00fat",
            "post_code": 0
        },
        {
            "name": "R\u00f3zsadomb",
            "kind": "\u00fat",
            "post_code": 0
        },
        {
            "name": "Saj\u00f3",
            "kind": "\u00fat",
            "post_code": 0
        },
        {
            "name": "Ser\u00e9nyi B\u00e9la",
            "kind": "utca",
            "post_code": 0
        },
        {
            "name": "Ser\u00e9nyi L\u00e1szl\u00f3",
            "kind": "t\u00e9r",
            "post_code": 0
        },
        {
            "name": "Sz\u00e9chenyi",
            "kind": "t\u00e9r",
            "post_code": 0
        },
        {
            "name": "Szkala Bertalan",
            "kind": "\u00fat",
            "post_code": 0
        },
        {
            "name": "T\u00e1ncsics Mih\u00e1ly",
            "kind": "\u00fat",
            "post_code": 0
        },
        {
            "name": "Temet\u0151",
            "kind": "\u00fat",
            "post_code": 0
        },
        {
            "name": "Th\u00f6k\u00f6ly",
            "kind": "\u00fat",
            "post_code": 0
        },
        {
            "name": "Thomori",
            "kind": "\u00fat",
            "post_code": 0
        },
        {
            "name": "Tompa Mih\u00e1ly",
            "kind": "\u00fat",
            "post_code": 0
        },
        {
            "name": "T\u00f3th Ede",
            "kind": "\u00fat",
            "post_code": 0
        },
        {
            "name": "Traktoros rutinp\u00e1lya",
            "kind": "",
            "post_code": 0
        },
        {
            "name": "V\u00e1s\u00e1rt\u00e9ri",
            "kind": "\u00fat",
            "post_code": 0
        },
        {
            "name": "Zr\u00ednyi Mikl\u00f3s",
            "kind": "\u00fat",
            "post_code": 0
        },
        {
            "name": "Zsarnai",
            "kind": "\u00fat",
            "post_code": 0
        },
        {
            "name": "Z\u00fag\u00f3",
            "kind": "\u00fat",
            "post_code": 0
        }
    ]
}