{
    "codes": {
        "2071": [
            "P\u00e1ty",
            null
        ]
    },
    "streets": [
        {
            "name": "Ady Endre",
            "kind": "utca",
            "post_code": 0
        },
        {
            "name": "Ak\u00e1cfa",
            "kind": "utca",
            "post_code": 0
        },
        {
            "name": "Arany J\u00e1nos",
            "kind": "utca",
            "post_code": 0
        },
        {
            "name": "\u00c1rnyas",
            "kind": "utca",
            "post_code": 0
        },
        {
            "name": "\u00c1rp\u00e1d",
            "kind": "utca",
            "post_code": 0
        },
        {
            "name": "Bacs\u00f3 B\u00e9la",
            "kind": "utca",
            "post_code": 0
        },
        {
            "name": "B\u00e1nya",
            "kind": "utca",
            "post_code": 0
        },
        {
            "name": "Bart\u00f3k B\u00e9la",
            "kind": "utca",
            "post_code": 0
        },
        {
            "name": "B\u00e9la kir\u00e1ly",
            "kind": "utca",
            "post_code": 0
        },
        {
            "name": "Bem J\u00f3zsef",
            "kind": "utca",
            "post_code": 0
        },
        {
            "name": "Benedek Elek",
            "kind": "utca",
            "post_code": 0
        },
        {
            "name": "Bethlen G\u00e1bor",
            "kind": "utca",
            "post_code": 0
        },
        {
            "name": "B\u00f3bita",
            "kind": "utca",
            "post_code": 0
        },
        {
            "name": "Bocskai",
            "kind": "k\u00f6z",
            "post_code": 0
        },
        {
            "name": "Bocskai",
            "kind": "utca",
            "post_code": 0
        },
        {
            "name": "Bogl\u00e1rka",
            "kind": "utca",
            "post_code": 0
        },
        {
            "name": "Bor\u00f3ka",
            "kind": "utca",
            "post_code": 0
        },
        {
            "name": "Borz",
            "kind": "utca",
            "post_code": 0
        },
        {
            "name": "Burgondia",
            "kind": "",
            "post_code": 0
        },
        {
            "name": "Burgondia",
            "kind": "utca",
            "post_code": 0
        },
        {
            "name": "Csalog\u00e1ny",
            "kind": "utca",
            "post_code": 0
        },
        {
            "name": "Csereszny\u00e9s",
            "kind": "utca",
            "post_code": 0
        },
        {
            "name": "Cserfa",
            "kind": "utca",
            "post_code": 0
        },
        {
            "name": "Csilla von Boeselager",
            "kind": "utca",
            "post_code": 0
        },
        {
            "name": "De\u00e1k Ferenc",
            "kind": "utca",
            "post_code": 0
        },
        {
            "name": "Di\u00f3fa",
            "kind": "utca",
            "post_code": 0
        },
        {
            "name": "Dobog\u00f3",
            "kind": "utca",
            "post_code": 0
        },
        {
            "name": "D\u00f3zsa Gy\u00f6rgy",
            "kind": "utca",
            "post_code": 0
        },
        {
            "name": "Elvira",
            "kind": "k\u00f6r\u00fat",
            "post_code": 0
        },
        {
            "name": "Erd\u0151alja",
            "kind": "utca",
            "post_code": 0
        },
        {
            "name": "Erd\u0151",
            "kind": "utca",
            "post_code": 0
        },
        {
            "name": "Erkel Ferenc",
            "kind": "utca",
            "post_code": 0
        },
        {
            "name": "Estike",
            "kind": "utca",
            "post_code": 0
        },
        {
            "name": "Fagy\u00f6ngy",
            "kind": "utca",
            "post_code": 0
        },
        {
            "name": "Fazekas Mih\u00e1ly",
            "kind": "utca",
            "post_code": 0
        },
        {
            "name": "Fecske",
            "kind": "utca",
            "post_code": 0
        },
        {
            "name": "Fenyves",
            "kind": "utca",
            "post_code": 0
        },
        {
            "name": "Forr\u00e1si",
            "kind": "t\u00e9r",
            "post_code": 0
        },
        {
            "name": "Forr\u00e1s",
            "kind": "utca",
            "post_code": 0
        },
        {
            "name": "F\u00fcrj",
            "kind": "utca",
            "post_code": 0
        },
        {
            "name": "F\u00fczespatak",
            "kind": "utca",
            "post_code": 0
        },
        {
            "name": "Galagonya",
            "kind": "k\u00f6z",
            "post_code": 0
        },
        {
            "name": "Galagonya",
            "kind": "utca",
            "post_code": 0
        },
        {
            "name": "Guyon Rich\u00e1rd",
            "kind": "utca",
            "post_code": 0
        },
        {
            "name": "Gy\u00e1rtelep",
            "kind": "utca",
            "post_code": 0
        },
        {
            "name": "Gy\u00f6ngyvir\u00e1g",
            "kind": "utca",
            "post_code": 0
        },
        {
            "name": "Gyop\u00e1r",
            "kind": "k\u00f6z",
            "post_code": 0
        },
        {
            "name": "Gyop\u00e1r",
            "kind": "utca",
            "post_code": 0
        },
        {
            "name": "Hajnalka",
            "kind": "k\u00f6z",
            "post_code": 0
        },
        {
            "name": "Hajnalka",
            "kind": "utca",
            "post_code": 0
        },
        {
            "name": "Harmat",
            "kind": "utca",
            "post_code": 0
        },
        {
            "name": "H\u00e1rsfa",
            "kind": "utca",
            "post_code": 0
        },
        {
            "name": "Hat\u00e1r",
            "kind": "\u00fat",
            "post_code": 0
        },
        {
            "name": "Hegyalja",
            "kind": "utca",
            "post_code": 0
        },
        {
            "name": "Horthy",
            "kind": "k\u00f6z",
            "post_code": 0
        },
        {
            "name": "H\u00f3vir\u00e1g",
            "kind": "utca",
            "post_code": 0
        },
        {
            "name": "Hunyadi J\u00e1nos",
            "kind": "utca",
            "post_code": 0
        },
        {
            "name": "Ibolya",
            "kind": "utca",
            "post_code": 0
        },
        {
            "name": "Iskola",
            "kind": "utca",
            "post_code": 0
        },
        {
            "name": "J\u00f3kai",
            "kind": "k\u00f6z",
            "post_code": 0
        },
        {
            "name": "J\u00f3zsef Attila",
            "kind": "utca",
            "post_code": 0
        },
        {
            "name": "Kaktusz",
            "kind": "k\u00f6z",
            "post_code": 0
        },
        {
            "name": "Kankalin",
            "kind": "utca",
            "post_code": 0
        },
        {
            "name": "Kerekdombi",
            "kind": "\u00fat",
            "post_code": 0
        },
        {
            "name": "Kincsem",
            "kind": "k\u00f6z",
            "post_code": 0
        },
        {
            "name": "Kod\u00e1ly Zolt\u00e1n",
            "kind": "utca",
            "post_code": 0
        },
        {
            "name": "K\u00f6k\u00e9ny",
            "kind": "utca",
            "post_code": 0
        },
        {
            "name": "K\u00f6k\u00f6rcsin",
            "kind": "utca",
            "post_code": 0
        },
        {
            "name": "K\u00f6lcsey",
            "kind": "utca",
            "post_code": 0
        },
        {
            "name": "K\u00f6rt\u00e9s",
            "kind": "utca",
            "post_code": 0
        },
        {
            "name": "Kossuth Lajos",
            "kind": "utca",
            "post_code": 0
        },
        {
            "name": "Kov\u00e1cs Imre",
            "kind": "utca",
            "post_code": 0
        },
        {
            "name": "Kuck\u00f3hegyi",
            "kind": "k\u00f6z",
            "post_code": 0
        },
        {
            "name": "Kuck\u00f3hegyi",
            "kind": "utca",
            "post_code": 0
        },
        {
            "name": "Levendula",
            "kind": "utca",
            "post_code": 0
        },
        {
            "name": "Liget",
            "kind": "k\u00f6z",
            "post_code": 0
        },
        {
            "name": "Liget",
            "kind": "utca",
            "post_code": 0
        },
        {
            "name": "Liliom",
            "kind": "utca",
            "post_code": 0
        },
        {
            "name": "Magashegyi",
            "kind": "lejt\u0151",
            "post_code": 0
        },
        {
            "name": "M\u00e1jus 1.",
            "kind": "utca",
            "post_code": 0
        },
        {
            "name": "M\u00e1lyva",
            "kind": "utca",
            "post_code": 0
        },
        {
            "name": "Maros",
            "kind": "utca",
            "post_code": 0
        },
        {
            "name": "M\u00e9ly\u00e1rok",
            "kind": "utca",
            "post_code": 0
        },
        {
            "name": "M\u00e9zeshegy",
            "kind": "utca",
            "post_code": 0
        },
        {
            "name": "Mocsai Gyula",
            "kind": "utca",
            "post_code": 0
        },
        {
            "name": "M\u00f3kus",
            "kind": "utca",
            "post_code": 0
        },
        {
            "name": "M\u00f3ricz Zsigmond",
            "kind": "utca",
            "post_code": 0
        },
        {
            "name": "Munk\u00e1s",
            "kind": "t\u00e9r",
            "post_code": 0
        },
        {
            "name": "Nagyhegy",
            "kind": "utca",
            "post_code": 0
        },
        {
            "name": "Napraforg\u00f3",
            "kind": "utca",
            "post_code": 0
        },
        {
            "name": "Nefelejcs",
            "kind": "k\u00f6z",
            "post_code": 0
        },
        {
            "name": "Nefelejcs",
            "kind": "utca",
            "post_code": 0
        },
        {
            "name": "Ny\u00edrfa",
            "kind": "utca",
            "post_code": 0
        },
        {
            "name": "Orgona",
            "kind": "utca",
            "post_code": 0
        },
        {
            "name": "\u0150sz",
            "kind": "utca",
            "post_code": 0
        },
        {
            "name": "\u0150zike",
            "kind": "utca",
            "post_code": 0
        },
        {
            "name": "P\u00e1skom",
            "kind": "k\u00f6z",
            "post_code": 0
        },
        {
            "name": "P\u00e1skom",
            "kind": "utca",
            "post_code": 0
        },
        {
            "name": "Pestihegyi",
            "kind": "utca",
            "post_code": 0
        },
        {
            "name": "Pet\u0151fi S\u00e1ndor",
            "kind": "utca",
            "post_code": 0
        },
        {
            "name": "Pincehegy",
            "kind": "utca",
            "post_code": 0
        },
        {
            "name": "Pincesor",
            "kind": "",
            "post_code": 0
        },
        {
            "name": "Pint\u00e9rhegyi",
            "kind": "utca",
            "post_code": 0
        },
        {
            "name": "Pipacs",
            "kind": "utca",
            "post_code": 0
        },
        {
            "name": "R\u00e1k\u00f3czi Ferenc",
            "kind": "utca",
            "post_code": 0
        },
        {
            "name": "R\u00e9t",
            "kind": "k\u00f6z",
            "post_code": 0
        },
        {
            "name": "R\u00e9t",
            "kind": "utca",
            "post_code": 0
        },
        {
            "name": "Rig\u00f3",
            "kind": "utca",
            "post_code": 0
        },
        {
            "name": "R\u00f3zsa",
            "kind": "utca",
            "post_code": 0
        },
        {
            "name": "Sereg\u00e9lyes",
            "kind": "utca",
            "post_code": 0
        },
        {
            "name": "Somogyi B\u00e9la",
            "kind": "utca",
            "post_code": 0
        },
        {
            "name": "Som",
            "kind": "utca",
            "post_code": 0
        },
        {
            "name": "Sz\u00e1zszorsz\u00e9p",
            "kind": "utca",
            "post_code": 0
        },
        {
            "name": "Sz\u00e9chenyi",
            "kind": "utca",
            "post_code": 0
        },
        {
            "name": "Szeder",
            "kind": "utca",
            "post_code": 0
        },
        {
            "name": "Szegf\u0171",
            "kind": "utca",
            "post_code": 0
        },
        {
            "name": "Szilfa",
            "kind": "utca",
            "post_code": 0
        },
        {
            "name": "Sz\u0151l\u0151skert",
            "kind": "utca",
            "post_code": 0
        },
        {
            "name": "T\u00e1tika",
            "kind": "utca",
            "post_code": 0
        },
        {
            "name": "Tavasz",
            "kind": "utca",
            "post_code": 0
        },
        {
            "name": "Tavir\u00f3zsa",
            "kind": "k\u00f6z",
            "post_code": 0
        },
        {
            "name": "Tavir\u00f3zsa",
            "kind": "utca",
            "post_code": 0
        },
        {
            "name": "Telki",
            "kind": "\u00fat",
            "post_code": 0
        },
        {
            "name": "Temet\u0151",
            "kind": "utca",
            "post_code": 0
        },
        {
            "name": "T\u00f6ki",
            "kind": "utca",
            "post_code": 0
        },
        {
            "name": "T\u00f6lgyfa",
            "kind": "utca",
            "post_code": 0
        },
        {
            "name": "Torb\u00e1gyi",
            "kind": "\u00fat",
            "post_code": 0
        },
        {
            "name": "T\u0151zike",
            "kind": "utca",
            "post_code": 0
        },
        {
            "name": "Tulip\u00e1n",
            "kind": "utca",
            "post_code": 0
        },
        {
            "name": "T\u00fcnd\u00e9r",
            "kind": "utca",
            "post_code": 0
        },
        {
            "name": "Vaddiszn\u00f3",
            "kind": "utca",
            "post_code": 0
        },
        {
            "name": "Vadr\u00f3zsa",
            "kind": "utca",
            "post_code": 0
        },
        {
            "name": "Vadvir\u00e1g",
            "kind": "utca",
            "post_code": 0
        },
        {
            "name": "V\u00e1rady J\u00f3zsef",
            "kind": "utca",
            "post_code": 0
        },
        {
            "name": "V\u00e1rhegyi",
            "kind": "utca",
            "post_code": 0
        },
        {
            "name": "Vihar",
            "kind": "utca",
            "post_code": 0
        },
        {
            "name": "Viola",
            "kind": "utca",
            "post_code": 0
        },
        {
            "name": "Vir\u00e1gv\u00f6lgy",
            "kind": "utca",
            "post_code": 0
        },
        {
            "name": "V\u00f6lgy",
            "kind": "k\u00f6z",
            "post_code": 0
        },
        {
            "name": "V\u00f6lgy",
            "kind": "s\u00e9t\u00e1ny",
            "post_code": 0
        },
        {
            "name": "V\u00f6lgy",
            "kind": "utca",
            "post_code": 0
        },
        {
            "name": "V\u00f6r\u00f6smarty",
            "kind": "utca",
            "post_code": 0
        },
        {
            "name": "Zr\u00ednyi Mikl\u00f3s",
            "kind": "utca",
            "post_code": 0
        }
    ]
}