{
    "codes": {
        "7762": [
            "P\u00e9csudvard",
            null
        ]
    },
    "streets": [
        {
            "name": "Ak\u00e1cfa",
            "kind": "utca",
            "post_code": 0
        },
        {
            "name": "D\u00f3zsa Gy\u00f6rgy",
            "kind": "\u00fat",
            "post_code": 0
        },
        {
            "name": "Felszabadul\u00e1s",
            "kind": "\u00fatja",
            "post_code": 0
        },
        {
            "name": "Mikl\u00f3si Gyula",
            "kind": "utca",
            "post_code": 0
        },
        {
            "name": "P\u00e1pai",
            "kind": "\u00fat",
            "post_code": 0
        },
        {
            "name": "Sz\u00e9chenyi",
            "kind": "utca",
            "post_code": 0
        },
        {
            "name": "T\u00e1ncsics Mih\u00e1ly",
            "kind": "k\u00f6z",
            "post_code": 0
        },
        {
            "name": "Zr\u00ednyi Mikl\u00f3s",
            "kind": "utca",
            "post_code": 0
        }
    ]
}