{
    "codes": {
        "9316": [
            "R\u00e1baszentandr\u00e1s",
            null
        ]
    },
    "streets": [
        {
            "name": "Godina",
            "kind": "utca",
            "post_code": 0
        },
        {
            "name": "H\u00e1ts\u00f3",
            "kind": "utca",
            "post_code": 0
        },
        {
            "name": "Kiss J\u00e1nos",
            "kind": "utca",
            "post_code": 0
        },
        {
            "name": "Kossuth Lajos",
            "kind": "utca",
            "post_code": 0
        },
        {
            "name": "Liliom",
            "kind": "utca",
            "post_code": 0
        },
        {
            "name": "Pet\u0151fi S\u00e1ndor",
            "kind": "utca",
            "post_code": 0
        },
        {
            "name": "R\u00e1k\u00f3czi Ferenc",
            "kind": "utca",
            "post_code": 0
        },
        {
            "name": "T\u00f6r\u00f6k Istv\u00e1n",
            "kind": "utca",
            "post_code": 0
        },
        {
            "name": "Vas\u00fat",
            "kind": "utca",
            "post_code": 0
        }
    ]
}