{
    "codes": {
        "2459": [
            "R\u00e1calm\u00e1s",
            null
        ]
    },
    "streets": [
        {
            "name": "Adonyi",
            "kind": "utca",
            "post_code": 0
        },
        {
            "name": "Ady Endre",
            "kind": "utca",
            "post_code": 0
        },
        {
            "name": "Ak\u00e1cfa",
            "kind": "utca",
            "post_code": 0
        },
        {
            "name": "\u00c1llom\u00e1s",
            "kind": "utca",
            "post_code": 0
        },
        {
            "name": "Arany J\u00e1nos",
            "kind": "utca",
            "post_code": 0
        },
        {
            "name": "Babits Mih\u00e1ly",
            "kind": "utca",
            "post_code": 0
        },
        {
            "name": "Bajcsy-Zsilinszky",
            "kind": "utca",
            "post_code": 0
        },
        {
            "name": "Balassi B\u00e1lint",
            "kind": "utca",
            "post_code": 0
        },
        {
            "name": "Barinai",
            "kind": "\u00fat",
            "post_code": 0
        },
        {
            "name": "Barina",
            "kind": "\u00fat",
            "post_code": 0
        },
        {
            "name": "B\u00e9ke",
            "kind": "k\u00f6z",
            "post_code": 0
        },
        {
            "name": "B\u00e9la",
            "kind": "k\u00f6z",
            "post_code": 0
        },
        {
            "name": "Borosty\u00e1n",
            "kind": "k\u00f6z",
            "post_code": 0
        },
        {
            "name": "Bruck",
            "kind": "k\u00f6z",
            "post_code": 0
        },
        {
            "name": "Csillag",
            "kind": "utca",
            "post_code": 0
        },
        {
            "name": "De\u00e1k Ferenc",
            "kind": "t\u00e9r",
            "post_code": 0
        },
        {
            "name": "D\u00f3zsa Gy\u00f6rgy",
            "kind": "utca",
            "post_code": 0
        },
        {
            "name": "Dr. S\u00e1rk\u00f6zi Ferenc",
            "kind": "utca",
            "post_code": 0
        },
        {
            "name": "Duzlok",
            "kind": "utca",
            "post_code": 0
        },
        {
            "name": "Erd\u0151sor",
            "kind": "",
            "post_code": 0
        },
        {
            "name": "Er\u0151s\u00edt\u0151",
            "kind": "utca",
            "post_code": 0
        },
        {
            "name": "Esze Tam\u00e1s",
            "kind": "k\u00f6z",
            "post_code": 0
        },
        {
            "name": "Esze Tam\u00e1s",
            "kind": "utca",
            "post_code": 0
        },
        {
            "name": "Feny\u0151",
            "kind": "k\u00f6z",
            "post_code": 0
        },
        {
            "name": "F\u0151",
            "kind": "\u00fat",
            "post_code": 0
        },
        {
            "name": "F\u00fcrd\u0151",
            "kind": "utca",
            "post_code": 0
        },
        {
            "name": "G\u00e1rdonyi G\u00e9za",
            "kind": "utca",
            "post_code": 0
        },
        {
            "name": "G\u00f6b\u00f6lyj\u00e1r\u00e1s",
            "kind": "utca",
            "post_code": 0
        },
        {
            "name": "Gy\u00fcm\u00f6lcs",
            "kind": "utca",
            "post_code": 0
        },
        {
            "name": "Hajnalka",
            "kind": "utca",
            "post_code": 0
        },
        {
            "name": "Hankook",
            "kind": "t\u00e9r",
            "post_code": 0
        },
        {
            "name": "Hargitai",
            "kind": "utca",
            "post_code": 0
        },
        {
            "name": "Harmat",
            "kind": "utca",
            "post_code": 0
        },
        {
            "name": "H\u00e1rsfa",
            "kind": "utca",
            "post_code": 0
        },
        {
            "name": "Hat\u00e1r",
            "kind": "utca",
            "post_code": 0
        },
        {
            "name": "Helyes Imre",
            "kind": "utca",
            "post_code": 0
        },
        {
            "name": "Hold",
            "kind": "utca",
            "post_code": 0
        },
        {
            "name": "Iskola",
            "kind": "utca",
            "post_code": 0
        },
        {
            "name": "Jankovich Mikl\u00f3s",
            "kind": "k\u00f6z",
            "post_code": 0
        },
        {
            "name": "J\u00e1zmin",
            "kind": "utca",
            "post_code": 0
        },
        {
            "name": "J\u00e9gmad\u00e1r",
            "kind": "utca",
            "post_code": 0
        },
        {
            "name": "J\u00f3kai M\u00f3r",
            "kind": "utca",
            "post_code": 0
        },
        {
            "name": "J\u00f3zsef Attila",
            "kind": "utca",
            "post_code": 0
        },
        {
            "name": "Jurta",
            "kind": "utca",
            "post_code": 0
        },
        {
            "name": "Katona J\u00f3zsef",
            "kind": "utca",
            "post_code": 0
        },
        {
            "name": "Kinizsi P\u00e1l",
            "kind": "utca",
            "post_code": 0
        },
        {
            "name": "Kisduna Part",
            "kind": "utca",
            "post_code": 0
        },
        {
            "name": "Kis",
            "kind": "k\u00f6z",
            "post_code": 0
        },
        {
            "name": "Kiss Ern\u0151",
            "kind": "utca",
            "post_code": 0
        },
        {
            "name": "Kor\u00e1nyi",
            "kind": "t\u00e9r",
            "post_code": 0
        },
        {
            "name": "K\u00f6rt\u00e9s",
            "kind": "utca",
            "post_code": 0
        },
        {
            "name": "Kossuth Lajos",
            "kind": "utca",
            "post_code": 0
        },
        {
            "name": "Kulcsi",
            "kind": "\u00fat",
            "post_code": 0
        },
        {
            "name": "Liliom",
            "kind": "k\u00f6z",
            "post_code": 0
        },
        {
            "name": "M\u00e1jus 1",
            "kind": "utca",
            "post_code": 0
        },
        {
            "name": "M\u00e1rkus Istv\u00e1n",
            "kind": "utca",
            "post_code": 0
        },
        {
            "name": "Martin\u00e1sz",
            "kind": "utca",
            "post_code": 0
        },
        {
            "name": "Meggyfa",
            "kind": "utca",
            "post_code": 0
        },
        {
            "name": "Mester",
            "kind": "utca",
            "post_code": 0
        },
        {
            "name": "Miksz\u00e1th K\u00e1lm\u00e1n",
            "kind": "utca",
            "post_code": 0
        },
        {
            "name": "Milleneumi",
            "kind": "park",
            "post_code": 0
        },
        {
            "name": "M\u00f3ricz Zsigmond",
            "kind": "utca",
            "post_code": 0
        },
        {
            "name": "Nap",
            "kind": "utca",
            "post_code": 0
        },
        {
            "name": "Nefelejcs",
            "kind": "utca",
            "post_code": 0
        },
        {
            "name": "Ny\u00e1rfa",
            "kind": "sor",
            "post_code": 0
        },
        {
            "name": "Ny\u00edrfa",
            "kind": "utca",
            "post_code": 0
        },
        {
            "name": "Pacsirta",
            "kind": "utca",
            "post_code": 0
        },
        {
            "name": "Park",
            "kind": "k\u00f6z",
            "post_code": 0
        },
        {
            "name": "P\u00e1skom",
            "kind": "utca",
            "post_code": 0
        },
        {
            "name": "Pet\u0151fi S\u00e1ndor",
            "kind": "utca",
            "post_code": 0
        },
        {
            "name": "Pince",
            "kind": "sor",
            "post_code": 0
        },
        {
            "name": "Prekop Ferenc",
            "kind": "utca",
            "post_code": 0
        },
        {
            "name": "R\u00e1c",
            "kind": "k\u00f6z",
            "post_code": 0
        },
        {
            "name": "Radn\u00f3ti",
            "kind": "t\u00e9r",
            "post_code": 0
        },
        {
            "name": "R\u00e1k\u00f3czi Ferenc",
            "kind": "utca",
            "post_code": 0
        },
        {
            "name": "R\u00e9v",
            "kind": "utca",
            "post_code": 0
        },
        {
            "name": "Rozmaring",
            "kind": "utca",
            "post_code": 0
        },
        {
            "name": "R\u00f3zsa",
            "kind": "utca",
            "post_code": 0
        },
        {
            "name": "S\u00e1rv\u00e1ri",
            "kind": "utca",
            "post_code": 0
        },
        {
            "name": "Sir\u00e1ly",
            "kind": "utca",
            "post_code": 0
        },
        {
            "name": "Somogyi B\u00e9la",
            "kind": "utca",
            "post_code": 0
        },
        {
            "name": "Sz\u00e1v\u00f3",
            "kind": "k\u00f6z",
            "post_code": 0
        },
        {
            "name": "Sz\u00e9lescsap\u00e1s",
            "kind": "",
            "post_code": 0
        },
        {
            "name": "Szigetf\u0151",
            "kind": "\u00fat",
            "post_code": 0
        },
        {
            "name": "Szigetf\u0151",
            "kind": "utca",
            "post_code": 0
        },
        {
            "name": "Tali\u00e1n",
            "kind": "k\u00f6z",
            "post_code": 0
        },
        {
            "name": "T\u00e1ncsics Mih\u00e1ly",
            "kind": "utca",
            "post_code": 0
        },
        {
            "name": "Templom",
            "kind": "k\u00f6z",
            "post_code": 0
        },
        {
            "name": "Tolsztoj",
            "kind": "utca",
            "post_code": 0
        },
        {
            "name": "T\u00f3th \u00c1rp\u00e1d",
            "kind": "utca",
            "post_code": 0
        },
        {
            "name": "Tulip\u00e1n",
            "kind": "utca",
            "post_code": 0
        },
        {
            "name": "V\u00e1g\u00f3h\u00edd",
            "kind": "utca",
            "post_code": 0
        },
        {
            "name": "Vasvir\u00e1g",
            "kind": "utca",
            "post_code": 0
        },
        {
            "name": "Venyimi",
            "kind": "\u00fat",
            "post_code": 0
        },
        {
            "name": "V\u00f6lgy",
            "kind": "utca",
            "post_code": 0
        },
        {
            "name": "V\u00f6r\u00f6smarty",
            "kind": "utca",
            "post_code": 0
        },
        {
            "name": "Zr\u00ednyi Mikl\u00f3s",
            "kind": "utca",
            "post_code": 0
        }
    ]
}