{
    "codes": {
        "3559": [
            "R\u00e9p\u00e1shuta",
            null
        ]
    },
    "streets": [
        {
            "name": "Ady Endre",
            "kind": "utca",
            "post_code": 0
        },
        {
            "name": "Di\u00f3s-k\u00fati-v\u00f6lgy",
            "kind": "",
            "post_code": 0
        },
        {
            "name": "Herman Ott\u00f3",
            "kind": "utca",
            "post_code": 0
        },
        {
            "name": "Katalin-v\u00f6lgyi s\u00e1rga \u00f6sv\u00e9ny",
            "kind": "",
            "post_code": 0
        },
        {
            "name": "Kossuth Lajos",
            "kind": "utca",
            "post_code": 0
        },
        {
            "name": "Meredek!",
            "kind": "",
            "post_code": 0
        },
        {
            "name": "P\u00e9nz-pataki-v\u00f6lgy",
            "kind": "",
            "post_code": 0
        },
        {
            "name": "R\u00e1k\u00f3czi",
            "kind": "utca",
            "post_code": 0
        },
        {
            "name": "Szabads\u00e1g",
            "kind": "utca",
            "post_code": 0
        },
        {
            "name": "T\u00f6r\u00f6k",
            "kind": "\u00fat",
            "post_code": 0
        },
        {
            "name": "Vad\u00e1sz-v\u00f6lgy",
            "kind": "",
            "post_code": 0
        }
    ]
}