{
    "codes": {
        "3656": [
            "Saj\u00f3velezd",
            null
        ]
    },
    "streets": [
        {
            "name": "De\u00e1k Ferenc",
            "kind": "utca",
            "post_code": 0
        },
        {
            "name": "H\u00e1rsas",
            "kind": "\u00fat",
            "post_code": 0
        },
        {
            "name": "Kir\u00e1ldi h\u00edd",
            "kind": "",
            "post_code": 0
        },
        {
            "name": "Kossuth Lajos",
            "kind": "utca",
            "post_code": 0
        },
        {
            "name": "M\u00e1jus 1.",
            "kind": "utca",
            "post_code": 0
        },
        {
            "name": "Pet\u0151fi S\u00e1ndor",
            "kind": "utca",
            "post_code": 0
        },
        {
            "name": "R\u00e1k\u00f3czi Ferenc",
            "kind": "utca",
            "post_code": 0
        },
        {
            "name": "Tomori P\u00e1l",
            "kind": "\u00fat",
            "post_code": 0
        }
    ]
}