{
    "codes": {
        "6320": [
            "Solt",
            null
        ]
    },
    "streets": [
        {
            "name": "Ady Endre",
            "kind": "utca",
            "post_code": 0
        },
        {
            "name": "Arany J\u00e1nos",
            "kind": "utca",
            "post_code": 0
        },
        {
            "name": "Aranykulcs",
            "kind": "t\u00e9r",
            "post_code": 0
        },
        {
            "name": "Aranykulcs",
            "kind": "utca",
            "post_code": 0
        },
        {
            "name": "\u00c1rnyas",
            "kind": "utca",
            "post_code": 0
        },
        {
            "name": "\u00c1rp\u00e1d",
            "kind": "utca",
            "post_code": 0
        },
        {
            "name": "Bacs\u00f3 B\u00e9la",
            "kind": "utca",
            "post_code": 0
        },
        {
            "name": "Balassi",
            "kind": "utca",
            "post_code": 0
        },
        {
            "name": "Bart\u00f3k B\u00e9la",
            "kind": "utca",
            "post_code": 0
        },
        {
            "name": "B\u00e1thori",
            "kind": "utca",
            "post_code": 0
        },
        {
            "name": "Benedek Elek",
            "kind": "utca",
            "post_code": 0
        },
        {
            "name": "Bercs\u00e9nyi",
            "kind": "utca",
            "post_code": 0
        },
        {
            "name": "Besz\u00e9des J\u00f3zsef h\u00edd",
            "kind": "",
            "post_code": 0
        },
        {
            "name": "Bethlen G\u00e1bor",
            "kind": "utca",
            "post_code": 0
        },
        {
            "name": "Blaha Lujza",
            "kind": "utca",
            "post_code": 0
        },
        {
            "name": "Bocskay",
            "kind": "utca",
            "post_code": 0
        },
        {
            "name": "Bokros",
            "kind": "utca",
            "post_code": 0
        },
        {
            "name": "Csalog\u00e1ny",
            "kind": "utca",
            "post_code": 0
        },
        {
            "name": "Csillag",
            "kind": "utca",
            "post_code": 0
        },
        {
            "name": "Damjanich",
            "kind": "utca",
            "post_code": 0
        },
        {
            "name": "De\u00e1k Ferenc",
            "kind": "utca",
            "post_code": 0
        },
        {
            "name": "D\u00e9ryn\u00e9",
            "kind": "utca",
            "post_code": 0
        },
        {
            "name": "Dob\u00f3",
            "kind": "utca",
            "post_code": 0
        },
        {
            "name": "D\u00f3zsa Gy\u00f6rgy",
            "kind": "utca",
            "post_code": 0
        },
        {
            "name": "Erkel Ferenc",
            "kind": "utca",
            "post_code": 0
        },
        {
            "name": "Faiskola",
            "kind": "utca",
            "post_code": 0
        },
        {
            "name": "F\u0171zfa",
            "kind": "utca",
            "post_code": 0
        },
        {
            "name": "G\u00e1bor \u00c1ron",
            "kind": "utca",
            "post_code": 0
        },
        {
            "name": "Galamb",
            "kind": "utca",
            "post_code": 0
        },
        {
            "name": "G\u00e1rdonyi G\u00e9za",
            "kind": "utca",
            "post_code": 0
        },
        {
            "name": "Gorkij",
            "kind": "utca",
            "post_code": 0
        },
        {
            "name": "Gy\u00f6ngyvir\u00e1g",
            "kind": "utca",
            "post_code": 0
        },
        {
            "name": "Gyulai P\u00e1l",
            "kind": "utca",
            "post_code": 0
        },
        {
            "name": "Hajnal",
            "kind": "utca",
            "post_code": 0
        },
        {
            "name": "Harmat",
            "kind": "utca",
            "post_code": 0
        },
        {
            "name": "H\u00e1rsfa",
            "kind": "utca",
            "post_code": 0
        },
        {
            "name": "Hath\u00e1z",
            "kind": "utca",
            "post_code": 0
        },
        {
            "name": "Hatty\u00fa",
            "kind": "utca",
            "post_code": 0
        },
        {
            "name": "Hold",
            "kind": "utca",
            "post_code": 0
        },
        {
            "name": "Holl\u00f3",
            "kind": "k\u00f6z",
            "post_code": 0
        },
        {
            "name": "Horg\u00e1sz",
            "kind": "utca",
            "post_code": 0
        },
        {
            "name": "Hunyadi J\u00e1nos",
            "kind": "utca",
            "post_code": 0
        },
        {
            "name": "IV. B\u00e9la",
            "kind": "utca",
            "post_code": 0
        },
        {
            "name": "J\u00f3kai",
            "kind": "utca",
            "post_code": 0
        },
        {
            "name": "J\u00f3zsef Attila",
            "kind": "utca",
            "post_code": 0
        },
        {
            "name": "Kadarka",
            "kind": "utca",
            "post_code": 0
        },
        {
            "name": "Katona J\u00f3zsef",
            "kind": "utca",
            "post_code": 0
        },
        {
            "name": "Kazinczy Ferenc",
            "kind": "utca",
            "post_code": 0
        },
        {
            "name": "Kecskem\u00e9ti",
            "kind": "\u00fat",
            "post_code": 0
        },
        {
            "name": "Kinizsi",
            "kind": "utca",
            "post_code": 0
        },
        {
            "name": "K\u00f6lcsey Ferenc",
            "kind": "utca",
            "post_code": 0
        },
        {
            "name": "Kossuth",
            "kind": "utca",
            "post_code": 0
        },
        {
            "name": "Lehel",
            "kind": "utca",
            "post_code": 0
        },
        {
            "name": "Lepke",
            "kind": "utca",
            "post_code": 0
        },
        {
            "name": "Mad\u00e1ch Imre",
            "kind": "utca",
            "post_code": 0
        },
        {
            "name": "M\u00e1lna",
            "kind": "utca",
            "post_code": 0
        },
        {
            "name": "M\u00e1ty\u00e1s Kir\u00e1ly",
            "kind": "utca",
            "post_code": 0
        },
        {
            "name": "Medve",
            "kind": "utca",
            "post_code": 0
        },
        {
            "name": "Mester",
            "kind": "utca",
            "post_code": 0
        },
        {
            "name": "Mez\u0151",
            "kind": "utca",
            "post_code": 0
        },
        {
            "name": "Miksz\u00e1th K\u00e1lm\u00e1n",
            "kind": "utca",
            "post_code": 0
        },
        {
            "name": "M\u00f3ricz Zsigmond",
            "kind": "utca",
            "post_code": 0
        },
        {
            "name": "Nagy Lajos",
            "kind": "utca",
            "post_code": 0
        },
        {
            "name": "Nagymajori",
            "kind": "\u00fat",
            "post_code": 0
        },
        {
            "name": "Nap",
            "kind": "utca",
            "post_code": 0
        },
        {
            "name": "Nefelejcs",
            "kind": "utca",
            "post_code": 0
        },
        {
            "name": "Ny\u00e1r",
            "kind": "utca",
            "post_code": 0
        },
        {
            "name": "Ny\u00edrfa",
            "kind": "utca",
            "post_code": 0
        },
        {
            "name": "Orsz\u00e1g\u00fat",
            "kind": "utca",
            "post_code": 0
        },
        {
            "name": "\u0150sz",
            "kind": "utca",
            "post_code": 0
        },
        {
            "name": "\u0150z",
            "kind": "utca",
            "post_code": 0
        },
        {
            "name": "Pet\u0151fi S\u00e1ndor",
            "kind": "utca",
            "post_code": 0
        },
        {
            "name": "Posta",
            "kind": "utca",
            "post_code": 0
        },
        {
            "name": "R\u00e1k\u00f3czi Ferenc",
            "kind": "utca",
            "post_code": 0
        },
        {
            "name": "R\u00e9vai Gy\u00f6rgy",
            "kind": "utca",
            "post_code": 0
        },
        {
            "name": "R\u00e9v",
            "kind": "utca",
            "post_code": 0
        },
        {
            "name": "Rezeda",
            "kind": "utca",
            "post_code": 0
        },
        {
            "name": "R\u00f3bert K\u00e1roly",
            "kind": "utca",
            "post_code": 0
        },
        {
            "name": "Rozmaring",
            "kind": "utca",
            "post_code": 0
        },
        {
            "name": "S\u00e1ndor",
            "kind": "utca",
            "post_code": 0
        },
        {
            "name": "Sir\u00e1ly",
            "kind": "utca",
            "post_code": 0
        },
        {
            "name": "Sport",
            "kind": "utca",
            "post_code": 0
        },
        {
            "name": "Sz\u00e9chenyi",
            "kind": "utca",
            "post_code": 0
        },
        {
            "name": "Sz\u00e9na",
            "kind": "utca",
            "post_code": 0
        },
        {
            "name": "Sziv\u00e1rv\u00e1ny",
            "kind": "utca",
            "post_code": 0
        },
        {
            "name": "Sz\u00edv",
            "kind": "utca",
            "post_code": 0
        },
        {
            "name": "Tam\u00e1si \u00c1ron",
            "kind": "utca",
            "post_code": 0
        },
        {
            "name": "Tavasz",
            "kind": "utca",
            "post_code": 0
        },
        {
            "name": "Teleki S\u00e1ndor",
            "kind": "utca",
            "post_code": 0
        },
        {
            "name": "T\u00e9l",
            "kind": "utca",
            "post_code": 0
        },
        {
            "name": "Toldi Mikl\u00f3s",
            "kind": "utca",
            "post_code": 0
        },
        {
            "name": "Tompa",
            "kind": "utca",
            "post_code": 0
        },
        {
            "name": "T\u00f6rley B\u00e1lint",
            "kind": "utca",
            "post_code": 0
        },
        {
            "name": "Tulip\u00e1n",
            "kind": "utca",
            "post_code": 0
        },
        {
            "name": "V\u00e1s\u00e1rhalom",
            "kind": "\u00fat",
            "post_code": 0
        },
        {
            "name": "Vas\u00fat",
            "kind": "utca",
            "post_code": 0
        },
        {
            "name": "V\u00e9dg\u00e1t",
            "kind": "utca",
            "post_code": 0
        },
        {
            "name": "Vend\u00e9gl\u0151",
            "kind": "utca",
            "post_code": 0
        },
        {
            "name": "V\u00edztorony",
            "kind": "t\u00e9r",
            "post_code": 0
        },
        {
            "name": "V\u00f6lgy",
            "kind": "utca",
            "post_code": 0
        },
        {
            "name": "V\u00f6r\u00f6smarty Mih\u00e1ly",
            "kind": "utca",
            "post_code": 0
        },
        {
            "name": "Z\u00f6ldfa",
            "kind": "utca",
            "post_code": 0
        },
        {
            "name": "Zr\u00ednyi Mikl\u00f3s",
            "kind": "utca",
            "post_code": 0
        },
        {
            "name": "Zsoldos J\u00e1nos",
            "kind": "utca",
            "post_code": 0
        },
        {
            "name": "Zsolt",
            "kind": "utca",
            "post_code": 0
        }
    ]
}