{
    "codes": {
        "8699": [
            "Somogyv\u00e1mos",
            null
        ]
    },
    "streets": [
        {
            "name": "Csepregi",
            "kind": "utca",
            "post_code": 0
        },
        {
            "name": "D\u00f3zsa Gy\u00f6rgy",
            "kind": "utca",
            "post_code": 0
        },
        {
            "name": "F\u0151",
            "kind": "utca",
            "post_code": 0
        },
        {
            "name": "Halad\u00e1s",
            "kind": "utca",
            "post_code": 0
        },
        {
            "name": "Hal\u00e1szh\u00e1z",
            "kind": "\u00fat",
            "post_code": 0
        },
        {
            "name": "R\u00f3zsa",
            "kind": "utca",
            "post_code": 0
        },
        {
            "name": "T\u00e1ncsics Mih\u00e1ly",
            "kind": "utca",
            "post_code": 0
        },
        {
            "name": "Tompa Mih\u00e1ly",
            "kind": "utca",
            "post_code": 0
        }
    ]
}