{
    "codes": {
        "9400": [
            "Sopron",
            null
        ],
        "9407": [
            "Sopron",
            "Sopronk\u0151hida"
        ],
        "9408": [
            "Sopron",
            "Brennbergb\u00e1nya"
        ],
        "9494": [
            "Sopron",
            "Balf"
        ]
    },
    "streets": [
        {
            "name": "Ady Endre",
            "kind": "\u00fat",
            "post_code": 0
        },
        {
            "name": "Ady Endre",
            "kind": "utca",
            "post_code": 0
        },
        {
            "name": "\u00c1fonya",
            "kind": "utca",
            "post_code": 0
        },
        {
            "name": "\u00c1gfalvi",
            "kind": "\u00fat",
            "post_code": 0
        },
        {
            "name": "\u00c1goston Ern\u0151",
            "kind": "utca",
            "post_code": 0
        },
        {
            "name": "Agyag",
            "kind": "utca",
            "post_code": 0
        },
        {
            "name": "Ak\u00e1cfa",
            "kind": "sor",
            "post_code": 0
        },
        {
            "name": "Ak\u00e1c",
            "kind": "utca",
            "post_code": 0
        },
        {
            "name": "Akaszt\u00f3",
            "kind": "d\u0171l\u0151",
            "post_code": 0
        },
        {
            "name": "Akn\u00e1sz",
            "kind": "k\u00f6z",
            "post_code": 0
        },
        {
            "name": "\u00c1llom\u00e1s",
            "kind": "",
            "post_code": 0
        },
        {
            "name": "\u00c1llom\u00e1s",
            "kind": "utca",
            "post_code": 0
        },
        {
            "name": "Alp\u00e1r Ign\u00e1c",
            "kind": "utca",
            "post_code": 0
        },
        {
            "name": "Als\u00f3domb",
            "kind": "sor",
            "post_code": 0
        },
        {
            "name": "Als\u00f3erd\u0151",
            "kind": "utca",
            "post_code": 0
        },
        {
            "name": "Als\u00f3l\u00f6v\u00e9r",
            "kind": "utca",
            "post_code": 0
        },
        {
            "name": "Als\u00f3\u0151rh\u00e1z",
            "kind": "k\u00f6z",
            "post_code": 0
        },
        {
            "name": "Als\u00f3zs\u00e1k",
            "kind": "\u00fat",
            "post_code": 0
        },
        {
            "name": "A m\u0171szaki z\u00e1r egykori nyomvonala",
            "kind": "",
            "post_code": 0
        },
        {
            "name": "Anger",
            "kind": "k\u00f6z",
            "post_code": 0
        },
        {
            "name": "Apor Vilmos",
            "kind": "utca",
            "post_code": 0
        },
        {
            "name": "Apr\u00f3d",
            "kind": "utca",
            "post_code": 0
        },
        {
            "name": "Aranyhegy",
            "kind": "utca",
            "post_code": 0
        },
        {
            "name": "Arany J\u00e1nos",
            "kind": "utca",
            "post_code": 0
        },
        {
            "name": "\u00c1rok",
            "kind": "utca",
            "post_code": 0
        },
        {
            "name": "\u00c1rp\u00e1d",
            "kind": "utca",
            "post_code": 0
        },
        {
            "name": "Artner Vilmos",
            "kind": "utca",
            "post_code": 0
        },
        {
            "name": "\u00c1rvah\u00e1z",
            "kind": "k\u00f6z",
            "post_code": 0
        },
        {
            "name": "Asszonyv\u00e1s\u00e1r",
            "kind": "d\u0171l\u0151",
            "post_code": 0
        },
        {
            "name": "Avar",
            "kind": "utca",
            "post_code": 0
        },
        {
            "name": "Az egykori m\u0171szaki z\u00e1r nyomvonala",
            "kind": "",
            "post_code": 0
        },
        {
            "name": "B\u00e1bakal\u00e1cs",
            "kind": "utca",
            "post_code": 0
        },
        {
            "name": "Babits Mih\u00e1ly",
            "kind": "utca",
            "post_code": 0
        },
        {
            "name": "Bad Wimpfen",
            "kind": "utca",
            "post_code": 0
        },
        {
            "name": "Bajcsy-Zsilinszky Endre",
            "kind": "utca",
            "post_code": 0
        },
        {
            "name": "Bajnok",
            "kind": "utca",
            "post_code": 0
        },
        {
            "name": "Balassi B\u00e1lint",
            "kind": "utca",
            "post_code": 0
        },
        {
            "name": "Balfi",
            "kind": "\u00fat",
            "post_code": 0
        },
        {
            "name": "Balogh \u00c1d\u00e1m",
            "kind": "utca",
            "post_code": 0
        },
        {
            "name": "B\u00e1nfalvi",
            "kind": "\u00fat",
            "post_code": 0
        },
        {
            "name": "B\u00e1nyamester",
            "kind": "k\u00f6z",
            "post_code": 0
        },
        {
            "name": "Barabits Elem\u00e9r",
            "kind": "utca",
            "post_code": 0
        },
        {
            "name": "Baracsi L\u00e1szl\u00f3",
            "kind": "utca",
            "post_code": 0
        },
        {
            "name": "Bar\u00e1ts\u00e1g",
            "kind": "park",
            "post_code": 0
        },
        {
            "name": "Barka",
            "kind": "sor",
            "post_code": 0
        },
        {
            "name": "Barokk",
            "kind": "l\u00e9pcs\u0151",
            "post_code": 0
        },
        {
            "name": "Baross",
            "kind": "\u00fat",
            "post_code": 0
        },
        {
            "name": "Bart\u00f3k B\u00e9la",
            "kind": "utca",
            "post_code": 0
        },
        {
            "name": "B\u00e1stya",
            "kind": "utca",
            "post_code": 0
        },
        {
            "name": "Bats\u00e1nyi",
            "kind": "utca",
            "post_code": 0
        },
        {
            "name": "Batthy\u00e1ny",
            "kind": "t\u00e9r",
            "post_code": 0
        },
        {
            "name": "Becht Rezs\u0151",
            "kind": "utca",
            "post_code": 0
        },
        {
            "name": "B\u00e9csi",
            "kind": "domb",
            "post_code": 0
        },
        {
            "name": "B\u00e9csi",
            "kind": "\u00fat",
            "post_code": 0
        },
        {
            "name": "B\u00e9ke",
            "kind": "\u00fat",
            "post_code": 0
        },
        {
            "name": "Bella Lajos",
            "kind": "utca",
            "post_code": 0
        },
        {
            "name": "Bem",
            "kind": "utca",
            "post_code": 0
        },
        {
            "name": "Bercs\u00e9nyi",
            "kind": "utca",
            "post_code": 0
        },
        {
            "name": "Berkenye",
            "kind": "utca",
            "post_code": 0
        },
        {
            "name": "Berzsenyi D\u00e1niel",
            "kind": "utca",
            "post_code": 0
        },
        {
            "name": "Beseny\u0151",
            "kind": "utca",
            "post_code": 0
        },
        {
            "name": "Bezer\u00e9dj",
            "kind": "utca",
            "post_code": 0
        },
        {
            "name": "B\u00f3bita",
            "kind": "utca",
            "post_code": 0
        },
        {
            "name": "Bogl\u00e1rka",
            "kind": "k\u00f6z",
            "post_code": 0
        },
        {
            "name": "Boldizs\u00e1r",
            "kind": "utca",
            "post_code": 0
        },
        {
            "name": "Boldogasszonyi",
            "kind": "utca",
            "post_code": 0
        },
        {
            "name": "Bolyai",
            "kind": "utca",
            "post_code": 0
        },
        {
            "name": "Borb\u00e1la-telep",
            "kind": "",
            "post_code": 0
        },
        {
            "name": "Borbolya",
            "kind": "k\u00f6z",
            "post_code": 0
        },
        {
            "name": "Borisfalvi",
            "kind": "utca",
            "post_code": 0
        },
        {
            "name": "Borosty\u00e1n",
            "kind": "utca",
            "post_code": 0
        },
        {
            "name": "Borsmonostori",
            "kind": "utca",
            "post_code": 0
        },
        {
            "name": "Borz",
            "kind": "utca",
            "post_code": 0
        },
        {
            "name": "Botond",
            "kind": "utca",
            "post_code": 0
        },
        {
            "name": "Bozi",
            "kind": "utca",
            "post_code": 0
        },
        {
            "name": "Brennbergi",
            "kind": "\u00fat",
            "post_code": 0
        },
        {
            "name": "Brennebergv\u00f6lgyi Gyermek \u00e9s ifj\u0171s\u00e1gi t\u00e1bor",
            "kind": "",
            "post_code": 0
        },
        {
            "name": "B\u00fcnker J\u00e1nos Rajn\u00e1rd",
            "kind": "k\u00f6z",
            "post_code": 0
        },
        {
            "name": "B\u00fazavir\u00e1g",
            "kind": "utca",
            "post_code": 0
        },
        {
            "name": "Ch\u00e1z\u00e1r Andr\u00e1s",
            "kind": "t\u00e9r",
            "post_code": 0
        },
        {
            "name": "Cikl\u00e1men",
            "kind": "utca",
            "post_code": 0
        },
        {
            "name": "Citadella",
            "kind": "utca",
            "post_code": 0
        },
        {
            "name": "Csal\u00e1nkerti",
            "kind": "\u00fat",
            "post_code": 0
        },
        {
            "name": "Csalog\u00e1ny",
            "kind": "k\u00f6z",
            "post_code": 0
        },
        {
            "name": "Cs\u00e1nyi",
            "kind": "utca",
            "post_code": 0
        },
        {
            "name": "Csarnok",
            "kind": "utca",
            "post_code": 0
        },
        {
            "name": "Csata",
            "kind": "utca",
            "post_code": 0
        },
        {
            "name": "Csatkai Endre",
            "kind": "utca",
            "post_code": 0
        },
        {
            "name": "Cs\u00e1vai",
            "kind": "utca",
            "post_code": 0
        },
        {
            "name": "Csemetekert",
            "kind": "sor",
            "post_code": 0
        },
        {
            "name": "Csengery",
            "kind": "utca",
            "post_code": 0
        },
        {
            "name": "Csepel",
            "kind": "utca",
            "post_code": 0
        },
        {
            "name": "Cseresznye",
            "kind": "sor",
            "post_code": 0
        },
        {
            "name": "Cserfa",
            "kind": "utca",
            "post_code": 0
        },
        {
            "name": "Cs\u00edk Ferenc",
            "kind": "utca",
            "post_code": 0
        },
        {
            "name": "Csilla",
            "kind": "sor",
            "post_code": 0
        },
        {
            "name": "Csill\u00e9s",
            "kind": "k\u00f6z",
            "post_code": 0
        },
        {
            "name": "Csitke",
            "kind": "d\u0171l\u0151",
            "post_code": 0
        },
        {
            "name": "Cs\u00f3ka",
            "kind": "k\u00f6z",
            "post_code": 0
        },
        {
            "name": "Csongor",
            "kind": "\u00fat",
            "post_code": 0
        },
        {
            "name": "Csorga",
            "kind": "utca",
            "post_code": 0
        },
        {
            "name": "Cs\u00f3ronfalvi",
            "kind": "utca",
            "post_code": 0
        },
        {
            "name": "Cs\u0151szh\u00e1z",
            "kind": "d\u0171l\u0151",
            "post_code": 0
        },
        {
            "name": "Cukorgy\u00e1ri",
            "kind": "utca",
            "post_code": 0
        },
        {
            "name": "Dal\u00e1rda",
            "kind": "utca",
            "post_code": 0
        },
        {
            "name": "Damjanich",
            "kind": "utca",
            "post_code": 0
        },
        {
            "name": "Darufalvi",
            "kind": "utca",
            "post_code": 0
        },
        {
            "name": "De\u00e1kki",
            "kind": "\u00fat",
            "post_code": 0
        },
        {
            "name": "De\u00e1k",
            "kind": "t\u00e9r",
            "post_code": 0
        },
        {
            "name": "Diebold K\u00e1roly",
            "kind": "utca",
            "post_code": 0
        },
        {
            "name": "Dobner N\u00e1ndor",
            "kind": "utca",
            "post_code": 0
        },
        {
            "name": "Doborj\u00e1ni",
            "kind": "utca",
            "post_code": 0
        },
        {
            "name": "D\u00f3czy Lajos",
            "kind": "utca",
            "post_code": 0
        },
        {
            "name": "Domb",
            "kind": "utca",
            "post_code": 0
        },
        {
            "name": "Dorfmeister",
            "kind": "utca",
            "post_code": 0
        },
        {
            "name": "Dorosmai J\u00e1nos",
            "kind": "utca",
            "post_code": 0
        },
        {
            "name": "D\u00f3zsa Gy\u00f6rgy",
            "kind": "utca",
            "post_code": 0
        },
        {
            "name": "Dr. Szilv\u00e1ssy Gyula",
            "kind": "utca",
            "post_code": 0
        },
        {
            "name": "Dudlesz",
            "kind": "utca",
            "post_code": 0
        },
        {
            "name": "Egeredi",
            "kind": "\u00fat",
            "post_code": 0
        },
        {
            "name": "Egeregi",
            "kind": "\u00fat",
            "post_code": 0
        },
        {
            "name": "Eilat",
            "kind": "utca",
            "post_code": 0
        },
        {
            "name": "\u00c9k",
            "kind": "utca",
            "post_code": 0
        },
        {
            "name": "El\u0151kapu",
            "kind": "",
            "post_code": 0
        },
        {
            "name": "El\u0151",
            "kind": "sor",
            "post_code": 0
        },
        {
            "name": "\u00c9p\u00edt\u0151k",
            "kind": "\u00fatja",
            "post_code": 0
        },
        {
            "name": "Erdburger",
            "kind": "d\u0171l\u0151",
            "post_code": 0
        },
        {
            "name": "Erdeimalom",
            "kind": "k\u00f6z",
            "post_code": 0
        },
        {
            "name": "Erdei",
            "kind": "\u00fat",
            "post_code": 0
        },
        {
            "name": "Erd\u00e9lyi",
            "kind": "utca",
            "post_code": 0
        },
        {
            "name": "Erd\u00e9sz",
            "kind": "utca",
            "post_code": 0
        },
        {
            "name": "Erd\u0151alja",
            "kind": "",
            "post_code": 0
        },
        {
            "name": "Erd\u0151alja",
            "kind": "\u00fat",
            "post_code": 0
        },
        {
            "name": "Erd\u0151",
            "kind": "sor",
            "post_code": 0
        },
        {
            "name": "Erd\u0151sz\u00e9li",
            "kind": "utca",
            "post_code": 0
        },
        {
            "name": "Ereszke",
            "kind": "utca",
            "post_code": 0
        },
        {
            "name": "Erkel",
            "kind": "utca",
            "post_code": 0
        },
        {
            "name": "Erzs\u00e9bet",
            "kind": "utca",
            "post_code": 0
        },
        {
            "name": "Eszperant\u00f3",
            "kind": "utca",
            "post_code": 0
        },
        {
            "name": "F\u00e1c\u00e1n",
            "kind": "utca",
            "post_code": 0
        },
        {
            "name": "Faller Jen\u0151",
            "kind": "utca",
            "post_code": 0
        },
        {
            "name": "Faludi Ferenc",
            "kind": "utca",
            "post_code": 0
        },
        {
            "name": "Fapiac",
            "kind": "utca",
            "post_code": 0
        },
        {
            "name": "Farakt\u00e1r",
            "kind": "utca",
            "post_code": 0
        },
        {
            "name": "Farkas",
            "kind": "utca",
            "post_code": 0
        },
        {
            "name": "Fasor",
            "kind": "utca",
            "post_code": 0
        },
        {
            "name": "Fegyvert\u00e1r",
            "kind": "utca",
            "post_code": 0
        },
        {
            "name": "Feh\u00e9r D\u00e1niel",
            "kind": "utca",
            "post_code": 0
        },
        {
            "name": "Feh\u00e9regyh\u00e1zi",
            "kind": "utca",
            "post_code": 0
        },
        {
            "name": "Feh\u00e9r",
            "kind": "\u00fat",
            "post_code": 0
        },
        {
            "name": "Feketev\u00e1rosi",
            "kind": "utca",
            "post_code": 0
        },
        {
            "name": "Fels\u0151b\u00fcki Nagy P\u00e1l",
            "kind": "utca",
            "post_code": 0
        },
        {
            "name": "Fels\u0151erd\u0151",
            "kind": "utca",
            "post_code": 0
        },
        {
            "name": "Fels\u0151l\u00f6v\u00e9r",
            "kind": "\u00fat",
            "post_code": 0
        },
        {
            "name": "Fels\u0151\u0151rh\u00e1z",
            "kind": "k\u00f6z",
            "post_code": 0
        },
        {
            "name": "Fels\u0151",
            "kind": "sor",
            "post_code": 0
        },
        {
            "name": "Fels\u0151zs\u00e1k",
            "kind": "\u00fat",
            "post_code": 0
        },
        {
            "name": "F\u00e9nyi Gyula",
            "kind": "utca",
            "post_code": 0
        },
        {
            "name": "Feny\u0151",
            "kind": "t\u00e9r",
            "post_code": 0
        },
        {
            "name": "Fenyves",
            "kind": "sor",
            "post_code": 0
        },
        {
            "name": "Ferenczy J\u00e1nos",
            "kind": "utca",
            "post_code": 0
        },
        {
            "name": "Fert\u0151",
            "kind": "utca",
            "post_code": 0
        },
        {
            "name": "Fest\u0151",
            "kind": "k\u00f6z",
            "post_code": 0
        },
        {
            "name": "Flandorffer Ign\u00e1c",
            "kind": "utca",
            "post_code": 0
        },
        {
            "name": "Forr\u00e1s",
            "kind": "utca",
            "post_code": 0
        },
        {
            "name": "F\u00f3rum",
            "kind": "\u00e1tj\u00e1r\u00f3",
            "post_code": 0
        },
        {
            "name": "F\u0151",
            "kind": "utca",
            "post_code": 0
        },
        {
            "name": "F\u00f6v\u00e9nyverem",
            "kind": "utca",
            "post_code": 0
        },
        {
            "name": "Frakn\u00f3i",
            "kind": "utca",
            "post_code": 0
        },
        {
            "name": "Frankenburg",
            "kind": "\u00fat",
            "post_code": 0
        },
        {
            "name": "Friedrich K\u00e1roly",
            "kind": "utca",
            "post_code": 0
        },
        {
            "name": "F\u00fclesi",
            "kind": "utca",
            "post_code": 0
        },
        {
            "name": "F\u00fcrd\u0151",
            "kind": "sor",
            "post_code": 0
        },
        {
            "name": "F\u00fcredi",
            "kind": "s\u00e9t\u00e1ny",
            "post_code": 0
        },
        {
            "name": "F\u00fcrj",
            "kind": "utca",
            "post_code": 0
        },
        {
            "name": "Fuvaros",
            "kind": "utca",
            "post_code": 0
        },
        {
            "name": "F\u0171zfa",
            "kind": "sor",
            "post_code": 0
        },
        {
            "name": "Galagonya",
            "kind": "k\u00f6z",
            "post_code": 0
        },
        {
            "name": "G\u00e1sp\u00e1r",
            "kind": "utca",
            "post_code": 0
        },
        {
            "name": "Gazda",
            "kind": "utca",
            "post_code": 0
        },
        {
            "name": "Gensel \u00c1d\u00e1m",
            "kind": "utca",
            "post_code": 0
        },
        {
            "name": "Geszteny\u00e9s",
            "kind": "k\u00f6r\u00fat",
            "post_code": 0
        },
        {
            "name": "Giczy",
            "kind": "k\u00f6z",
            "post_code": 0
        },
        {
            "name": "Gidapatak",
            "kind": "utca",
            "post_code": 0
        },
        {
            "name": "G\u00f3lya",
            "kind": "utca",
            "post_code": 0
        },
        {
            "name": "Gombocz Endre",
            "kind": "utca",
            "post_code": 0
        },
        {
            "name": "Gub\u00f3vir\u00e1g",
            "kind": "utca",
            "post_code": 0
        },
        {
            "name": "Gur\u00edt\u00f3",
            "kind": "k\u00f6z",
            "post_code": 0
        },
        {
            "name": "Gy\u00e1r",
            "kind": "utca",
            "post_code": 0
        },
        {
            "name": "Gyep\u0171",
            "kind": "utca",
            "post_code": 0
        },
        {
            "name": "Gyertyam\u00e1rt\u00f3",
            "kind": "utca",
            "post_code": 0
        },
        {
            "name": "Gyir\u00f3ti",
            "kind": "utca",
            "post_code": 0
        },
        {
            "name": "Gy\u00f6ngyvir\u00e1g",
            "kind": "utca",
            "post_code": 0
        },
        {
            "name": "Gy\u00f3ni G\u00e9za",
            "kind": "utca",
            "post_code": 0
        },
        {
            "name": "Gy\u0151ri",
            "kind": "\u00fat",
            "post_code": 0
        },
        {
            "name": "Hajnalp\u00edr",
            "kind": "utca",
            "post_code": 0
        },
        {
            "name": "Hajnal",
            "kind": "t\u00e9r",
            "post_code": 0
        },
        {
            "name": "Hajn\u00f3czi",
            "kind": "utca",
            "post_code": 0
        },
        {
            "name": "Halast\u00f3",
            "kind": "utca",
            "post_code": 0
        },
        {
            "name": "Hal\u00e1sz",
            "kind": "utca",
            "post_code": 0
        },
        {
            "name": "Handler N\u00e1ndor",
            "kind": "utca",
            "post_code": 0
        },
        {
            "name": "Harang\u00f6nt\u0151",
            "kind": "utca",
            "post_code": 0
        },
        {
            "name": "Harang",
            "kind": "utca",
            "post_code": 0
        },
        {
            "name": "Harangvir\u00e1g",
            "kind": "utca",
            "post_code": 0
        },
        {
            "name": "Harkai",
            "kind": "\u00fat",
            "post_code": 0
        },
        {
            "name": "H\u00e1rsfa",
            "kind": "sor",
            "post_code": 0
        },
        {
            "name": "Hat\u00e1rdomb",
            "kind": "\u00fat",
            "post_code": 0
        },
        {
            "name": "Hat\u00e1r\u0151r",
            "kind": "utca",
            "post_code": 0
        },
        {
            "name": "H\u00e1ts\u00f3kapu",
            "kind": "",
            "post_code": 0
        },
        {
            "name": "H\u00e1tuls\u00f3",
            "kind": "utca",
            "post_code": 0
        },
        {
            "name": "Hatvan Ferenc",
            "kind": "utca",
            "post_code": 0
        },
        {
            "name": "Havasi gyop\u00e1r",
            "kind": "k\u00f6z",
            "post_code": 0
        },
        {
            "name": "Haydn",
            "kind": "utca",
            "post_code": 0
        },
        {
            "name": "H\u00e1zhegyi erd\u0151",
            "kind": "utca",
            "post_code": 0
        },
        {
            "name": "H\u00e1zi Jen\u0151",
            "kind": "utca",
            "post_code": 0
        },
        {
            "name": "Hegyh\u00e1t",
            "kind": "\u00fat",
            "post_code": 0
        },
        {
            "name": "Hegy",
            "kind": "utca",
            "post_code": 0
        },
        {
            "name": "Heimler K\u00e1roly",
            "kind": "utca",
            "post_code": 0
        },
        {
            "name": "H\u00e9ja",
            "kind": "k\u00f6z",
            "post_code": 0
        },
        {
            "name": "H\u00e9rics",
            "kind": "utca",
            "post_code": 0
        },
        {
            "name": "Hermesi",
            "kind": "\u00fat",
            "post_code": 0
        },
        {
            "name": "H\u00edd az \u00e1rok felett",
            "kind": "",
            "post_code": 0
        },
        {
            "name": "Hidegv\u00edzv\u00f6lgy",
            "kind": "utca",
            "post_code": 0
        },
        {
            "name": "H\u00edd",
            "kind": "utca",
            "post_code": 0
        },
        {
            "name": "H\u00f6fl\u00e1nyi",
            "kind": "utca",
            "post_code": 0
        },
        {
            "name": "H\u0151k\u00f6zpont",
            "kind": "utca",
            "post_code": 0
        },
        {
            "name": "Holl\u00f3",
            "kind": "utca",
            "post_code": 0
        },
        {
            "name": "Homokb\u00e1nya",
            "kind": "utca",
            "post_code": 0
        },
        {
            "name": "Honv\u00e9d",
            "kind": "\u00fat",
            "post_code": 0
        },
        {
            "name": "Hossz\u00fahegy",
            "kind": "utca",
            "post_code": 0
        },
        {
            "name": "Hossz\u00fa",
            "kind": "utca",
            "post_code": 0
        },
        {
            "name": "H\u00f3vir\u00e1g",
            "kind": "utca",
            "post_code": 0
        },
        {
            "name": "Hubertusz",
            "kind": "\u00fat",
            "post_code": 0
        },
        {
            "name": "Hunyadi J\u00e1nos",
            "kind": "utca",
            "post_code": 0
        },
        {
            "name": "Husz\u00e1r",
            "kind": "utca",
            "post_code": 0
        },
        {
            "name": "H\u00fcvelyk",
            "kind": "utca",
            "post_code": 0
        },
        {
            "name": "Ibolya",
            "kind": "\u00fat",
            "post_code": 0
        },
        {
            "name": "Icce",
            "kind": "utca",
            "post_code": 0
        },
        {
            "name": "II. R\u00e1k\u00f3czi Ferenc",
            "kind": "utca",
            "post_code": 0
        },
        {
            "name": "Ikvah\u00edd",
            "kind": "",
            "post_code": 0
        },
        {
            "name": "Ikva-h\u00edd",
            "kind": "",
            "post_code": 0
        },
        {
            "name": "Ikva",
            "kind": "sor",
            "post_code": 0
        },
        {
            "name": "Ilona-akna fel\u00e9 vezet\u0151",
            "kind": "\u00fat",
            "post_code": 0
        },
        {
            "name": "Ipar",
            "kind": "k\u00f6r\u00fat",
            "post_code": 0
        },
        {
            "name": "Istv\u00e1nb\u00edr\u00f3",
            "kind": "utca",
            "post_code": 0
        },
        {
            "name": "IV. L\u00e1szl\u00f3 kir\u00e1ly",
            "kind": "utca",
            "post_code": 0
        },
        {
            "name": "\u00cdv",
            "kind": "utca",
            "post_code": 0
        },
        {
            "name": "J\u00e1nostelep",
            "kind": "",
            "post_code": 0
        },
        {
            "name": "J\u00e1zmin",
            "kind": "utca",
            "post_code": 0
        },
        {
            "name": "Jegenye",
            "kind": "sor",
            "post_code": 0
        },
        {
            "name": "J\u00e9gverem",
            "kind": "",
            "post_code": 0
        },
        {
            "name": "J\u00f3kai",
            "kind": "utca",
            "post_code": 0
        },
        {
            "name": "J\u00f3zsef Attila",
            "kind": "utca",
            "post_code": 0
        },
        {
            "name": "Juharfa",
            "kind": "utca",
            "post_code": 0
        },
        {
            "name": "Kaboldi",
            "kind": "utca",
            "post_code": 0
        },
        {
            "name": "Kakukk",
            "kind": "utca",
            "post_code": 0
        },
        {
            "name": "Kall\u00f3malom",
            "kind": "utca",
            "post_code": 0
        },
        {
            "name": "K\u00e1lm\u00e1n Imre",
            "kind": "utca",
            "post_code": 0
        },
        {
            "name": "Kalter Br\u00fcndl Weg",
            "kind": "",
            "post_code": 0
        },
        {
            "name": "Kankalin",
            "kind": "utca",
            "post_code": 0
        },
        {
            "name": "K\u00e1nya",
            "kind": "k\u00f6z",
            "post_code": 0
        },
        {
            "name": "K\u00e1poszt\u00e1s",
            "kind": "utca",
            "post_code": 0
        },
        {
            "name": "K\u00e1rolymagaslati",
            "kind": "\u00fat",
            "post_code": 0
        },
        {
            "name": "Kas",
            "kind": "k\u00f6z",
            "post_code": 0
        },
        {
            "name": "Kassai",
            "kind": "utca",
            "post_code": 0
        },
        {
            "name": "Kazinczy Ferenc",
            "kind": "t\u00e9r",
            "post_code": 0
        },
        {
            "name": "Kel\u00e9npatak",
            "kind": "utca",
            "post_code": 0
        },
        {
            "name": "Kelta",
            "kind": "utca",
            "post_code": 0
        },
        {
            "name": "Kempten",
            "kind": "utca",
            "post_code": 0
        },
        {
            "name": "Kereszt\u00fari",
            "kind": "\u00fat",
            "post_code": 0
        },
        {
            "name": "Kertbar\u00e1tok",
            "kind": "\u00fatja",
            "post_code": 0
        },
        {
            "name": "Kertekalja",
            "kind": "",
            "post_code": 0
        },
        {
            "name": "Kertesi",
            "kind": "utca",
            "post_code": 0
        },
        {
            "name": "Kert",
            "kind": "utca",
            "post_code": 0
        },
        {
            "name": "Kertv\u00e1rosi",
            "kind": "utca",
            "post_code": 0
        },
        {
            "name": "Ker\u00fcl\u0151",
            "kind": "k\u00f6z",
            "post_code": 0
        },
        {
            "name": "K\u00e9sm\u00e1rki",
            "kind": "utca",
            "post_code": 0
        },
        {
            "name": "K\u00e9th\u00e1z",
            "kind": "k\u00f6z",
            "post_code": 0
        },
        {
            "name": "Kir\u00e1ly Jen\u0151",
            "kind": "utca",
            "post_code": 0
        },
        {
            "name": "Kir\u00e1ly-t\u00f6lgy",
            "kind": "sor",
            "post_code": 0
        },
        {
            "name": "Kisdobos",
            "kind": "utca",
            "post_code": 0
        },
        {
            "name": "Kisfaludy",
            "kind": "utca",
            "post_code": 0
        },
        {
            "name": "Kish\u00e1z",
            "kind": "utca",
            "post_code": 0
        },
        {
            "name": "Kis J\u00e1nos",
            "kind": "utca",
            "post_code": 0
        },
        {
            "name": "Kismartoni",
            "kind": "sor",
            "post_code": 0
        },
        {
            "name": "Kist\u00f3malom",
            "kind": "utca",
            "post_code": 0
        },
        {
            "name": "Kitaibel P\u00e1l",
            "kind": "utca",
            "post_code": 0
        },
        {
            "name": "Kod\u00e1ly Zolt\u00e1n",
            "kind": "t\u00e9r",
            "post_code": 0
        },
        {
            "name": "K\u0151farag\u00f3",
            "kind": "t\u00e9r",
            "post_code": 0
        },
        {
            "name": "K\u0151fejt\u0151",
            "kind": "\u00fat",
            "post_code": 0
        },
        {
            "name": "K\u0151halom",
            "kind": "utca",
            "post_code": 0
        },
        {
            "name": "K\u00f6k\u00e9nyes",
            "kind": "k\u00f6z",
            "post_code": 0
        },
        {
            "name": "K\u00f6lcsey Ferenc",
            "kind": "utca",
            "post_code": 0
        },
        {
            "name": "Kolostorhegy",
            "kind": "utca",
            "post_code": 0
        },
        {
            "name": "Kolostor",
            "kind": "utca",
            "post_code": 0
        },
        {
            "name": "K\u0151m\u0171ves",
            "kind": "k\u00f6z",
            "post_code": 0
        },
        {
            "name": "K\u00f3ph\u00e1zi",
            "kind": "utca",
            "post_code": 0
        },
        {
            "name": "K\u00f3rh\u00e1z-telep",
            "kind": "",
            "post_code": 0
        },
        {
            "name": "K\u00f3rh\u00e1z",
            "kind": "utca",
            "post_code": 0
        },
        {
            "name": "Koron\u00e1z\u00f3domb",
            "kind": "",
            "post_code": 0
        },
        {
            "name": "K\u0151r\u00f6si Csoma S\u00e1ndor",
            "kind": "utca",
            "post_code": 0
        },
        {
            "name": "K\u00f6rt\u00e9s",
            "kind": "\u00fat",
            "post_code": 0
        },
        {
            "name": "Kossuth Lajos",
            "kind": "utca",
            "post_code": 0
        },
        {
            "name": "K\u0151szegi",
            "kind": "\u00fat",
            "post_code": 0
        },
        {
            "name": "K\u0151szegi \u00fati alulj\u00e1r\u00f3",
            "kind": "",
            "post_code": 0
        },
        {
            "name": "Kov\u00e1cs\u00e1rok",
            "kind": "",
            "post_code": 0
        },
        {
            "name": "Kov\u00e1cs\u00e1rok",
            "kind": "k\u00f6z",
            "post_code": 0
        },
        {
            "name": "Kreutz R\u00f3bert",
            "kind": "utca",
            "post_code": 0
        },
        {
            "name": "K\u00fcll\u0151i",
            "kind": "utca",
            "post_code": 0
        },
        {
            "name": "Kurta",
            "kind": "utca",
            "post_code": 0
        },
        {
            "name": "K\u00fcrt\u0151",
            "kind": "utca",
            "post_code": 0
        },
        {
            "name": "Kurucdomb",
            "kind": "",
            "post_code": 0
        },
        {
            "name": "Kurucdomb",
            "kind": "sor",
            "post_code": 0
        },
        {
            "name": "Kuruckereszt-telep",
            "kind": "",
            "post_code": 0
        },
        {
            "name": "Kuruc",
            "kind": "k\u00f6r\u00fat",
            "post_code": 0
        },
        {
            "name": "K\u00fat\u00f6sv\u00e9ny",
            "kind": "utca",
            "post_code": 0
        },
        {
            "name": "Lackner Krist\u00f3f",
            "kind": "utca",
            "post_code": 0
        },
        {
            "name": "Lajta",
            "kind": "k\u00f6z",
            "post_code": 0
        },
        {
            "name": "Lajtaszentgy\u00f6rgyi",
            "kind": "utca",
            "post_code": 0
        },
        {
            "name": "Lakfalvi",
            "kind": "utca",
            "post_code": 0
        },
        {
            "name": "Laktanya",
            "kind": "utca",
            "post_code": 0
        },
        {
            "name": "Lank\u00e1s",
            "kind": "utca",
            "post_code": 0
        },
        {
            "name": "L\u00e1nzs\u00e9ri",
            "kind": "\u00fat",
            "post_code": 0
        },
        {
            "name": "L\u00e1pr\u00e9ti",
            "kind": "\u00fat",
            "post_code": 0
        },
        {
            "name": "Le\u00e1nyk\u00f6k\u00f6rcsin",
            "kind": "utca",
            "post_code": 0
        },
        {
            "name": "Leh\u00e1r Ferenc",
            "kind": "utca",
            "post_code": 0
        },
        {
            "name": "Lejt\u0151",
            "kind": "\u00fat",
            "post_code": 0
        },
        {
            "name": "Lenck",
            "kind": "\u00e1tj\u00e1r\u00f3",
            "post_code": 0
        },
        {
            "name": "Lenkey",
            "kind": "utca",
            "post_code": 0
        },
        {
            "name": "L\u00e9pcs\u0151s",
            "kind": "utca",
            "post_code": 0
        },
        {
            "name": "L\u00e9pesfalvi",
            "kind": "utca",
            "post_code": 0
        },
        {
            "name": "Levendula",
            "kind": "utca",
            "post_code": 0
        },
        {
            "name": "Liget",
            "kind": "utca",
            "post_code": 0
        },
        {
            "name": "Lilaak\u00e1c",
            "kind": "k\u00f6z",
            "post_code": 0
        },
        {
            "name": "Liszt Ferenc",
            "kind": "utca",
            "post_code": 0
        },
        {
            "name": "Locsm\u00e1ndi",
            "kind": "k\u00f6z",
            "post_code": 0
        },
        {
            "name": "L\u00f3futtat\u00f3",
            "kind": "\u00fat",
            "post_code": 0
        },
        {
            "name": "L\u00f3ki",
            "kind": "sor",
            "post_code": 0
        },
        {
            "name": "Lomb",
            "kind": "utca",
            "post_code": 0
        },
        {
            "name": "L\u0151poros",
            "kind": "\u00fat",
            "post_code": 0
        },
        {
            "name": "L\u0151v\u00e9r",
            "kind": "k\u00f6r\u00fat",
            "post_code": 0
        },
        {
            "name": "L\u00f6v\u00e9sz",
            "kind": "utca",
            "post_code": 0
        },
        {
            "name": "Machatsek Gyula",
            "kind": "utca",
            "post_code": 0
        },
        {
            "name": "Macskak\u0151i",
            "kind": "\u00fat",
            "post_code": 0
        },
        {
            "name": "Mad\u00e1ch Imre",
            "kind": "utca",
            "post_code": 0
        },
        {
            "name": "Magyar",
            "kind": "utca",
            "post_code": 0
        },
        {
            "name": "Major",
            "kind": "k\u00f6z",
            "post_code": 0
        },
        {
            "name": "Mak\u00f3",
            "kind": "utca",
            "post_code": 0
        },
        {
            "name": "Malomh\u00e1zi",
            "kind": "utca",
            "post_code": 0
        },
        {
            "name": "Malomhegy",
            "kind": "utca",
            "post_code": 0
        },
        {
            "name": "Malompatak",
            "kind": "utca",
            "post_code": 0
        },
        {
            "name": "Malom",
            "kind": "utca",
            "post_code": 0
        },
        {
            "name": "Manninger",
            "kind": "utca",
            "post_code": 0
        },
        {
            "name": "M\u00e1rcfalvi",
            "kind": "utca",
            "post_code": 0
        },
        {
            "name": "Margar\u00e9ta",
            "kind": "utca",
            "post_code": 0
        },
        {
            "name": "Margitb\u00e1nyai",
            "kind": "utca",
            "post_code": 0
        },
        {
            "name": "M\u00e1rta",
            "kind": "sor",
            "post_code": 0
        },
        {
            "name": "Martinovics",
            "kind": "utca",
            "post_code": 0
        },
        {
            "name": "Martiny Frigyes",
            "kind": "utca",
            "post_code": 0
        },
        {
            "name": "M\u00e1rt\u00edrok",
            "kind": "\u00fatja",
            "post_code": 0
        },
        {
            "name": "M\u00e1ty\u00e1s kir\u00e1ly",
            "kind": "utca",
            "post_code": 0
        },
        {
            "name": "Maurer",
            "kind": "d\u0171l\u0151",
            "post_code": 0
        },
        {
            "name": "M\u00e9cses",
            "kind": "k\u00f6z",
            "post_code": 0
        },
        {
            "name": "Meggyesi",
            "kind": "utca",
            "post_code": 0
        },
        {
            "name": "M\u00e9lygar\u00e1zs",
            "kind": "",
            "post_code": 0
        },
        {
            "name": "M\u00e9ly",
            "kind": "\u00fat",
            "post_code": 0
        },
        {
            "name": "Mende Guszt\u00e1v",
            "kind": "utca",
            "post_code": 0
        },
        {
            "name": "Menta",
            "kind": "utca",
            "post_code": 0
        },
        {
            "name": "Menyh\u00e9rt",
            "kind": "utca",
            "post_code": 0
        },
        {
            "name": "Meredek",
            "kind": "utca",
            "post_code": 0
        },
        {
            "name": "Merenye",
            "kind": "sor",
            "post_code": 0
        },
        {
            "name": "M\u00e9szverem",
            "kind": "",
            "post_code": 0
        },
        {
            "name": "Mez\u0151",
            "kind": "utca",
            "post_code": 0
        },
        {
            "name": "Mikes Kelemen",
            "kind": "utca",
            "post_code": 0
        },
        {
            "name": "Mikoviny",
            "kind": "utca",
            "post_code": 0
        },
        {
            "name": "M\u00f3ricz Zsigmond",
            "kind": "utca",
            "post_code": 0
        },
        {
            "name": "M\u00fchl Alad\u00e1r",
            "kind": "utca",
            "post_code": 0
        },
        {
            "name": "Murmann S\u00e1muel",
            "kind": "utca",
            "post_code": 0
        },
        {
            "name": "N\u00e1dasdi",
            "kind": "utca",
            "post_code": 0
        },
        {
            "name": "N\u00e1das",
            "kind": "sor",
            "post_code": 0
        },
        {
            "name": "Nagymartoni",
            "kind": "utca",
            "post_code": 0
        },
        {
            "name": "Napos",
            "kind": "utca",
            "post_code": 0
        },
        {
            "name": "Nefelejcs",
            "kind": "utca",
            "post_code": 0
        },
        {
            "name": "Nemeski",
            "kind": "\u00fat",
            "post_code": 0
        },
        {
            "name": "N\u00e9meth L\u00e1szl\u00f3 J\u00e1nos",
            "kind": "utca",
            "post_code": 0
        },
        {
            "name": "N\u00e9vtelen \u00f6sv\u00e9ny",
            "kind": "",
            "post_code": 0
        },
        {
            "name": "Nezsideri",
            "kind": "utca",
            "post_code": 0
        },
        {
            "name": "Ny\u00e9ki",
            "kind": "utca",
            "post_code": 0
        },
        {
            "name": "Ny\u00edrfa",
            "kind": "utca",
            "post_code": 0
        },
        {
            "name": "Nyulas Ferenc",
            "kind": "s\u00e9t\u00e1ny",
            "post_code": 0
        },
        {
            "name": "Ny\u00faldombi",
            "kind": "utca",
            "post_code": 0
        },
        {
            "name": "\u00d3brennbergi",
            "kind": "\u00fat",
            "post_code": 0
        },
        {
            "name": "\u00d3gabona",
            "kind": "t\u00e9r",
            "post_code": 0
        },
        {
            "name": "\u00d3hegy",
            "kind": "utca",
            "post_code": 0
        },
        {
            "name": "\u00d3-Hermes",
            "kind": "telep",
            "post_code": 0
        },
        {
            "name": "Ojtozi",
            "kind": "fasor",
            "post_code": 0
        },
        {
            "name": "Ojtozi",
            "kind": "utca",
            "post_code": 0
        },
        {
            "name": "Okai",
            "kind": "utca",
            "post_code": 0
        },
        {
            "name": "\u00d3nodi",
            "kind": "utca",
            "post_code": 0
        },
        {
            "name": "\u00d6nt\u00f6de",
            "kind": "utca",
            "post_code": 0
        },
        {
            "name": "Orgona",
            "kind": "utca",
            "post_code": 0
        },
        {
            "name": "\u00d6rs",
            "kind": "utca",
            "post_code": 0
        },
        {
            "name": "\u00d6sv\u00e9ny",
            "kind": "utca",
            "post_code": 0
        },
        {
            "name": "\u0150szap\u00f3",
            "kind": "utca",
            "post_code": 0
        },
        {
            "name": "\u0150sz",
            "kind": "utca",
            "post_code": 0
        },
        {
            "name": "\u00d6tv\u00f6s",
            "kind": "utca",
            "post_code": 0
        },
        {
            "name": "Pacsirta",
            "kind": "utca",
            "post_code": 0
        },
        {
            "name": "P\u00e1losok",
            "kind": "tere",
            "post_code": 0
        },
        {
            "name": "Panor\u00e1ma",
            "kind": "\u00fat",
            "post_code": 0
        },
        {
            "name": "Pap K\u00e1roly",
            "kind": "utca",
            "post_code": 0
        },
        {
            "name": "Papr\u00e9t",
            "kind": "",
            "post_code": 0
        },
        {
            "name": "Papucsvir\u00e1g",
            "kind": "utca",
            "post_code": 0
        },
        {
            "name": "Patak",
            "kind": "utca",
            "post_code": 0
        },
        {
            "name": "Paur Iv\u00e1n",
            "kind": "utca",
            "post_code": 0
        },
        {
            "name": "P\u00e1zm\u00e1ny P\u00e9ter",
            "kind": "utca",
            "post_code": 0
        },
        {
            "name": "Pejachevich",
            "kind": "k\u00f6z",
            "post_code": 0
        },
        {
            "name": "Pesti Barnab\u00e1s",
            "kind": "utca",
            "post_code": 0
        },
        {
            "name": "P\u00e9terfalvi",
            "kind": "utca",
            "post_code": 0
        },
        {
            "name": "pet\u0151fi",
            "kind": "t\u00e9r",
            "post_code": 0
        },
        {
            "name": "Pet\u0151fi",
            "kind": "t\u00e9r",
            "post_code": 0
        },
        {
            "name": "Pet\u0151fi",
            "kind": "utca",
            "post_code": 0
        },
        {
            "name": "Pihen\u0151kereszt",
            "kind": "utca",
            "post_code": 0
        },
        {
            "name": "Pilerin",
            "kind": "utca",
            "post_code": 0
        },
        {
            "name": "Pipacs",
            "kind": "utca",
            "post_code": 0
        },
        {
            "name": "piros (triangle)",
            "kind": "",
            "post_code": 0
        },
        {
            "name": "P\u00f3csi",
            "kind": "utca",
            "post_code": 0
        },
        {
            "name": "P\u00f3da Ede",
            "kind": "utca",
            "post_code": 0
        },
        {
            "name": "Poncichter",
            "kind": "utca",
            "post_code": 0
        },
        {
            "name": "Posz\u00e1ta",
            "kind": "utca",
            "post_code": 0
        },
        {
            "name": "Potzmann",
            "kind": "utca",
            "post_code": 0
        },
        {
            "name": "Pozsonyi",
            "kind": "\u00fat",
            "post_code": 0
        },
        {
            "name": "Pulyai",
            "kind": "utca",
            "post_code": 0
        },
        {
            "name": "Puttonyos",
            "kind": "k\u00f6z",
            "post_code": 0
        },
        {
            "name": "Rakonca",
            "kind": "k\u00f6z",
            "post_code": 0
        },
        {
            "name": "R\u00e1kosi",
            "kind": "\u00fat",
            "post_code": 0
        },
        {
            "name": "Rauch Andr\u00e1s",
            "kind": "utca",
            "post_code": 0
        },
        {
            "name": "Ravazd",
            "kind": "utca",
            "post_code": 0
        },
        {
            "name": "Recenyi",
            "kind": "\u00fat",
            "post_code": 0
        },
        {
            "name": "R\u00e9gi iskola",
            "kind": "sor",
            "post_code": 0
        },
        {
            "name": "Remetelak",
            "kind": "utca",
            "post_code": 0
        },
        {
            "name": "Remete L\u00e1szl\u00f3",
            "kind": "utca",
            "post_code": 0
        },
        {
            "name": "R\u00e9pcef\u0151i",
            "kind": "sor",
            "post_code": 0
        },
        {
            "name": "R\u00e9t",
            "kind": "utca",
            "post_code": 0
        },
        {
            "name": "R\u00e9vai Mikl\u00f3s",
            "kind": "utca",
            "post_code": 0
        },
        {
            "name": "Rezeda",
            "kind": "utca",
            "post_code": 0
        },
        {
            "name": "Rodost\u00f3i",
            "kind": "utca",
            "post_code": 0
        },
        {
            "name": "R\u00f3ka",
            "kind": "\u00fat",
            "post_code": 0
        },
        {
            "name": "R\u00f3th Gyula",
            "kind": "utca",
            "post_code": 0
        },
        {
            "name": "Roz\u00e1lia",
            "kind": "\u00fat",
            "post_code": 0
        },
        {
            "name": "Rozmaring",
            "kind": "utca",
            "post_code": 0
        },
        {
            "name": "R\u00f3zsakert",
            "kind": "utca",
            "post_code": 0
        },
        {
            "name": "R\u00f3zsa",
            "kind": "utca",
            "post_code": 0
        },
        {
            "name": "Rozsondai K\u00e1roly",
            "kind": "utca",
            "post_code": 0
        },
        {
            "name": "Ruszti",
            "kind": "utca",
            "post_code": 0
        },
        {
            "name": "S\u00e1nchegy",
            "kind": "utca",
            "post_code": 0
        },
        {
            "name": "S\u00e1rgah\u00e1z",
            "kind": "sor",
            "post_code": 0
        },
        {
            "name": "Sarudi",
            "kind": "utca",
            "post_code": 0
        },
        {
            "name": "Sas",
            "kind": "t\u00e9r",
            "post_code": 0
        },
        {
            "name": "Sch\u00e1rm\u00e1r K\u00e1roly",
            "kind": "utca",
            "post_code": 0
        },
        {
            "name": "Scheibel",
            "kind": "d\u0171l\u0151",
            "post_code": 0
        },
        {
            "name": "Sch\u00f6nherrmalom",
            "kind": "utca",
            "post_code": 0
        },
        {
            "name": "Selmeci",
            "kind": "utca",
            "post_code": 0
        },
        {
            "name": "Semmelweis",
            "kind": "utca",
            "post_code": 0
        },
        {
            "name": "S\u00edfut\u00f3 p\u00e1lya 2",
            "kind": "",
            "post_code": 0
        },
        {
            "name": "Sir\u00e1ly",
            "kind": "utca",
            "post_code": 0
        },
        {
            "name": "Somfalvi",
            "kind": "\u00fat",
            "post_code": 0
        },
        {
            "name": "Somfalvi",
            "kind": "utca",
            "post_code": 0
        },
        {
            "name": "Soproni Horv\u00e1th J\u00f3zsef",
            "kind": "utca",
            "post_code": 0
        },
        {
            "name": "Soproni",
            "kind": "\u00fat",
            "post_code": 0
        },
        {
            "name": "S\u00f6rh\u00e1zdombi",
            "kind": "\u00fat",
            "post_code": 0
        },
        {
            "name": "S\u00f6v\u00e9ny",
            "kind": "k\u00f6z",
            "post_code": 0
        },
        {
            "name": "Sport",
            "kind": "utca",
            "post_code": 0
        },
        {
            "name": "Storn\u00f3 Ferenc",
            "kind": "utca",
            "post_code": 0
        },
        {
            "name": "Strand",
            "kind": "utca",
            "post_code": 0
        },
        {
            "name": "Szajk\u00f3",
            "kind": "utca",
            "post_code": 0
        },
        {
            "name": "Szalamandra",
            "kind": "\u00fat",
            "post_code": 0
        },
        {
            "name": "Szappanf\u0151z\u0151",
            "kind": "k\u00f6r\u00fat",
            "post_code": 0
        },
        {
            "name": "Sz\u00e1rcsa",
            "kind": "utca",
            "post_code": 0
        },
        {
            "name": "Sz\u00e1rhalmi",
            "kind": "utca",
            "post_code": 0
        },
        {
            "name": "Szarvas",
            "kind": "k\u00f6z",
            "post_code": 0
        },
        {
            "name": "Szarvk\u0151i",
            "kind": "utca",
            "post_code": 0
        },
        {
            "name": "Sz\u00e9chenyi",
            "kind": "t\u00e9r",
            "post_code": 0
        },
        {
            "name": "Szeder",
            "kind": "utca",
            "post_code": 0
        },
        {
            "name": "Szegf\u0171",
            "kind": "utca",
            "post_code": 0
        },
        {
            "name": "Sz\u00e9keles",
            "kind": "utca",
            "post_code": 0
        },
        {
            "name": "Sz\u00e9lesk\u00fati",
            "kind": "utca",
            "post_code": 0
        },
        {
            "name": "Szell\u0151",
            "kind": "utca",
            "post_code": 0
        },
        {
            "name": "Sz\u00e9lmalom",
            "kind": "t\u00e9r",
            "post_code": 0
        },
        {
            "name": "Sz\u00e9lmalom",
            "kind": "utca",
            "post_code": 0
        },
        {
            "name": "Sz\u00e9ls\u0151",
            "kind": "utca",
            "post_code": 0
        },
        {
            "name": "Szent Gy\u00f6rgy",
            "kind": "utca",
            "post_code": 0
        },
        {
            "name": "Szent Imre",
            "kind": "t\u00e9r",
            "post_code": 0
        },
        {
            "name": "Szentl\u00e9lek",
            "kind": "utca",
            "post_code": 0
        },
        {
            "name": "Szent Margit",
            "kind": "\u00fat",
            "post_code": 0
        },
        {
            "name": "Szent Mih\u00e1ly",
            "kind": "utca",
            "post_code": 0
        },
        {
            "name": "Sz\u00e9pv\u00f6lgyi",
            "kind": "utca",
            "post_code": 0
        },
        {
            "name": "Szerb Antal",
            "kind": "utca",
            "post_code": 0
        },
        {
            "name": "Sziget",
            "kind": "k\u00f6z",
            "post_code": 0
        },
        {
            "name": "Szikla",
            "kind": "utca",
            "post_code": 0
        },
        {
            "name": "Szilv\u00e1s",
            "kind": "\u00fat",
            "post_code": 0
        },
        {
            "name": "Sz\u00ednh\u00e1z",
            "kind": "utca",
            "post_code": 0
        },
        {
            "name": "Sziv\u00e1rv\u00e1ny",
            "kind": "utca",
            "post_code": 0
        },
        {
            "name": "Sz\u00edv",
            "kind": "utca",
            "post_code": 0
        },
        {
            "name": "Sz\u00f6g",
            "kind": "utca",
            "post_code": 0
        },
        {
            "name": "Sz\u0151l\u0151skert",
            "kind": "utca",
            "post_code": 0
        },
        {
            "name": "Sz\u0151l\u0151s",
            "kind": "\u00fat",
            "post_code": 0
        },
        {
            "name": "Sz\u0151l\u0151s",
            "kind": "utca",
            "post_code": 0
        },
        {
            "name": "Sz\u00fcret",
            "kind": "utca",
            "post_code": 0
        },
        {
            "name": "Talli\u00e1n",
            "kind": "utca",
            "post_code": 0
        },
        {
            "name": "T\u00e1mfa",
            "kind": "utca",
            "post_code": 0
        },
        {
            "name": "T\u00e1ncsics Mih\u00e1ly",
            "kind": "utca",
            "post_code": 0
        },
        {
            "name": "T\u00e1rczy-Hornoch Antal",
            "kind": "utca",
            "post_code": 0
        },
        {
            "name": "Tarl\u00f3",
            "kind": "sor",
            "post_code": 0
        },
        {
            "name": "T\u00e1rna",
            "kind": "utca",
            "post_code": 0
        },
        {
            "name": "Tavir\u00f3zsa",
            "kind": "utca",
            "post_code": 0
        },
        {
            "name": "T\u00e9gla",
            "kind": "utca",
            "post_code": 0
        },
        {
            "name": "Teleki P\u00e1l",
            "kind": "utca",
            "post_code": 0
        },
        {
            "name": "Temet\u0151",
            "kind": "utca",
            "post_code": 0
        },
        {
            "name": "Templom",
            "kind": "utca",
            "post_code": 0
        },
        {
            "name": "Terv",
            "kind": "\u00fat",
            "post_code": 0
        },
        {
            "name": "Terv",
            "kind": "utca",
            "post_code": 0
        },
        {
            "name": "Thirring Guszt\u00e1v",
            "kind": "utca",
            "post_code": 0
        },
        {
            "name": "Th\u00f6k\u00f6ly",
            "kind": "t\u00e9r",
            "post_code": 0
        },
        {
            "name": "Thurner Mih\u00e1ly",
            "kind": "utca",
            "post_code": 0
        },
        {
            "name": "Toldy Ferenc",
            "kind": "utca",
            "post_code": 0
        },
        {
            "name": "T\u00f6lgyes",
            "kind": "k\u00f6z",
            "post_code": 0
        },
        {
            "name": "T\u00f6lgyfa",
            "kind": "sor",
            "post_code": 0
        },
        {
            "name": "T\u00f3malom",
            "kind": "sor",
            "post_code": 0
        },
        {
            "name": "T\u00f3malom",
            "kind": "utca",
            "post_code": 0
        },
        {
            "name": "Tompa Mih\u00e1ly",
            "kind": "utca",
            "post_code": 0
        },
        {
            "name": "T\u00f6pler K\u00e1lm\u00e1n",
            "kind": "utca",
            "post_code": 0
        },
        {
            "name": "Torkos",
            "kind": "utca",
            "post_code": 0
        },
        {
            "name": "Torna",
            "kind": "utca",
            "post_code": 0
        },
        {
            "name": "T\u00f3th Antal",
            "kind": "utca",
            "post_code": 0
        },
        {
            "name": "T\u00f3",
            "kind": "utca",
            "post_code": 0
        },
        {
            "name": "T\u00f6vis",
            "kind": "k\u00f6z",
            "post_code": 0
        },
        {
            "name": "Trampelpfad",
            "kind": "",
            "post_code": 0
        },
        {
            "name": "Trefort",
            "kind": "t\u00e9r",
            "post_code": 0
        },
        {
            "name": "Tulip\u00e1n",
            "kind": "k\u00f6z",
            "post_code": 0
        },
        {
            "name": "T\u00fcnde",
            "kind": "\u00fat",
            "post_code": 0
        },
        {
            "name": "Turista",
            "kind": "utca",
            "post_code": 0
        },
        {
            "name": "T\u0171zolt\u00f3",
            "kind": "k\u00f6z",
            "post_code": 0
        },
        {
            "name": "T\u0171zolt\u00f3",
            "kind": "utca",
            "post_code": 0
        },
        {
            "name": "T\u0171ztorony",
            "kind": "utca",
            "post_code": 0
        },
        {
            "name": "\u00dcd\u00fcl\u0151",
            "kind": "sor",
            "post_code": 0
        },
        {
            "name": "Udvarnoki",
            "kind": "utca",
            "post_code": 0
        },
        {
            "name": "\u00dajd\u0171l\u0151",
            "kind": "utca",
            "post_code": 0
        },
        {
            "name": "\u00dajhegy",
            "kind": "utca",
            "post_code": 0
        },
        {
            "name": "\u00daj-Hermes",
            "kind": "telep",
            "post_code": 0
        },
        {
            "name": "\u00dajlaki",
            "kind": "utca",
            "post_code": 0
        },
        {
            "name": "\u00dajteleki",
            "kind": "utca",
            "post_code": 0
        },
        {
            "name": "\u00daj",
            "kind": "utca",
            "post_code": 0
        },
        {
            "name": "Uszoda",
            "kind": "utca",
            "post_code": 0
        },
        {
            "name": "\u00datt\u00f6r\u0151",
            "kind": "utca",
            "post_code": 0
        },
        {
            "name": "Vadas Jen\u0151",
            "kind": "utca",
            "post_code": 0
        },
        {
            "name": "Vad\u00e1sz",
            "kind": "utca",
            "post_code": 0
        },
        {
            "name": "Vadvir\u00e1g",
            "kind": "utca",
            "post_code": 0
        },
        {
            "name": "V\u00e1ghy Ferenc",
            "kind": "utca",
            "post_code": 0
        },
        {
            "name": "V\u00e1j\u00e1r",
            "kind": "k\u00f6z",
            "post_code": 0
        },
        {
            "name": "Vak Botty\u00e1n",
            "kind": "utca",
            "post_code": 0
        },
        {
            "name": "V\u00e1ndor S\u00e1ndor",
            "kind": "utca",
            "post_code": 0
        },
        {
            "name": "V\u00e1rfal",
            "kind": "s\u00e9t\u00e1ny",
            "post_code": 0
        },
        {
            "name": "V\u00e1rfal",
            "kind": "utca",
            "post_code": 0
        },
        {
            "name": "V\u00e1rhely",
            "kind": "utca",
            "post_code": 0
        },
        {
            "name": "V\u00e1risi",
            "kind": "\u00fat",
            "post_code": 0
        },
        {
            "name": "Varj\u00fa",
            "kind": "k\u00f6z",
            "post_code": 0
        },
        {
            "name": "V\u00e1rker\u00fclet",
            "kind": "",
            "post_code": 0
        },
        {
            "name": "V\u00e1rosh\u00e1z",
            "kind": "utca",
            "post_code": 0
        },
        {
            "name": "V\u00e1rosligeti",
            "kind": "\u00fat",
            "post_code": 0
        },
        {
            "name": "Varsa",
            "kind": "utca",
            "post_code": 0
        },
        {
            "name": "V\u00e1s\u00e1rhelyi P\u00e1l",
            "kind": "utca",
            "post_code": 0
        },
        {
            "name": "Vasf\u00fcgg\u00f6ny t\u00fara\u00fatvonal",
            "kind": "",
            "post_code": 0
        },
        {
            "name": "Vasf\u00fcgg\u00f6ny T\u00fara\u00fatvonal",
            "kind": "",
            "post_code": 0
        },
        {
            "name": "Vas Gereben",
            "kind": "utca",
            "post_code": 0
        },
        {
            "name": "Vas\u00fati",
            "kind": "sor",
            "post_code": 0
        },
        {
            "name": "Vas\u00fat",
            "kind": "sor",
            "post_code": 0
        },
        {
            "name": "Vasv\u00e1ri P\u00e1l",
            "kind": "utca",
            "post_code": 0
        },
        {
            "name": "Vasvir\u00e1g",
            "kind": "utca",
            "post_code": 0
        },
        {
            "name": "V\u00e9gfordulat",
            "kind": "",
            "post_code": 0
        },
        {
            "name": "Vendel Mikl\u00f3",
            "kind": "utca",
            "post_code": 0
        },
        {
            "name": "Vepperdi",
            "kind": "utca",
            "post_code": 0
        },
        {
            "name": "V\u00e9rcse",
            "kind": "utca",
            "post_code": 0
        },
        {
            "name": "Ver\u0151 J\u00f3zsef",
            "kind": "utca",
            "post_code": 0
        },
        {
            "name": "Villa",
            "kind": "sor",
            "post_code": 0
        },
        {
            "name": "Vincell\u00e9r",
            "kind": "utca",
            "post_code": 0
        },
        {
            "name": "Vir\u00e1gf\u00fcz\u00e9r",
            "kind": "utca",
            "post_code": 0
        },
        {
            "name": "Vir\u00e1goskert",
            "kind": "utca",
            "post_code": 0
        },
        {
            "name": "Vir\u00e1g",
            "kind": "utca",
            "post_code": 0
        },
        {
            "name": "Vir\u00e1gv\u00f6lgyi",
            "kind": "\u00fat",
            "post_code": 0
        },
        {
            "name": "Vitny\u00e9di",
            "kind": "utca",
            "post_code": 0
        },
        {
            "name": "V\u00f6lgy",
            "kind": "utca",
            "post_code": 0
        },
        {
            "name": "V\u00f6r\u00f6sbegy",
            "kind": "utca",
            "post_code": 0
        },
        {
            "name": "V\u00f6r\u00f6smarty",
            "kind": "utca",
            "post_code": 0
        },
        {
            "name": "W\u00e4lder J\u00f3zsef",
            "kind": "utca",
            "post_code": 0
        },
        {
            "name": "Wessel\u00e9nyi",
            "kind": "utca",
            "post_code": 0
        },
        {
            "name": "Winkler",
            "kind": "\u00fat",
            "post_code": 0
        },
        {
            "name": "Wosinszky K\u00e1zm\u00e9r",
            "kind": "\u00fat",
            "post_code": 0
        },
        {
            "name": "Zar\u00e1ndok",
            "kind": "\u00fat",
            "post_code": 0
        },
        {
            "name": "Z\u00e1r\u00e1nyi",
            "kind": "utca",
            "post_code": 0
        },
        {
            "name": "Z\u00e1rdakert",
            "kind": "k\u00f6z",
            "post_code": 0
        },
        {
            "name": "Zerge",
            "kind": "\u00fat",
            "post_code": 0
        },
        {
            "name": "Zr\u00ednyi Mikl\u00f3s",
            "kind": "utca",
            "post_code": 0
        },
        {
            "name": "Zsilip",
            "kind": "utca",
            "post_code": 0
        },
        {
            "name": "B\u00e1stya",
            "kind": "t\u00e9r",
            "post_code": 0
        },
        {
            "name": "F\u0151",
            "kind": "t\u00e9r",
            "post_code": 0
        },
        {
            "name": "Orsolya",
            "kind": "t\u00e9r",
            "post_code": 0
        },
        {
            "name": "P\u00e1losok",
            "kind": "tere",
            "post_code": 0
        },
        {
            "name": "Pet\u0151fi",
            "kind": "t\u00e9r",
            "post_code": 0
        }
    ]
}