{
    "codes": {
        "4467": [
            "Szabolcs",
            null
        ]
    },
    "streets": [
        {
            "name": "\u00c1rp\u00e1d",
            "kind": "utca",
            "post_code": 0
        },
        {
            "name": "Bocskai",
            "kind": "utca",
            "post_code": 0
        },
        {
            "name": "D\u00f3zsa Gy\u00f6rgy",
            "kind": "utca",
            "post_code": 0
        },
        {
            "name": "Guti",
            "kind": "k\u00f6z",
            "post_code": 0
        },
        {
            "name": "Kossuth",
            "kind": "utca",
            "post_code": 0
        },
        {
            "name": "M\u00f3ricz Zsigmond",
            "kind": "utca",
            "post_code": 0
        },
        {
            "name": "Pet\u0151fi",
            "kind": "utca",
            "post_code": 0
        },
        {
            "name": "Rakamazi",
            "kind": "utca",
            "post_code": 0
        },
        {
            "name": "R\u00e1k\u00f3czi",
            "kind": "utca",
            "post_code": 0
        },
        {
            "name": "Szabads\u00e1g",
            "kind": "utca",
            "post_code": 0
        },
        {
            "name": "Szabolcsvez\u00e9r",
            "kind": "utca",
            "post_code": 0
        },
        {
            "name": "T\u00e1ncsics",
            "kind": "utca",
            "post_code": 0
        }
    ]
}