{
    "codes": {
        "5081": [
            "Szajol",
            null
        ]
    },
    "streets": [
        {
            "name": "Ady Endre",
            "kind": "\u00fat",
            "post_code": 0
        },
        {
            "name": "\u00c1for",
            "kind": "\u00fat",
            "post_code": 0
        },
        {
            "name": "Ak\u00e1cfa",
            "kind": "\u00fat",
            "post_code": 0
        },
        {
            "name": "\u00c1llom\u00e1s",
            "kind": "\u00fat",
            "post_code": 0
        },
        {
            "name": "Arany J\u00e1nos",
            "kind": "\u00fat",
            "post_code": 0
        },
        {
            "name": "\u00c1rp\u00e1d",
            "kind": "\u00fat",
            "post_code": 0
        },
        {
            "name": "Bajcsy-Zsilinszky",
            "kind": "\u00fat",
            "post_code": 0
        },
        {
            "name": "Bart\u00f3k B\u00e9la",
            "kind": "\u00fat",
            "post_code": 0
        },
        {
            "name": "Batthy\u00e1ny",
            "kind": "\u00fat",
            "post_code": 0
        },
        {
            "name": "B\u00e9ke",
            "kind": "\u00fat",
            "post_code": 0
        },
        {
            "name": "Bek\u00f6t\u0151",
            "kind": "\u00fat",
            "post_code": 0
        },
        {
            "name": "Bem ap\u00f3",
            "kind": "\u00fat",
            "post_code": 0
        },
        {
            "name": "Bocskai",
            "kind": "\u00fat",
            "post_code": 0
        },
        {
            "name": "Csillag",
            "kind": "\u00fat",
            "post_code": 0
        },
        {
            "name": "Damjanich",
            "kind": "\u00fat",
            "post_code": 0
        },
        {
            "name": "Dank\u00f3 Pista",
            "kind": "\u00fat",
            "post_code": 0
        },
        {
            "name": "Debreceni",
            "kind": "\u00fat",
            "post_code": 0
        },
        {
            "name": "Di\u00f3fa",
            "kind": "\u00fat",
            "post_code": 0
        },
        {
            "name": "D\u00f3zsa Gy\u00f6rgy",
            "kind": "\u00fat",
            "post_code": 0
        },
        {
            "name": "Egressy B\u00e9ni",
            "kind": "\u00fat",
            "post_code": 0
        },
        {
            "name": "Erdei Ferenc",
            "kind": "\u00fat",
            "post_code": 0
        },
        {
            "name": "F\u0151",
            "kind": "\u00fat",
            "post_code": 0
        },
        {
            "name": "G\u00e1bor \u00c1ron",
            "kind": "\u00fat",
            "post_code": 0
        },
        {
            "name": "G\u00e1rdonyi G\u00e9za",
            "kind": "\u00fat",
            "post_code": 0
        },
        {
            "name": "Gerle",
            "kind": "\u00fat",
            "post_code": 0
        },
        {
            "name": "G\u00f3lya",
            "kind": "\u00fat",
            "post_code": 0
        },
        {
            "name": "Gy\u00f6ngyvir\u00e1g",
            "kind": "\u00fat",
            "post_code": 0
        },
        {
            "name": "Gy\u0151zelem",
            "kind": "\u00fat",
            "post_code": 0
        },
        {
            "name": "Hal\u00e1sz",
            "kind": "\u00fat",
            "post_code": 0
        },
        {
            "name": "Honv\u00e9d",
            "kind": "\u00fat",
            "post_code": 0
        },
        {
            "name": "Hunyadi",
            "kind": "\u00fat",
            "post_code": 0
        },
        {
            "name": "Ibolya",
            "kind": "\u00fat",
            "post_code": 0
        },
        {
            "name": "J\u00f3kai M\u00f3r",
            "kind": "\u00fat",
            "post_code": 0
        },
        {
            "name": "J\u00f3zsef Attila",
            "kind": "\u00fat",
            "post_code": 0
        },
        {
            "name": "K\u00e1rolyi Mih\u00e1ly",
            "kind": "\u00fat",
            "post_code": 0
        },
        {
            "name": "Keleti K\u00e1roly",
            "kind": "\u00fat",
            "post_code": 0
        },
        {
            "name": "Keszeg",
            "kind": "\u00fat",
            "post_code": 0
        },
        {
            "name": "Kinizsi P\u00e1l",
            "kind": "\u00fat",
            "post_code": 0
        },
        {
            "name": "Kod\u00e1ly Zolt\u00e1n",
            "kind": "\u00fat",
            "post_code": 0
        },
        {
            "name": "K\u00f6lcsey Ferenc",
            "kind": "\u00fat",
            "post_code": 0
        },
        {
            "name": "Kossuth",
            "kind": "k\u00f6z",
            "post_code": 0
        },
        {
            "name": "Kossuth",
            "kind": "\u00fat",
            "post_code": 0
        },
        {
            "name": "K\u00f6zt\u00e1rsas\u00e1g",
            "kind": "\u00fat",
            "post_code": 0
        },
        {
            "name": "Malom",
            "kind": "\u00fat",
            "post_code": 0
        },
        {
            "name": "M\u00e1rt\u00edrok",
            "kind": "\u00fat",
            "post_code": 0
        },
        {
            "name": "Marx K\u00e1roly",
            "kind": "\u00fat",
            "post_code": 0
        },
        {
            "name": "M\u00e1ty\u00e1s kir\u00e1ly",
            "kind": "\u00fat",
            "post_code": 0
        },
        {
            "name": "M\u00e1ty\u00e1s",
            "kind": "k\u00f6z",
            "post_code": 0
        },
        {
            "name": "Miksz\u00e1th K\u00e1lm\u00e1n",
            "kind": "\u00fat",
            "post_code": 0
        },
        {
            "name": "Munka",
            "kind": "\u00fat",
            "post_code": 0
        },
        {
            "name": "Napsug\u00e1r",
            "kind": "\u00fat",
            "post_code": 0
        },
        {
            "name": "Nefelejcs",
            "kind": "\u00fat",
            "post_code": 0
        },
        {
            "name": "Orgona",
            "kind": "\u00fat",
            "post_code": 0
        },
        {
            "name": "Pacsirta",
            "kind": "\u00fat",
            "post_code": 0
        },
        {
            "name": "Pet\u0151fi",
            "kind": "\u00fat",
            "post_code": 0
        },
        {
            "name": "Radn\u00f3ti",
            "kind": "\u00fat",
            "post_code": 0
        },
        {
            "name": "R\u00e1k\u00f3czi Ferenc",
            "kind": "\u00fat",
            "post_code": 0
        },
        {
            "name": "Rozmaring",
            "kind": "\u00fat",
            "post_code": 0
        },
        {
            "name": "R\u00f3zs\u00e1k",
            "kind": "tere",
            "post_code": 0
        },
        {
            "name": "R\u00f3zsa",
            "kind": "\u00fat",
            "post_code": 0
        },
        {
            "name": "Rudas L\u00e1szl\u00f3",
            "kind": "\u00fat",
            "post_code": 0
        },
        {
            "name": "Sz\u00e9chenyi",
            "kind": "\u00fat",
            "post_code": 0
        },
        {
            "name": "Szegf\u0171",
            "kind": "\u00fat",
            "post_code": 0
        },
        {
            "name": "Sz\u00e9l",
            "kind": "\u00fat",
            "post_code": 0
        },
        {
            "name": "Szent Istv\u00e1n kir\u00e1ly",
            "kind": "\u00fat",
            "post_code": 0
        },
        {
            "name": "Szolnoki",
            "kind": "\u00fat",
            "post_code": 0
        },
        {
            "name": "Sz\u0151nyi M\u00e1rton",
            "kind": "\u00fat",
            "post_code": 0
        },
        {
            "name": "T\u00e1ncsics",
            "kind": "\u00fat",
            "post_code": 0
        },
        {
            "name": "T\u00f6lgyfa",
            "kind": "\u00fat",
            "post_code": 0
        },
        {
            "name": "Tulip\u00e1n",
            "kind": "\u00fat",
            "post_code": 0
        },
        {
            "name": "V\u00f6r\u00f6smarty",
            "kind": "\u00fat",
            "post_code": 0
        },
        {
            "name": "Zr\u00ednyi Ilona",
            "kind": "\u00fat",
            "post_code": 0
        }
    ]
}