{
    "codes": {
        "7100": [
            "Szeksz\u00e1rd",
            null
        ]
    },
    "streets": [
        {
            "name": "Ady Endre",
            "kind": "utca",
            "post_code": 0
        },
        {
            "name": "Ak\u00e1cfa",
            "kind": "utca",
            "post_code": 0
        },
        {
            "name": "Alisca",
            "kind": "utca",
            "post_code": 0
        },
        {
            "name": "Alkony",
            "kind": "utca",
            "post_code": 0
        },
        {
            "name": "Alkotm\u00e1ny",
            "kind": "utca",
            "post_code": 0
        },
        {
            "name": "Allende",
            "kind": "utca",
            "post_code": 0
        },
        {
            "name": "Alm\u00e1s",
            "kind": "",
            "post_code": 0
        },
        {
            "name": "Arany J\u00e1nos",
            "kind": "utca",
            "post_code": 0
        },
        {
            "name": "Aranyt\u00f3",
            "kind": "utca",
            "post_code": 0
        },
        {
            "name": "\u00c1rnyas",
            "kind": "utca",
            "post_code": 0
        },
        {
            "name": "\u00c1rok",
            "kind": "utca",
            "post_code": 0
        },
        {
            "name": "\u00c1rp\u00e1d",
            "kind": "utca",
            "post_code": 0
        },
        {
            "name": "Augusz Imre",
            "kind": "utca",
            "post_code": 0
        },
        {
            "name": "Avar",
            "kind": "utca",
            "post_code": 0
        },
        {
            "name": "Babits Mih\u00e1ly",
            "kind": "utca",
            "post_code": 0
        },
        {
            "name": "Bag\u00f3v\u00f6lgy",
            "kind": "",
            "post_code": 0
        },
        {
            "name": "Bajcsy-Zsilinszky",
            "kind": "utca",
            "post_code": 0
        },
        {
            "name": "Baka",
            "kind": "utca",
            "post_code": 0
        },
        {
            "name": "Bakony",
            "kind": "utca",
            "post_code": 0
        },
        {
            "name": "Bakta",
            "kind": "",
            "post_code": 0
        },
        {
            "name": "Bakta",
            "kind": "k\u00f6z",
            "post_code": 0
        },
        {
            "name": "Balassa",
            "kind": "utca",
            "post_code": 0
        },
        {
            "name": "B\u00e1lint",
            "kind": "k\u00f6z",
            "post_code": 0
        },
        {
            "name": "Balpar\u00e1szta",
            "kind": "",
            "post_code": 0
        },
        {
            "name": "Balremete",
            "kind": "",
            "post_code": 0
        },
        {
            "name": "Baranyav\u00f6lgy",
            "kind": "",
            "post_code": 0
        },
        {
            "name": "Bar\u00e1th",
            "kind": "utca",
            "post_code": 0
        },
        {
            "name": "Bar\u00e1ts\u00e1g",
            "kind": "utca",
            "post_code": 0
        },
        {
            "name": "Bar\u00e1zda",
            "kind": "utca",
            "post_code": 0
        },
        {
            "name": "Bartina",
            "kind": "k\u00f6z",
            "post_code": 0
        },
        {
            "name": "Bartina",
            "kind": "utca",
            "post_code": 0
        },
        {
            "name": "B\u00e1tasz\u00e9ki",
            "kind": "utca",
            "post_code": 0
        },
        {
            "name": "Batthy\u00e1ny",
            "kind": "utca",
            "post_code": 0
        },
        {
            "name": "Beatrix kir\u00e1lyn\u00e9",
            "kind": "park",
            "post_code": 0
        },
        {
            "name": "B\u00e9ketelep",
            "kind": "",
            "post_code": 0
        },
        {
            "name": "B\u00e9la kir\u00e1ly",
            "kind": "t\u00e9r",
            "post_code": 0
        },
        {
            "name": "Bem",
            "kind": "utca",
            "post_code": 0
        },
        {
            "name": "Bencz\u00far",
            "kind": "utca",
            "post_code": 0
        },
        {
            "name": "Benedek ap\u00e1t",
            "kind": "utca",
            "post_code": 0
        },
        {
            "name": "Benedekv\u00f6lgy",
            "kind": "",
            "post_code": 0
        },
        {
            "name": "Bercs\u00e9nyi",
            "kind": "utca",
            "post_code": 0
        },
        {
            "name": "B\u00e9ri Balogh \u00c1d\u00e1m",
            "kind": "utca",
            "post_code": 0
        },
        {
            "name": "Bern",
            "kind": "utca",
            "post_code": 0
        },
        {
            "name": "Berzsenyi",
            "kind": "utca",
            "post_code": 0
        },
        {
            "name": "Bethlen G\u00e1bor",
            "kind": "utca",
            "post_code": 0
        },
        {
            "name": "Bezer\u00e9dj",
            "kind": "utca",
            "post_code": 0
        },
        {
            "name": "Bezons",
            "kind": "park",
            "post_code": 0
        },
        {
            "name": "Bikav\u00e9r",
            "kind": "utca",
            "post_code": 0
        },
        {
            "name": "Bocskai",
            "kind": "k\u00f6z",
            "post_code": 0
        },
        {
            "name": "Bocskai",
            "kind": "utca",
            "post_code": 0
        },
        {
            "name": "Bodza",
            "kind": "utca",
            "post_code": 0
        },
        {
            "name": "Bogyiszl\u00f3i",
            "kind": "\u00fat",
            "post_code": 0
        },
        {
            "name": "Bolyai J\u00e1nos",
            "kind": "utca",
            "post_code": 0
        },
        {
            "name": "Bork\u00fat",
            "kind": "",
            "post_code": 0
        },
        {
            "name": "Borosty\u00e1n",
            "kind": "utca",
            "post_code": 0
        },
        {
            "name": "Bor",
            "kind": "utca",
            "post_code": 0
        },
        {
            "name": "Borzs\u00e1k Endre",
            "kind": "utca",
            "post_code": 0
        },
        {
            "name": "Br\u00f3dy S\u00e1ndor",
            "kind": "k\u00f6z",
            "post_code": 0
        },
        {
            "name": "Br\u00f3dy S\u00e1ndor",
            "kind": "utca",
            "post_code": 0
        },
        {
            "name": "B\u00fckk",
            "kind": "utca",
            "post_code": 0
        },
        {
            "name": "Buszfordul\u00f3",
            "kind": "",
            "post_code": 0
        },
        {
            "name": "B\u00fazavir\u00e1g",
            "kind": "utca",
            "post_code": 0
        },
        {
            "name": "Cinege",
            "kind": "utca",
            "post_code": 0
        },
        {
            "name": "Cinka",
            "kind": "utca",
            "post_code": 0
        },
        {
            "name": "Csaba",
            "kind": "utca",
            "post_code": 0
        },
        {
            "name": "Csalog\u00e1ny",
            "kind": "utca",
            "post_code": 0
        },
        {
            "name": "Csap\u00f3 D\u00e1niel",
            "kind": "utca",
            "post_code": 0
        },
        {
            "name": "Csap",
            "kind": "utca",
            "post_code": 0
        },
        {
            "name": "Csat\u00e1ri",
            "kind": "utca",
            "post_code": 0
        },
        {
            "name": "Csend",
            "kind": "utca",
            "post_code": 0
        },
        {
            "name": "Csengey D\u00e9nes",
            "kind": "utca",
            "post_code": 0
        },
        {
            "name": "Cserfa",
            "kind": "utca",
            "post_code": 0
        },
        {
            "name": "Cser-h\u00e1t-hegyi kit\u00e9r\u0151",
            "kind": "",
            "post_code": 0
        },
        {
            "name": "Cserh\u00e1t",
            "kind": "utca",
            "post_code": 0
        },
        {
            "name": "Cs\u00e9ri J\u00e1nos",
            "kind": "utca",
            "post_code": 0
        },
        {
            "name": "Csoboly\u00f3",
            "kind": "utca",
            "post_code": 0
        },
        {
            "name": "Csokonai",
            "kind": "utca",
            "post_code": 0
        },
        {
            "name": "Csonka",
            "kind": "utca",
            "post_code": 0
        },
        {
            "name": "Csopak",
            "kind": "utca",
            "post_code": 0
        },
        {
            "name": "Cs\u00f6t\u00f6nyiv\u00f6lgy",
            "kind": "",
            "post_code": 0
        },
        {
            "name": "Damjanich",
            "kind": "utca",
            "post_code": 0
        },
        {
            "name": "Dicenty Dezs\u0151",
            "kind": "utca",
            "post_code": 0
        },
        {
            "name": "Dienes Val\u00e9ria",
            "kind": "utca",
            "post_code": 0
        },
        {
            "name": "Di\u00f3fa",
            "kind": "utca",
            "post_code": 0
        },
        {
            "name": "Dob\u00f3 Istv\u00e1n",
            "kind": "utca",
            "post_code": 0
        },
        {
            "name": "Domb",
            "kind": "utca",
            "post_code": 0
        },
        {
            "name": "Dorogi",
            "kind": "k\u00f6z",
            "post_code": 0
        },
        {
            "name": "D\u00f3zsa Gy\u00f6rgy",
            "kind": "utca",
            "post_code": 0
        },
        {
            "name": "Dr. Berze Nagy J\u00e1nos",
            "kind": "utca",
            "post_code": 0
        },
        {
            "name": "dr. Hadnagy Albert",
            "kind": "utca",
            "post_code": 0
        },
        {
            "name": "Dr. Hirling \u00c1d\u00e1m",
            "kind": "utca",
            "post_code": 0
        },
        {
            "name": "Dr. Nagy Istv\u00e1n",
            "kind": "utca",
            "post_code": 0
        },
        {
            "name": "dr. Szak\u00e1ly Ferenc",
            "kind": "utca",
            "post_code": 0
        },
        {
            "name": "Dr. T\u00f3th Lajos",
            "kind": "utca",
            "post_code": 0
        },
        {
            "name": "D\u0171l\u0151",
            "kind": "utca",
            "post_code": 0
        },
        {
            "name": "Ebespuszta",
            "kind": "",
            "post_code": 0
        },
        {
            "name": "Ebes",
            "kind": "utca",
            "post_code": 0
        },
        {
            "name": "El\u0151hegyi",
            "kind": "utca",
            "post_code": 0
        },
        {
            "name": "Epreskert",
            "kind": "utca",
            "post_code": 0
        },
        {
            "name": "Erkel Ferenc",
            "kind": "utca",
            "post_code": 0
        },
        {
            "name": "Esze Tam\u00e1s",
            "kind": "utca",
            "post_code": 0
        },
        {
            "name": "Ezerj\u00f3",
            "kind": "k\u00f6z",
            "post_code": 0
        },
        {
            "name": "Ezerj\u00f3",
            "kind": "utca",
            "post_code": 0
        },
        {
            "name": "Fagy\u00f6ngy",
            "kind": "utca",
            "post_code": 0
        },
        {
            "name": "Faluhely",
            "kind": "",
            "post_code": 0
        },
        {
            "name": "F\u00e1y Andr\u00e1s",
            "kind": "utca",
            "post_code": 0
        },
        {
            "name": "Ferenc szurdok",
            "kind": "",
            "post_code": 0
        },
        {
            "name": "Fl\u00f3ri\u00e1n",
            "kind": "utca",
            "post_code": 0
        },
        {
            "name": "Fukszv\u00f6lgy",
            "kind": "",
            "post_code": 0
        },
        {
            "name": "F\u00fcrd\u0151h\u00e1z",
            "kind": "utca",
            "post_code": 0
        },
        {
            "name": "F\u00fcrj",
            "kind": "utca",
            "post_code": 0
        },
        {
            "name": "Garay J\u00e1nos",
            "kind": "t\u00e9r",
            "post_code": 0
        },
        {
            "name": "Garay",
            "kind": "t\u00e9r",
            "post_code": 0
        },
        {
            "name": "Garay",
            "kind": "udvar",
            "post_code": 0
        },
        {
            "name": "G\u00e1rdonyi G\u00e9za",
            "kind": "utca",
            "post_code": 0
        },
        {
            "name": "Gemenc",
            "kind": "utca",
            "post_code": 0
        },
        {
            "name": "Geszteny\u00e9s",
            "kind": "",
            "post_code": 0
        },
        {
            "name": "G\u00f6rbe",
            "kind": "utca",
            "post_code": 0
        },
        {
            "name": "G\u00f6r\u00f6gsz\u00f3",
            "kind": "",
            "post_code": 0
        },
        {
            "name": "Gurovica",
            "kind": "",
            "post_code": 0
        },
        {
            "name": "Gy\u0171sz\u0171v\u00f6lgy",
            "kind": "",
            "post_code": 0
        },
        {
            "name": "Halas",
            "kind": "utca",
            "post_code": 0
        },
        {
            "name": "Harang",
            "kind": "utca",
            "post_code": 0
        },
        {
            "name": "Harmat",
            "kind": "utca",
            "post_code": 0
        },
        {
            "name": "H\u00e1rsfa",
            "kind": "utca",
            "post_code": 0
        },
        {
            "name": "H\u00e1ry J\u00e1nos",
            "kind": "utca",
            "post_code": 0
        },
        {
            "name": "H\u00e9b\u00e9r",
            "kind": "utca",
            "post_code": 0
        },
        {
            "name": "Hegyalja",
            "kind": "utca",
            "post_code": 0
        },
        {
            "name": "Herman Ott\u00f3",
            "kind": "utca",
            "post_code": 0
        },
        {
            "name": "Hidaspetrei kit\u00e9r\u0151",
            "kind": "",
            "post_code": 0
        },
        {
            "name": "Holdf\u00e9ny",
            "kind": "utca",
            "post_code": 0
        },
        {
            "name": "Holl\u00f3s L\u00e1szl\u00f3",
            "kind": "utca",
            "post_code": 0
        },
        {
            "name": "Holub J\u00f3zsef",
            "kind": "utca",
            "post_code": 0
        },
        {
            "name": "Honv\u00e9d",
            "kind": "utca",
            "post_code": 0
        },
        {
            "name": "Horv\u00e1th K\u00e1roly",
            "kind": "utca",
            "post_code": 0
        },
        {
            "name": "Hossz\u00fav\u00f6lgy",
            "kind": "",
            "post_code": 0
        },
        {
            "name": "Hossz\u00fav\u00f6lgy",
            "kind": "utca",
            "post_code": 0
        },
        {
            "name": "Hrabovszky",
            "kind": "utca",
            "post_code": 0
        },
        {
            "name": "Hunyadi",
            "kind": "utca",
            "post_code": 0
        },
        {
            "name": "Ibolya",
            "kind": "utca",
            "post_code": 0
        },
        {
            "name": "Illy\u00e9s Gyula",
            "kind": "utca",
            "post_code": 0
        },
        {
            "name": "Istif\u00e1n G\u00f6dre",
            "kind": "utca",
            "post_code": 0
        },
        {
            "name": "Iv\u00e1nv\u00f6lgy",
            "kind": "",
            "post_code": 0
        },
        {
            "name": "J\u00e1cint",
            "kind": "utca",
            "post_code": 0
        },
        {
            "name": "Jedlik \u00c1nyos",
            "kind": "utca",
            "post_code": 0
        },
        {
            "name": "Jelky Andr\u00e1s",
            "kind": "utca",
            "post_code": 0
        },
        {
            "name": "Jobbpar\u00e1szta",
            "kind": "",
            "post_code": 0
        },
        {
            "name": "Jobbremete",
            "kind": "",
            "post_code": 0
        },
        {
            "name": "J\u00f3kai",
            "kind": "utca",
            "post_code": 0
        },
        {
            "name": "J\u00f3zan",
            "kind": "d\u0171l\u0151",
            "post_code": 0
        },
        {
            "name": "J\u00f3zsef Attila",
            "kind": "utca",
            "post_code": 0
        },
        {
            "name": "Kabl\u00e1r",
            "kind": "k\u00f6z",
            "post_code": 0
        },
        {
            "name": "Kacor",
            "kind": "utca",
            "post_code": 0
        },
        {
            "name": "Kadarka",
            "kind": "k\u00f6z",
            "post_code": 0
        },
        {
            "name": "Kadarka lak\u00f3telepi",
            "kind": "\u00fat",
            "post_code": 0
        },
        {
            "name": "Kadarka",
            "kind": "utca",
            "post_code": 0
        },
        {
            "name": "Kal\u00e1sz",
            "kind": "utca",
            "post_code": 0
        },
        {
            "name": "K\u00e1lv\u00e1ria",
            "kind": "utca",
            "post_code": 0
        },
        {
            "name": "K\u00e1lvin",
            "kind": "t\u00e9r",
            "post_code": 0
        },
        {
            "name": "Kand\u00f3 K\u00e1lm\u00e1n",
            "kind": "utca",
            "post_code": 0
        },
        {
            "name": "Kapisztr\u00e1n",
            "kind": "utca",
            "post_code": 0
        },
        {
            "name": "K\u00e1polna",
            "kind": "t\u00e9r",
            "post_code": 0
        },
        {
            "name": "Ker\u00e1mia",
            "kind": "utca",
            "post_code": 0
        },
        {
            "name": "Ker\u00e9khegy",
            "kind": "",
            "post_code": 0
        },
        {
            "name": "Ker\u00e9khegy",
            "kind": "utca",
            "post_code": 0
        },
        {
            "name": "Kert\u00e9sz",
            "kind": "utca",
            "post_code": 0
        },
        {
            "name": "Kesely\u0171si",
            "kind": "\u00fat",
            "post_code": 0
        },
        {
            "name": "Kil\u00e1t\u00f3",
            "kind": "utca",
            "post_code": 0
        },
        {
            "name": "Kinizsi",
            "kind": "utca",
            "post_code": 0
        },
        {
            "name": "Kisb\u00f6d\u0151",
            "kind": "utca",
            "post_code": 0
        },
        {
            "name": "Kisfaludy",
            "kind": "utca",
            "post_code": 0
        },
        {
            "name": "Kiskadarka",
            "kind": "utca",
            "post_code": 0
        },
        {
            "name": "Kiskorz\u00f3",
            "kind": "t\u00e9r",
            "post_code": 0
        },
        {
            "name": "Kislisztesv\u00f6lgy",
            "kind": "",
            "post_code": 0
        },
        {
            "name": "Kiss J\u00e1nos",
            "kind": "utca",
            "post_code": 0
        },
        {
            "name": "Klapka Gy\u00f6rgy",
            "kind": "lak\u00f3telep",
            "post_code": 0
        },
        {
            "name": "Klapka Gy\u00f6rgy",
            "kind": "utca",
            "post_code": 0
        },
        {
            "name": "Kod\u00e1ly Zolt\u00e1n",
            "kind": "utca",
            "post_code": 0
        },
        {
            "name": "K\u00f6lcsey",
            "kind": "lak\u00f3telep",
            "post_code": 0
        },
        {
            "name": "K\u0151r\u00f6si Csoma S\u00e1ndor",
            "kind": "utca",
            "post_code": 0
        },
        {
            "name": "Kors\u00f3f\u00f6lde",
            "kind": "utca",
            "post_code": 0
        },
        {
            "name": "Kossuth Lajos",
            "kind": "utca",
            "post_code": 0
        },
        {
            "name": "Kurta",
            "kind": "utca",
            "post_code": 0
        },
        {
            "name": "Kuruc",
            "kind": "utca",
            "post_code": 0
        },
        {
            "name": "Lajos kir\u00e1ly",
            "kind": "utca",
            "post_code": 0
        },
        {
            "name": "Lehel",
            "kind": "utca",
            "post_code": 0
        },
        {
            "name": "Leopold Lajos",
            "kind": "utca",
            "post_code": 0
        },
        {
            "name": "L\u00e9tay Menyh\u00e9rt",
            "kind": "utca",
            "post_code": 0
        },
        {
            "name": "Levendula",
            "kind": "utca",
            "post_code": 0
        },
        {
            "name": "Lisztes",
            "kind": "utca",
            "post_code": 0
        },
        {
            "name": "Lisztesv\u00f6lgy",
            "kind": "",
            "post_code": 0
        },
        {
            "name": "Liszt Ferenc",
            "kind": "t\u00e9r",
            "post_code": 0
        },
        {
            "name": "Liszt Ferenc",
            "kind": "utca",
            "post_code": 0
        },
        {
            "name": "L\u0151t\u00e9ri",
            "kind": "k\u00f6z",
            "post_code": 0
        },
        {
            "name": "Lugas",
            "kind": "utca",
            "post_code": 0
        },
        {
            "name": "Magyar S\u00e1ndor",
            "kind": "utca",
            "post_code": 0
        },
        {
            "name": "Major",
            "kind": "utca",
            "post_code": 0
        },
        {
            "name": "M\u00e1jus 1.",
            "kind": "utca",
            "post_code": 0
        },
        {
            "name": "Margar\u00e9ta",
            "kind": "utca",
            "post_code": 0
        },
        {
            "name": "Mattioni Eszter",
            "kind": "utca",
            "post_code": 0
        },
        {
            "name": "M\u00e1ty\u00e1s kir\u00e1ly",
            "kind": "utca",
            "post_code": 0
        },
        {
            "name": "M\u00e1ty\u00e1s Kir\u00e1ly",
            "kind": "utca",
            "post_code": 0
        },
        {
            "name": "M\u00e1ty\u00e1s kr\u00e1ly",
            "kind": "utca",
            "post_code": 0
        },
        {
            "name": "Mecsek",
            "kind": "utca",
            "post_code": 0
        },
        {
            "name": "M\u00e9rey",
            "kind": "utca",
            "post_code": 0
        },
        {
            "name": "Mester",
            "kind": "utca",
            "post_code": 0
        },
        {
            "name": "M\u00e9sz\u00e1ros L\u00e1z\u00e1r",
            "kind": "utca",
            "post_code": 0
        },
        {
            "name": "M\u00e9sz\u00f6ly Mikl\u00f3s",
            "kind": "utca",
            "post_code": 0
        },
        {
            "name": "Mikes",
            "kind": "utca",
            "post_code": 0
        },
        {
            "name": "Mocfa",
            "kind": "",
            "post_code": 0
        },
        {
            "name": "M\u00f3ricz Zsigmond",
            "kind": "utca",
            "post_code": 0
        },
        {
            "name": "Munk\u00e1csy Mih\u00e1ly",
            "kind": "utca",
            "post_code": 0
        },
        {
            "name": "Musk\u00e1tli",
            "kind": "utca",
            "post_code": 0
        },
        {
            "name": "Muskot\u00e1ly",
            "kind": "utca",
            "post_code": 0
        },
        {
            "name": "Nagyb\u00f6d\u0151",
            "kind": "",
            "post_code": 0
        },
        {
            "name": "Nagyb\u00f6d\u0151",
            "kind": "utca",
            "post_code": 0
        },
        {
            "name": "Nagy Mih\u00e1ly v\u00f6lgye",
            "kind": "",
            "post_code": 0
        },
        {
            "name": "Napf\u00e9ny",
            "kind": "k\u00f6z",
            "post_code": 0
        },
        {
            "name": "Napf\u00e9ny",
            "kind": "utca",
            "post_code": 0
        },
        {
            "name": "Nefelejcs",
            "kind": "k\u00f6z",
            "post_code": 0
        },
        {
            "name": "Nefelejcs",
            "kind": "utca",
            "post_code": 0
        },
        {
            "name": "Ny\u00e1m\u00e1ndpuszta",
            "kind": "",
            "post_code": 0
        },
        {
            "name": "Ny\u00e1r",
            "kind": "utca",
            "post_code": 0
        },
        {
            "name": "Obsitos",
            "kind": "utca",
            "post_code": 0
        },
        {
            "name": "Orgona",
            "kind": "utca",
            "post_code": 0
        },
        {
            "name": "Otthon",
            "kind": "utca",
            "post_code": 0
        },
        {
            "name": "\u00d3voda",
            "kind": "utca",
            "post_code": 0
        },
        {
            "name": "Pal\u00e1nkihegy",
            "kind": "",
            "post_code": 0
        },
        {
            "name": "Pal\u00e1nki",
            "kind": "utca",
            "post_code": 0
        },
        {
            "name": "P\u00e1l",
            "kind": "utca",
            "post_code": 0
        },
        {
            "name": "Par\u00e1szta",
            "kind": "utca",
            "post_code": 0
        },
        {
            "name": "P\u00e1skum",
            "kind": "utca",
            "post_code": 0
        },
        {
            "name": "P\u00e1sztor",
            "kind": "utca",
            "post_code": 0
        },
        {
            "name": "Patak",
            "kind": "utca",
            "post_code": 0
        },
        {
            "name": "P\u00e1zm\u00e1ny",
            "kind": "t\u00e9r",
            "post_code": 0
        },
        {
            "name": "Perczel M\u00f3r",
            "kind": "utca",
            "post_code": 0
        },
        {
            "name": "Pet\u0151fi S\u00e1ndor",
            "kind": "utca",
            "post_code": 0
        },
        {
            "name": "Pince",
            "kind": "utca",
            "post_code": 0
        },
        {
            "name": "Pipacs",
            "kind": "utca",
            "post_code": 0
        },
        {
            "name": "Pollack Mih\u00e1ly",
            "kind": "lak\u00f3telep",
            "post_code": 0
        },
        {
            "name": "Pollack Mih\u00e1ly",
            "kind": "utca",
            "post_code": 0
        },
        {
            "name": "Porkol\u00e1bv\u00f6lgy",
            "kind": "",
            "post_code": 0
        },
        {
            "name": "Pr\u00e9sh\u00e1z",
            "kind": "utca",
            "post_code": 0
        },
        {
            "name": "Pusk\u00e1s Tivadar",
            "kind": "k\u00f6z",
            "post_code": 0
        },
        {
            "name": "Pusk\u00e1s Tivadar",
            "kind": "utca",
            "post_code": 0
        },
        {
            "name": "Puttonyos",
            "kind": "utca",
            "post_code": 0
        },
        {
            "name": "R\u00e1k\u00f3czi",
            "kind": "utca",
            "post_code": 0
        },
        {
            "name": "Remete",
            "kind": "utca",
            "post_code": 0
        },
        {
            "name": "Rizling",
            "kind": "utca",
            "post_code": 0
        },
        {
            "name": "Roboz Zolt\u00e1n",
            "kind": "utca",
            "post_code": 0
        },
        {
            "name": "Rosner Gyula",
            "kind": "utca",
            "post_code": 0
        },
        {
            "name": "R\u00f6vidv\u00f6lgy",
            "kind": "",
            "post_code": 0
        },
        {
            "name": "R\u00f3zsam\u00e1j",
            "kind": "utca",
            "post_code": 0
        },
        {
            "name": "R\u00f3zsa",
            "kind": "utca",
            "post_code": 0
        },
        {
            "name": "Rozsnyay M\u00e1ty\u00e1s",
            "kind": "utca",
            "post_code": 0
        },
        {
            "name": "S\u00e1rk\u00f6z",
            "kind": "utca",
            "post_code": 0
        },
        {
            "name": "S\u00e1rv\u00edz",
            "kind": "utca",
            "post_code": 0
        },
        {
            "name": "S\u00e9d",
            "kind": "k\u00f6z",
            "post_code": 0
        },
        {
            "name": "Selyem",
            "kind": "utca",
            "post_code": 0
        },
        {
            "name": "Semmelweis Ign\u00e1c",
            "kind": "utca",
            "post_code": 0
        },
        {
            "name": "Sipos M\u00e1rton",
            "kind": "utca",
            "post_code": 0
        },
        {
            "name": "S\u00f6t\u00e9tv\u00f6lgyi tan\u00f6sv\u00e9ny",
            "kind": "",
            "post_code": 0
        },
        {
            "name": "Sport",
            "kind": "utca",
            "post_code": 0
        },
        {
            "name": "Szab\u00f3 Dezs\u0151",
            "kind": "utca",
            "post_code": 0
        },
        {
            "name": "Szalaiv\u00f6lgy",
            "kind": "",
            "post_code": 0
        },
        {
            "name": "Szarkal\u00e1b",
            "kind": "utca",
            "post_code": 0
        },
        {
            "name": "Szarvas-szurdik",
            "kind": "",
            "post_code": 0
        },
        {
            "name": "Sz\u00e9chenyi",
            "kind": "utca",
            "post_code": 0
        },
        {
            "name": "Sz\u00e9kely Bertalan",
            "kind": "utca",
            "post_code": 0
        },
        {
            "name": "Szek\u00e9r",
            "kind": "utca",
            "post_code": 0
        },
        {
            "name": "Szentg\u00e1li Gy\u00f6rgy",
            "kind": "utca",
            "post_code": 0
        },
        {
            "name": "Szent-Gy\u00f6rgyi Albert",
            "kind": "utca",
            "post_code": 0
        },
        {
            "name": "Szent Istv\u00e1n",
            "kind": "t\u00e9r",
            "post_code": 0
        },
        {
            "name": "Szent L\u00e1szl\u00f3",
            "kind": "utca",
            "post_code": 0
        },
        {
            "name": "Szent Mih\u00e1ly",
            "kind": "d\u0171l\u0151",
            "post_code": 0
        },
        {
            "name": "Szentmikl\u00f3si",
            "kind": "\u00fat",
            "post_code": 0
        },
        {
            "name": "Szentmikl\u00f3si",
            "kind": "utca",
            "post_code": 0
        },
        {
            "name": "Sz\u00e9r\u00fc",
            "kind": "utca",
            "post_code": 0
        },
        {
            "name": "Szilas",
            "kind": "utca",
            "post_code": 0
        },
        {
            "name": "Szluha Gy\u00f6rgy",
            "kind": "utca",
            "post_code": 0
        },
        {
            "name": "Sz\u0151l\u0151hegy",
            "kind": "utca",
            "post_code": 0
        },
        {
            "name": "Sz\u0151l\u0151",
            "kind": "k\u00f6z",
            "post_code": 0
        },
        {
            "name": "Sz\u0151l\u0151",
            "kind": "utca",
            "post_code": 0
        },
        {
            "name": "Sz\u00f6vets\u00e9g",
            "kind": "utca",
            "post_code": 0
        },
        {
            "name": "Sz\u00fcret",
            "kind": "utca",
            "post_code": 0
        },
        {
            "name": "Tal\u00e1lka",
            "kind": "t\u00e9r",
            "post_code": 0
        },
        {
            "name": "T\u00e1ncsics",
            "kind": "k\u00f6z",
            "post_code": 0
        },
        {
            "name": "T\u00e1ncsics Mih\u00e1ly",
            "kind": "k\u00f6z",
            "post_code": 0
        },
        {
            "name": "T\u00e1ncsics Mih\u00e1ly",
            "kind": "utca",
            "post_code": 0
        },
        {
            "name": "Tanyamacska",
            "kind": "utca",
            "post_code": 0
        },
        {
            "name": "Tanya",
            "kind": "utca",
            "post_code": 0
        },
        {
            "name": "Tartsay",
            "kind": "lak\u00f3telep",
            "post_code": 0
        },
        {
            "name": "Tartsay Vilmos",
            "kind": "utca",
            "post_code": 0
        },
        {
            "name": "Tavasz",
            "kind": "utca",
            "post_code": 0
        },
        {
            "name": "Tin\u00f3di",
            "kind": "utca",
            "post_code": 0
        },
        {
            "name": "Toldi",
            "kind": "utca",
            "post_code": 0
        },
        {
            "name": "Tolnai Lajos",
            "kind": "utca",
            "post_code": 0
        },
        {
            "name": "Tompa",
            "kind": "utca",
            "post_code": 0
        },
        {
            "name": "Tormay B\u00e9la",
            "kind": "utca",
            "post_code": 0
        },
        {
            "name": "T\u00f3thv\u00f6lgy",
            "kind": "",
            "post_code": 0
        },
        {
            "name": "T\u00fcske",
            "kind": "utca",
            "post_code": 0
        },
        {
            "name": "T\u00fcz\u00e9r",
            "kind": "utca",
            "post_code": 0
        },
        {
            "name": "\u00dajfalussy Imre",
            "kind": "utca",
            "post_code": 0
        },
        {
            "name": "Vad\u00e1sz",
            "kind": "utca",
            "post_code": 0
        },
        {
            "name": "Vak Botty\u00e1n",
            "kind": "utca",
            "post_code": 0
        },
        {
            "name": "V\u00e1r",
            "kind": "k\u00f6z",
            "post_code": 0
        },
        {
            "name": "Vasv\u00e1ri P\u00e1l",
            "kind": "utca",
            "post_code": 0
        },
        {
            "name": "Vendel Istv\u00e1n",
            "kind": "utca",
            "post_code": 0
        },
        {
            "name": "Venyige",
            "kind": "utca",
            "post_code": 0
        },
        {
            "name": "Vessz\u0151",
            "kind": "utca",
            "post_code": 0
        },
        {
            "name": "Vincell\u00e9r",
            "kind": "utca",
            "post_code": 0
        },
        {
            "name": "Viola",
            "kind": "utca",
            "post_code": 0
        },
        {
            "name": "Vit\u00e9z",
            "kind": "utca",
            "post_code": 0
        },
        {
            "name": "V\u00f6lgy",
            "kind": "utca",
            "post_code": 0
        },
        {
            "name": "V\u00f6r\u00f6smarty Mih\u00e1ly",
            "kind": "utca",
            "post_code": 0
        },
        {
            "name": "Wessel\u00e9nyi",
            "kind": "utca",
            "post_code": 0
        },
        {
            "name": "Wigand J\u00e1nos",
            "kind": "t\u00e9r",
            "post_code": 0
        },
        {
            "name": "Wopfing",
            "kind": "utca",
            "post_code": 0
        },
        {
            "name": "Wosinsky M\u00f3r",
            "kind": "lak\u00f3telep",
            "post_code": 0
        },
        {
            "name": "Wosinszki M\u00f3r",
            "kind": "utca",
            "post_code": 0
        },
        {
            "name": "Ybl Mikl\u00f3s",
            "kind": "lak\u00f3telep",
            "post_code": 0
        },
        {
            "name": "Ybl Mikl\u00f3s",
            "kind": "utca",
            "post_code": 0
        },
        {
            "name": "Z\u00e1por",
            "kind": "k\u00f6z",
            "post_code": 0
        },
        {
            "name": "Zapor",
            "kind": "utca",
            "post_code": 0
        },
        {
            "name": "Zeng\u0151",
            "kind": "utca",
            "post_code": 0
        },
        {
            "name": "Z\u00f6ldkert",
            "kind": "utca",
            "post_code": 0
        },
        {
            "name": "Zr\u00ednyi",
            "kind": "utca",
            "post_code": 0
        }
    ]
}