{
    "codes": {
        "7477": [
            "Szenna",
            null
        ]
    },
    "streets": [
        {
            "name": "\u00c1rp\u00e1d",
            "kind": "utca",
            "post_code": 0
        },
        {
            "name": "B\u00e1rdi",
            "kind": "utca",
            "post_code": 0
        },
        {
            "name": "Gyalogh\u00edd",
            "kind": "",
            "post_code": 0
        },
        {
            "name": "Kossuth Lajos",
            "kind": "utca",
            "post_code": 0
        },
        {
            "name": "\u00d6szed\u0151lt h\u00edd (nem j\u00e1rhat\u00f3)",
            "kind": "",
            "post_code": 0
        },
        {
            "name": "Pet\u0151fi S\u00e1ndor",
            "kind": "utca",
            "post_code": 0
        },
        {
            "name": "R\u00e1k\u00f3czi Ferenc",
            "kind": "utca",
            "post_code": 0
        },
        {
            "name": "R\u00e1k\u00f3czi",
            "kind": "utca",
            "post_code": 0
        },
        {
            "name": "Tildy Zolt\u00e1n",
            "kind": "utca",
            "post_code": 0
        }
    ]
}