{
    "codes": {
        "6600": [
            "Szentes",
            null
        ]
    },
    "streets": [
        {
            "name": "\u00c1chim Andr\u00e1s",
            "kind": "utca",
            "post_code": 0
        },
        {
            "name": "Ady Endre",
            "kind": "k\u00f6z",
            "post_code": 0
        },
        {
            "name": "Ady Endre",
            "kind": "utca",
            "post_code": 0
        },
        {
            "name": "Ak\u00e1cfa",
            "kind": "utca",
            "post_code": 0
        },
        {
            "name": "Alkony",
            "kind": "utca",
            "post_code": 0
        },
        {
            "name": "Apponyi",
            "kind": "t\u00e9r",
            "post_code": 0
        },
        {
            "name": "Arany J\u00e1nos",
            "kind": "utca",
            "post_code": 0
        },
        {
            "name": "\u00c1rp\u00e1d",
            "kind": "utca",
            "post_code": 0
        },
        {
            "name": "\u00c1rv\u00edz",
            "kind": "utca",
            "post_code": 0
        },
        {
            "name": "Attila",
            "kind": "\u00fat",
            "post_code": 0
        },
        {
            "name": "Aulich Lajos",
            "kind": "utca",
            "post_code": 0
        },
        {
            "name": "Babos",
            "kind": "utca",
            "post_code": 0
        },
        {
            "name": "Bacs\u00f3 B\u00e9la",
            "kind": "utca",
            "post_code": 0
        },
        {
            "name": "Bajcsy-Zsilinszky",
            "kind": "utca",
            "post_code": 0
        },
        {
            "name": "B\u00e1lint",
            "kind": "utca",
            "post_code": 0
        },
        {
            "name": "Balogh J\u00e1nos",
            "kind": "utca",
            "post_code": 0
        },
        {
            "name": "Baross",
            "kind": "utca",
            "post_code": 0
        },
        {
            "name": "Bart\u00f3k B\u00e9la",
            "kind": "utca",
            "post_code": 0
        },
        {
            "name": "B\u00e1thory",
            "kind": "utca",
            "post_code": 0
        },
        {
            "name": "Batthy\u00e1ny",
            "kind": "utca",
            "post_code": 0
        },
        {
            "name": "B\u00e9ke",
            "kind": "utca",
            "post_code": 0
        },
        {
            "name": "B\u00e9l\u00e1di",
            "kind": "utca",
            "post_code": 0
        },
        {
            "name": "Bels\u0151ecser",
            "kind": "tanya",
            "post_code": 0
        },
        {
            "name": "Bem",
            "kind": "utca",
            "post_code": 0
        },
        {
            "name": "Bercs\u00e9nyi",
            "kind": "utca",
            "post_code": 0
        },
        {
            "name": "Berekh\u00e1t",
            "kind": "",
            "post_code": 0
        },
        {
            "name": "Bereklapos",
            "kind": "utca",
            "post_code": 0
        },
        {
            "name": "Bihari",
            "kind": "sor",
            "post_code": 0
        },
        {
            "name": "Bocskai",
            "kind": "utca",
            "post_code": 0
        },
        {
            "name": "Boros S\u00e1muel",
            "kind": "utca",
            "post_code": 0
        },
        {
            "name": "Borza",
            "kind": "utca",
            "post_code": 0
        },
        {
            "name": "Brusznyai \u00c1rp\u00e1d",
            "kind": "s\u00e9t\u00e1ny",
            "post_code": 0
        },
        {
            "name": "Budai Nagy Antal",
            "kind": "utca",
            "post_code": 0
        },
        {
            "name": "Buri\u00e1n Lajos",
            "kind": "utca",
            "post_code": 0
        },
        {
            "name": "C\u00e9drus",
            "kind": "utca",
            "post_code": 0
        },
        {
            "name": "C\u00e9hh\u00e1z",
            "kind": "utca",
            "post_code": 0
        },
        {
            "name": "Csaba",
            "kind": "utca",
            "post_code": 0
        },
        {
            "name": "Csall\u00e1ny G\u00e1bor",
            "kind": "part",
            "post_code": 0
        },
        {
            "name": "Cseuz B\u00e9la",
            "kind": "utca",
            "post_code": 0
        },
        {
            "name": "Cs\u00edk",
            "kind": "utca",
            "post_code": 0
        },
        {
            "name": "Csillag",
            "kind": "utca",
            "post_code": 0
        },
        {
            "name": "Csongr\u00e1di",
            "kind": "\u00fat",
            "post_code": 0
        },
        {
            "name": "Csongr\u00e1d-Szentes ker\u00e9kp\u00e1r\u00fat",
            "kind": "",
            "post_code": 0
        },
        {
            "name": "Damjanich",
            "kind": "utca",
            "post_code": 0
        },
        {
            "name": "Dank\u00f3 Pista",
            "kind": "utca",
            "post_code": 0
        },
        {
            "name": "Daru",
            "kind": "utca",
            "post_code": 0
        },
        {
            "name": "Darvas J\u00f3zsef",
            "kind": "utca",
            "post_code": 0
        },
        {
            "name": "De\u00e1k Ferenc",
            "kind": "utca",
            "post_code": 0
        },
        {
            "name": "Derzsi Kov\u00e1cs Jen\u0151",
            "kind": "utca",
            "post_code": 0
        },
        {
            "name": "Dessewffy Arisztid",
            "kind": "sor",
            "post_code": 0
        },
        {
            "name": "Dob\u00f3",
            "kind": "utca",
            "post_code": 0
        },
        {
            "name": "D\u00f3sai Moln\u00e1r Mih\u00e1ly",
            "kind": "utca",
            "post_code": 0
        },
        {
            "name": "D\u00f3zsa Gy\u00f6rgy",
            "kind": "utca",
            "post_code": 0
        },
        {
            "name": "D\u00f3zsa",
            "kind": "k\u00f6z",
            "post_code": 0
        },
        {
            "name": "Drahos Istv\u00e1n",
            "kind": "utca",
            "post_code": 0
        },
        {
            "name": "Dr. Ber\u00e9nyi Imre",
            "kind": "utca",
            "post_code": 0
        },
        {
            "name": "Dr. Lakos Imre",
            "kind": "utca",
            "post_code": 0
        },
        {
            "name": "Dr. M\u00e1t\u00e9ffy Ferenc",
            "kind": "utca",
            "post_code": 0
        },
        {
            "name": "Dr. N\u00e9gyesi L\u00e1szl\u00f3",
            "kind": "utca",
            "post_code": 0
        },
        {
            "name": "Dr. Udvardi L\u00e1szl\u00f3",
            "kind": "utca",
            "post_code": 0
        },
        {
            "name": "Dr. Uhl\u00e1r Istv\u00e1n",
            "kind": "utca",
            "post_code": 0
        },
        {
            "name": "Dr. V\u00e1rady Lip\u00f3t \u00c1rp\u00e1d",
            "kind": "utca",
            "post_code": 0
        },
        {
            "name": "Dugovics Titusz",
            "kind": "utca",
            "post_code": 0
        },
        {
            "name": "Eper",
            "kind": "sor",
            "post_code": 0
        },
        {
            "name": "Erdei Ferenc",
            "kind": "utca",
            "post_code": 0
        },
        {
            "name": "Erzs\u00e9bet",
            "kind": "t\u00e9r",
            "post_code": 0
        },
        {
            "name": "Esze Tam\u00e1s",
            "kind": "utca",
            "post_code": 0
        },
        {
            "name": "Eszperant\u00f3-h\u00edd",
            "kind": "",
            "post_code": 0
        },
        {
            "name": "Farkas Antal",
            "kind": "utca",
            "post_code": 0
        },
        {
            "name": "Farkas Mih\u00e1ly",
            "kind": "utca",
            "post_code": 0
        },
        {
            "name": "Farkas",
            "kind": "zug",
            "post_code": 0
        },
        {
            "name": "Fekete M\u00e1rton",
            "kind": "utca",
            "post_code": 0
        },
        {
            "name": "Frangep\u00e1n",
            "kind": "sor",
            "post_code": 0
        },
        {
            "name": "Fut\u00f3 Zolt\u00e1n",
            "kind": "utca",
            "post_code": 0
        },
        {
            "name": "F\u00fcves",
            "kind": "parkol\u00f3",
            "post_code": 0
        },
        {
            "name": "Ga\u00e1l Istv\u00e1n",
            "kind": "utca",
            "post_code": 0
        },
        {
            "name": "Galamb",
            "kind": "utca",
            "post_code": 0
        },
        {
            "name": "Gar\u00e1zs",
            "kind": "d\u0171l\u0151",
            "post_code": 0
        },
        {
            "name": "Gergely",
            "kind": "utca",
            "post_code": 0
        },
        {
            "name": "G\u00f3g\u00e1ny",
            "kind": "utca",
            "post_code": 0
        },
        {
            "name": "Gr\u00f3f Teleki L\u00e1szl\u00f3",
            "kind": "utca",
            "post_code": 0
        },
        {
            "name": "Hadzsy J\u00e1nos",
            "kind": "\u00fat",
            "post_code": 0
        },
        {
            "name": "Hajd\u00fa Lajos",
            "kind": "utca",
            "post_code": 0
        },
        {
            "name": "Heged\u0171s L\u00e1szl\u00f3",
            "kind": "utca",
            "post_code": 0
        },
        {
            "name": "H\u00e9tvez\u00e9r",
            "kind": "utca",
            "post_code": 0
        },
        {
            "name": "Honv\u00e9d",
            "kind": "utca",
            "post_code": 0
        },
        {
            "name": "Horv\u00e1th Mih\u00e1ly",
            "kind": "utca",
            "post_code": 0
        },
        {
            "name": "Hunyadi J\u00e1nos",
            "kind": "utca",
            "post_code": 0
        },
        {
            "name": "Husz\u00e1r",
            "kind": "utca",
            "post_code": 0
        },
        {
            "name": "Ifj\u00fas\u00e1gi",
            "kind": "s\u00e9t\u00e1ny",
            "post_code": 0
        },
        {
            "name": "Ifj\u00fas\u00e1g",
            "kind": "t\u00e9r",
            "post_code": 0
        },
        {
            "name": "Ilonaparti",
            "kind": "\u00fat",
            "post_code": 0
        },
        {
            "name": "Ipartelepi",
            "kind": "\u00fat",
            "post_code": 0
        },
        {
            "name": "Iskola",
            "kind": "utca",
            "post_code": 0
        },
        {
            "name": "J\u00f3kai",
            "kind": "utca",
            "post_code": 0
        },
        {
            "name": "J\u00f6vend\u0151",
            "kind": "utca",
            "post_code": 0
        },
        {
            "name": "J\u00f3zsef Attila",
            "kind": "utca",
            "post_code": 0
        },
        {
            "name": "Juh\u00e1sz Gyula",
            "kind": "utca",
            "post_code": 0
        },
        {
            "name": "Kal\u00e1sz",
            "kind": "utca",
            "post_code": 0
        },
        {
            "name": "K\u00e1r\u00e1sz",
            "kind": "d\u0171l\u0151",
            "post_code": 0
        },
        {
            "name": "Kasza",
            "kind": "utca",
            "post_code": 0
        },
        {
            "name": "K\u00e1tai",
            "kind": "utca",
            "post_code": 0
        },
        {
            "name": "K\u00e9reg",
            "kind": "utca",
            "post_code": 0
        },
        {
            "name": "Keresztes",
            "kind": "utca",
            "post_code": 0
        },
        {
            "name": "Kereszt",
            "kind": "utca",
            "post_code": 0
        },
        {
            "name": "Kert\u00e9sz",
            "kind": "utca",
            "post_code": 0
        },
        {
            "name": "K\u00edgy\u00f3",
            "kind": "utca",
            "post_code": 0
        },
        {
            "name": "Kikelet",
            "kind": "utca",
            "post_code": 0
        },
        {
            "name": "Kinizsi",
            "kind": "utca",
            "post_code": 0
        },
        {
            "name": "Kis\u00e9r",
            "kind": "utca",
            "post_code": 0
        },
        {
            "name": "Kish\u00e1t",
            "kind": "utca",
            "post_code": 0
        },
        {
            "name": "Kispat\u00e9i",
            "kind": "\u00fat",
            "post_code": 0
        },
        {
            "name": "Kiss B\u00e1lint",
            "kind": "utca",
            "post_code": 0
        },
        {
            "name": "Kiss Ern\u0151",
            "kind": "utca",
            "post_code": 0
        },
        {
            "name": "Kiss",
            "kind": "utca",
            "post_code": 0
        },
        {
            "name": "Kiss Zsigmond",
            "kind": "utca",
            "post_code": 0
        },
        {
            "name": "Klapka",
            "kind": "utca",
            "post_code": 0
        },
        {
            "name": "Kl\u00e1ra",
            "kind": "utca",
            "post_code": 0
        },
        {
            "name": "Klauz\u00e1l",
            "kind": "utca",
            "post_code": 0
        },
        {
            "name": "Kn\u00e9zich K\u00e1roly",
            "kind": "utca",
            "post_code": 0
        },
        {
            "name": "Kod\u00e1ly Zolt\u00e1n",
            "kind": "utca",
            "post_code": 0
        },
        {
            "name": "K\u00f6k\u00e9ny",
            "kind": "utca",
            "post_code": 0
        },
        {
            "name": "K\u00f6lcsey",
            "kind": "utca",
            "post_code": 0
        },
        {
            "name": "Kolozsv\u00e1r",
            "kind": "utca",
            "post_code": 0
        },
        {
            "name": "K\u00f6ny\u00f6k",
            "kind": "utca",
            "post_code": 0
        },
        {
            "name": "K\u00f6r\u00f6sparti",
            "kind": "utca",
            "post_code": 0
        },
        {
            "name": "Kors\u00f3s",
            "kind": "sor",
            "post_code": 0
        },
        {
            "name": "Kossuth Lajos",
            "kind": "utca",
            "post_code": 0
        },
        {
            "name": "Kossuth",
            "kind": "t\u00e9r",
            "post_code": 0
        },
        {
            "name": "Koszta J\u00f3zsef",
            "kind": "utca",
            "post_code": 0
        },
        {
            "name": "K\u00f6t\u0151",
            "kind": "utca",
            "post_code": 0
        },
        {
            "name": "Kov\u00e1ts K\u00e1roly",
            "kind": "utca",
            "post_code": 0
        },
        {
            "name": "K\u00f6zt\u00e1rsas\u00e1g",
            "kind": "\u00fat",
            "post_code": 0
        },
        {
            "name": "Krist\u00f3 Nagy Istv\u00e1n",
            "kind": "utca",
            "post_code": 0
        },
        {
            "name": "Kurca-parti ker\u00e9kp\u00e1r\u00fat",
            "kind": "",
            "post_code": 0
        },
        {
            "name": "Kurca",
            "kind": "sor",
            "post_code": 0
        },
        {
            "name": "Lahner Gy\u0151rgy",
            "kind": "utca",
            "post_code": 0
        },
        {
            "name": "Lavotta",
            "kind": "utca",
            "post_code": 0
        },
        {
            "name": "L\u00e1z\u00e1r Vilmos",
            "kind": "utca",
            "post_code": 0
        },
        {
            "name": "Leiningen K\u00e1roly",
            "kind": "utca",
            "post_code": 0
        },
        {
            "name": "Lengyel",
            "kind": "utca",
            "post_code": 0
        },
        {
            "name": "Lenin",
            "kind": "utca",
            "post_code": 0
        },
        {
            "name": "Levendula",
            "kind": "utca",
            "post_code": 0
        },
        {
            "name": "Liget",
            "kind": "sor",
            "post_code": 0
        },
        {
            "name": "L\u0151rinc",
            "kind": "utca",
            "post_code": 0
        },
        {
            "name": "Mad\u00e1ch Imre",
            "kind": "utca",
            "post_code": 0
        },
        {
            "name": "M\u00e1gocsi",
            "kind": "\u00fat",
            "post_code": 0
        },
        {
            "name": "Magyar Imre",
            "kind": "utca",
            "post_code": 0
        },
        {
            "name": "Magyart\u00e9si",
            "kind": "utca",
            "post_code": 0
        },
        {
            "name": "Malom-d\u0171l\u0151",
            "kind": "",
            "post_code": 0
        },
        {
            "name": "Mariska",
            "kind": "utca",
            "post_code": 0
        },
        {
            "name": "M\u00e1ty\u00e1s kir\u00e1ly",
            "kind": "utca",
            "post_code": 0
        },
        {
            "name": "Mecs Balogh",
            "kind": "utca",
            "post_code": 0
        },
        {
            "name": "Ment\u0151",
            "kind": "sor",
            "post_code": 0
        },
        {
            "name": "Ment\u0151",
            "kind": "utca",
            "post_code": 0
        },
        {
            "name": "M\u00e9sz\u00e1ros L\u00e1z\u00e1r",
            "kind": "utca",
            "post_code": 0
        },
        {
            "name": "Mez\u0151",
            "kind": "utca",
            "post_code": 0
        },
        {
            "name": "Mikecz",
            "kind": "utca",
            "post_code": 0
        },
        {
            "name": "M\u00f3ra Ferenc",
            "kind": "utca",
            "post_code": 0
        },
        {
            "name": "M\u00f3ricz Zsigmond",
            "kind": "utca",
            "post_code": 0
        },
        {
            "name": "Munk\u00e1csy Mih\u00e1ly",
            "kind": "utca",
            "post_code": 0
        },
        {
            "name": "Munk\u00e1s",
            "kind": "utca",
            "post_code": 0
        },
        {
            "name": "Musk\u00e1tli",
            "kind": "utca",
            "post_code": 0
        },
        {
            "name": "N\u00e1dasdy",
            "kind": "utca",
            "post_code": 0
        },
        {
            "name": "N\u00e1das",
            "kind": "s\u00e9t\u00e1ny",
            "post_code": 0
        },
        {
            "name": "N\u00e1dudvary Jen\u0151",
            "kind": "utca",
            "post_code": 0
        },
        {
            "name": "Nagy Ferenc",
            "kind": "utca",
            "post_code": 0
        },
        {
            "name": "Nagyg\u00f6rg\u0151s",
            "kind": "utca",
            "post_code": 0
        },
        {
            "name": "Nagyhegyi",
            "kind": "sor",
            "post_code": 0
        },
        {
            "name": "Nagyhegysz\u00e9li",
            "kind": "\u00fat",
            "post_code": 0
        },
        {
            "name": "Nagy\u00f6rv\u00e9ny",
            "kind": "utca",
            "post_code": 0
        },
        {
            "name": "Nagys\u00e1ndor J\u00f3zsef",
            "kind": "utca",
            "post_code": 0
        },
        {
            "name": "Nagyv\u00f6lgy",
            "kind": "sor",
            "post_code": 0
        },
        {
            "name": "Naphegy",
            "kind": "utca",
            "post_code": 0
        },
        {
            "name": "N\u00e9meth L\u00e1szl\u00f3",
            "kind": "utca",
            "post_code": 0
        },
        {
            "name": "Ny\u00e1r",
            "kind": "utca",
            "post_code": 0
        },
        {
            "name": "Ny\u00edri",
            "kind": "k\u00f6z",
            "post_code": 0
        },
        {
            "name": "Ny\u00edri",
            "kind": "utca",
            "post_code": 0
        },
        {
            "name": "\u00d3bester",
            "kind": "telep",
            "post_code": 0
        },
        {
            "name": "Orgona",
            "kind": "utca",
            "post_code": 0
        },
        {
            "name": "\u0150rh\u00e1z",
            "kind": "utca",
            "post_code": 0
        },
        {
            "name": "Orosh\u00e1zi",
            "kind": "\u00fat",
            "post_code": 0
        },
        {
            "name": "\u00d6rv\u00e9ny",
            "kind": "sor",
            "post_code": 0
        },
        {
            "name": "\u0150ze Lajos",
            "kind": "utca",
            "post_code": 0
        },
        {
            "name": "Pacsirta",
            "kind": "utca",
            "post_code": 0
        },
        {
            "name": "P\u00e1va",
            "kind": "utca",
            "post_code": 0
        },
        {
            "name": "Pet\u0151fi S\u00e1ndor",
            "kind": "utca",
            "post_code": 0
        },
        {
            "name": "Petrovics Soma",
            "kind": "utca",
            "post_code": 0
        },
        {
            "name": "Pint\u00e9r",
            "kind": "utca",
            "post_code": 0
        },
        {
            "name": "Pipacs",
            "kind": "utca",
            "post_code": 0
        },
        {
            "name": "P\u00f6ltenberg Ern\u0151",
            "kind": "utca",
            "post_code": 0
        },
        {
            "name": "P\u00f3lya",
            "kind": "utca",
            "post_code": 0
        },
        {
            "name": "R\u00e1k\u00f3czi Ferenc",
            "kind": "utca",
            "post_code": 0
        },
        {
            "name": "R\u00f3na",
            "kind": "utca",
            "post_code": 0
        },
        {
            "name": "Rozgonyi",
            "kind": "utca",
            "post_code": 0
        },
        {
            "name": "R\u00f3zsa",
            "kind": "utca",
            "post_code": 0
        },
        {
            "name": "Ruzs Moln\u00e1r",
            "kind": "utca",
            "post_code": 0
        },
        {
            "name": "S\u00e1fr\u00e1n Mih\u00e1ly",
            "kind": "utca",
            "post_code": 0
        },
        {
            "name": "Saj\u00f3",
            "kind": "k\u00f6z",
            "post_code": 0
        },
        {
            "name": "S\u00e1rgaparti",
            "kind": "utca",
            "post_code": 0
        },
        {
            "name": "Sarkadi Nagy Mih\u00e1ly",
            "kind": "utca",
            "post_code": 0
        },
        {
            "name": "Sarl\u00f3",
            "kind": "utca",
            "post_code": 0
        },
        {
            "name": "Schweidel J\u00f3zsef",
            "kind": "utca",
            "post_code": 0
        },
        {
            "name": "Sima Ferenc",
            "kind": "utca",
            "post_code": 0
        },
        {
            "name": "Somogyi B\u00e9la",
            "kind": "utca",
            "post_code": 0
        },
        {
            "name": "So\u00f3s",
            "kind": "utca",
            "post_code": 0
        },
        {
            "name": "Sopron",
            "kind": "sor",
            "post_code": 0
        },
        {
            "name": "Szabads\u00e1g",
            "kind": "t\u00e9r",
            "post_code": 0
        },
        {
            "name": "Szalai",
            "kind": "utca",
            "post_code": 0
        },
        {
            "name": "Sz\u00e1nt\u00f3 Kov\u00e1cs J\u00e1nos",
            "kind": "utca",
            "post_code": 0
        },
        {
            "name": "Szarvasi",
            "kind": "\u00fat",
            "post_code": 0
        },
        {
            "name": "Sz\u00e9chenyi Istv\u00e1n",
            "kind": "utca",
            "post_code": 0
        },
        {
            "name": "Szeder Imre",
            "kind": "utca",
            "post_code": 0
        },
        {
            "name": "Szegf\u0171",
            "kind": "utca",
            "post_code": 0
        },
        {
            "name": "Szemere Bertalan",
            "kind": "utca",
            "post_code": 0
        },
        {
            "name": "Szent Anna",
            "kind": "utca",
            "post_code": 0
        },
        {
            "name": "Szent Imre herceg",
            "kind": "utca",
            "post_code": 0
        },
        {
            "name": "Szeszf\u0151zde",
            "kind": "d\u0171l\u0151",
            "post_code": 0
        },
        {
            "name": "Szigeti Istv\u00e1n",
            "kind": "utca",
            "post_code": 0
        },
        {
            "name": "Szilfa",
            "kind": "utca",
            "post_code": 0
        },
        {
            "name": "Szondi",
            "kind": "utca",
            "post_code": 0
        },
        {
            "name": "Sz\u0171rszab\u00f3 Nagy Imre",
            "kind": "utca",
            "post_code": 0
        },
        {
            "name": "T\u00e1ncsics Mih\u00e1ly",
            "kind": "utca",
            "post_code": 0
        },
        {
            "name": "Tavasz",
            "kind": "utca",
            "post_code": 0
        },
        {
            "name": "T\u00e9glagy\u00e1ri",
            "kind": "\u00fat",
            "post_code": 0
        },
        {
            "name": "Temet\u0151",
            "kind": "utca",
            "post_code": 0
        },
        {
            "name": "Tisza",
            "kind": "g\u00e1t",
            "post_code": 0
        },
        {
            "name": "Tiszavir\u00e1g",
            "kind": "utca",
            "post_code": 0
        },
        {
            "name": "Toldi",
            "kind": "k\u00f6z",
            "post_code": 0
        },
        {
            "name": "T\u00f6lgyfa",
            "kind": "utca",
            "post_code": 0
        },
        {
            "name": "Topolya",
            "kind": "utca",
            "post_code": 0
        },
        {
            "name": "T\u00f6r\u00f6k Ign\u00e1c",
            "kind": "utca",
            "post_code": 0
        },
        {
            "name": "T\u00f3th J\u00f3zsef",
            "kind": "utca",
            "post_code": 0
        },
        {
            "name": "\u00daj",
            "kind": "utca",
            "post_code": 0
        },
        {
            "name": "\u00dcrge",
            "kind": "utca",
            "post_code": 0
        },
        {
            "name": "Vadaskert",
            "kind": "utca",
            "post_code": 0
        },
        {
            "name": "Vajda",
            "kind": "telep",
            "post_code": 0
        },
        {
            "name": "V\u00e1s\u00e1rhelyi",
            "kind": "\u00fat",
            "post_code": 0
        },
        {
            "name": "Vasv\u00e1ri P\u00e1l",
            "kind": "utca",
            "post_code": 0
        },
        {
            "name": "Vecseri-foki",
            "kind": "\u00fat",
            "post_code": 0
        },
        {
            "name": "Vecseri",
            "kind": "utca",
            "post_code": 0
        },
        {
            "name": "V\u00e9csey K\u00e1roly",
            "kind": "utca",
            "post_code": 0
        },
        {
            "name": "Vekerpart",
            "kind": "utca",
            "post_code": 0
        },
        {
            "name": "Veres P\u00e9ter",
            "kind": "utca",
            "post_code": 0
        },
        {
            "name": "Villog\u00f3",
            "kind": "utca",
            "post_code": 0
        },
        {
            "name": "V\u00f6r\u00f6smarty Mih\u00e1ly",
            "kind": "utca",
            "post_code": 0
        },
        {
            "name": "Wessel\u00e9nyi",
            "kind": "utca",
            "post_code": 0
        },
        {
            "name": "Zolnay K\u00e1roly",
            "kind": "utca",
            "post_code": 0
        },
        {
            "name": "Zr\u00ednyi",
            "kind": "utca",
            "post_code": 0
        }
    ]
}