{
    "codes": {
        "3900": [
            "Szerencs",
            null
        ],
        "3902": [
            "Szerencs",
            "Ond"
        ]
    },
    "streets": [
        {
            "name": "Ady Endre",
            "kind": "utca",
            "post_code": 0
        },
        {
            "name": "Alkotm\u00e1ny",
            "kind": "k\u00f6z",
            "post_code": 0
        },
        {
            "name": "Alkotm\u00e1ny",
            "kind": "utca",
            "post_code": 0
        },
        {
            "name": "Als\u00f3pincesor",
            "kind": "utca",
            "post_code": 0
        },
        {
            "name": "Arad",
            "kind": "utca",
            "post_code": 0
        },
        {
            "name": "Arany J\u00e1nos",
            "kind": "utca",
            "post_code": 0
        },
        {
            "name": "\u00c1rp\u00e1dhegy",
            "kind": "utca",
            "post_code": 0
        },
        {
            "name": "\u00c1rp\u00e1d",
            "kind": "k\u00f6z",
            "post_code": 0
        },
        {
            "name": "\u00c1rp\u00e1d",
            "kind": "utca",
            "post_code": 0
        },
        {
            "name": "Bajcsy-Zsilinszky",
            "kind": "utca",
            "post_code": 0
        },
        {
            "name": "Bak\u00f3 J\u00f3zsef",
            "kind": "utca",
            "post_code": 0
        },
        {
            "name": "Bart\u00f3k B\u00e9la",
            "kind": "utca",
            "post_code": 0
        },
        {
            "name": "B\u00e1stya",
            "kind": "k\u00f6z",
            "post_code": 0
        },
        {
            "name": "B\u00e1stya",
            "kind": "utca",
            "post_code": 0
        },
        {
            "name": "Bekecsi",
            "kind": "\u00fat",
            "post_code": 0
        },
        {
            "name": "B\u00e9ke",
            "kind": "utca",
            "post_code": 0
        },
        {
            "name": "B\u00e9nyei",
            "kind": "utca",
            "post_code": 0
        },
        {
            "name": "Bethlen G\u00e1bor",
            "kind": "utca",
            "post_code": 0
        },
        {
            "name": "Bocskai",
            "kind": "utca",
            "post_code": 0
        },
        {
            "name": "Bors",
            "kind": "utca",
            "post_code": 0
        },
        {
            "name": "Csalog\u00e1ny",
            "kind": "k\u00f6z",
            "post_code": 0
        },
        {
            "name": "Csalog\u00e1ny",
            "kind": "utca",
            "post_code": 0
        },
        {
            "name": "Csokonai",
            "kind": "utca",
            "post_code": 0
        },
        {
            "name": "Dob\u00f3 Kata",
            "kind": "\u00fat",
            "post_code": 0
        },
        {
            "name": "D\u00f3zsa",
            "kind": "utca",
            "post_code": 0
        },
        {
            "name": "El\u0151hegy",
            "kind": "utca",
            "post_code": 0
        },
        {
            "name": "Eperjes",
            "kind": "utca",
            "post_code": 0
        },
        {
            "name": "Erdei Ferenc",
            "kind": "utca",
            "post_code": 0
        },
        {
            "name": "Erzs\u00e9bet",
            "kind": "k\u00f6z",
            "post_code": 0
        },
        {
            "name": "Erzs\u00e9bet",
            "kind": "t\u00e9r",
            "post_code": 0
        },
        {
            "name": "Erzs\u00e9bet",
            "kind": "utca",
            "post_code": 0
        },
        {
            "name": "Fels\u0151kert",
            "kind": "utca",
            "post_code": 0
        },
        {
            "name": "Fels\u0151pincesor",
            "kind": "utca",
            "post_code": 0
        },
        {
            "name": "Fenyves",
            "kind": "utca",
            "post_code": 0
        },
        {
            "name": "Fery Antal",
            "kind": "utca",
            "post_code": 0
        },
        {
            "name": "F\u0151",
            "kind": "utca",
            "post_code": 0
        },
        {
            "name": "F\u00fcrst S\u00e1ndor",
            "kind": "utca",
            "post_code": 0
        },
        {
            "name": "G\u00e1rdonyi",
            "kind": "utca",
            "post_code": 0
        },
        {
            "name": "G\u00e9p\u00e1llom\u00e1s",
            "kind": "utca",
            "post_code": 0
        },
        {
            "name": "G\u00f6rgey",
            "kind": "utca",
            "post_code": 0
        },
        {
            "name": "Gy\u00e1r",
            "kind": "\u00fat",
            "post_code": 0
        },
        {
            "name": "Gy\u00e1r",
            "kind": "utca",
            "post_code": 0
        },
        {
            "name": "H\u00e1m\u00e1n Kat\u00f3",
            "kind": "utca",
            "post_code": 0
        },
        {
            "name": "H\u00e1rsfa",
            "kind": "utca",
            "post_code": 0
        },
        {
            "name": "Hat\u00e1r\u0151r",
            "kind": "utca",
            "post_code": 0
        },
        {
            "name": "Hat\u00e1r",
            "kind": "\u00fat",
            "post_code": 0
        },
        {
            "name": "Hat\u00e1r",
            "kind": "utca",
            "post_code": 0
        },
        {
            "name": "Hegy",
            "kind": "utca",
            "post_code": 0
        },
        {
            "name": "Hidegv\u00f6lgy",
            "kind": "utca",
            "post_code": 0
        },
        {
            "name": "Hivatal",
            "kind": "k\u00f6z",
            "post_code": 0
        },
        {
            "name": "Hunyadi",
            "kind": "k\u00f6z",
            "post_code": 0
        },
        {
            "name": "Hunyadi",
            "kind": "utca",
            "post_code": 0
        },
        {
            "name": "Husz\u00e1rv\u00e1r",
            "kind": "utca",
            "post_code": 0
        },
        {
            "name": "Igl\u00f3",
            "kind": "utca",
            "post_code": 0
        },
        {
            "name": "J\u00f3kai",
            "kind": "utca",
            "post_code": 0
        },
        {
            "name": "J\u00f3zsef Attila",
            "kind": "utca",
            "post_code": 0
        },
        {
            "name": "K\u00e1llai \u00c9va",
            "kind": "utca",
            "post_code": 0
        },
        {
            "name": "K\u00e1lvin",
            "kind": "k\u00f6z",
            "post_code": 0
        },
        {
            "name": "Kand\u00f3 K\u00e1lm\u00e1n",
            "kind": "\u00fat",
            "post_code": 0
        },
        {
            "name": "K\u00e1rp\u00e1t",
            "kind": "utca",
            "post_code": 0
        },
        {
            "name": "Kassa",
            "kind": "utca",
            "post_code": 0
        },
        {
            "name": "Kazinczy Ferenc",
            "kind": "utca",
            "post_code": 0
        },
        {
            "name": "K\u00e9sm\u00e1rk",
            "kind": "utca",
            "post_code": 0
        },
        {
            "name": "Kili\u00e1n Gy\u00f6rgy",
            "kind": "utca",
            "post_code": 0
        },
        {
            "name": "Kili\u00e1n",
            "kind": "t\u00e9r",
            "post_code": 0
        },
        {
            "name": "Kinizsi P\u00e1l",
            "kind": "utca",
            "post_code": 0
        },
        {
            "name": "Kisv\u00e1s\u00e1r",
            "kind": "t\u00e9r",
            "post_code": 0
        },
        {
            "name": "K\u00f6lcsey Ferenc",
            "kind": "utca",
            "post_code": 0
        },
        {
            "name": "Kolozsv\u00e1r",
            "kind": "utca",
            "post_code": 0
        },
        {
            "name": "K\u00f3rh\u00e1z",
            "kind": "k\u00f6z",
            "post_code": 0
        },
        {
            "name": "Korvin Ott\u00f3",
            "kind": "utca",
            "post_code": 0
        },
        {
            "name": "Kossuth Lajos",
            "kind": "k\u00f6z",
            "post_code": 0
        },
        {
            "name": "Kossuth Lajos",
            "kind": "t\u00e9r",
            "post_code": 0
        },
        {
            "name": "Kossuth Lajos",
            "kind": "utca",
            "post_code": 0
        },
        {
            "name": "Lajos",
            "kind": "k\u00f6z",
            "post_code": 0
        },
        {
            "name": "Laktanya",
            "kind": "utca",
            "post_code": 0
        },
        {
            "name": "Landler Jen\u0151",
            "kind": "utca",
            "post_code": 0
        },
        {
            "name": "Lipt\u00e1k J\u00e1nos",
            "kind": "utca",
            "post_code": 0
        },
        {
            "name": "Lipt\u00e1k",
            "kind": "k\u00f6z",
            "post_code": 0
        },
        {
            "name": "L\u0151cse",
            "kind": "utca",
            "post_code": 0
        },
        {
            "name": "Magyar",
            "kind": "utca",
            "post_code": 0
        },
        {
            "name": "Malomtanya",
            "kind": "utca",
            "post_code": 0
        },
        {
            "name": "Malom",
            "kind": "utca",
            "post_code": 0
        },
        {
            "name": "Miksz\u00e1th K\u00e1lm\u00e1n",
            "kind": "utca",
            "post_code": 0
        },
        {
            "name": "Moln\u00e1r Istv\u00e1n",
            "kind": "utca",
            "post_code": 0
        },
        {
            "name": "Monoki",
            "kind": "utca",
            "post_code": 0
        },
        {
            "name": "M\u00f3ra Ferenc",
            "kind": "utca",
            "post_code": 0
        },
        {
            "name": "Nagyv\u00e1rad",
            "kind": "k\u00f6z",
            "post_code": 0
        },
        {
            "name": "Nagyv\u00e1rad",
            "kind": "\u00fat",
            "post_code": 0
        },
        {
            "name": "Ond-Ady Endre",
            "kind": "utca",
            "post_code": 0
        },
        {
            "name": "Ond-Hunyadi",
            "kind": "utca",
            "post_code": 0
        },
        {
            "name": "Ondi",
            "kind": "\u00fat",
            "post_code": 0
        },
        {
            "name": "Ondi",
            "kind": "utca",
            "post_code": 0
        },
        {
            "name": "Ond-J\u00f3kai",
            "kind": "utca",
            "post_code": 0
        },
        {
            "name": "Ond-Kossuth Lajos",
            "kind": "utca",
            "post_code": 0
        },
        {
            "name": "Ond-Monoki",
            "kind": "utca",
            "post_code": 0
        },
        {
            "name": "Ond-Pet\u0151fi",
            "kind": "utca",
            "post_code": 0
        },
        {
            "name": "Ond-Sz\u00e9chenyi",
            "kind": "utca",
            "post_code": 0
        },
        {
            "name": "P\u00e9ld\u00e1nykert",
            "kind": "k\u00f6z",
            "post_code": 0
        },
        {
            "name": "P\u00e9ld\u00e1nykert",
            "kind": "utca",
            "post_code": 0
        },
        {
            "name": "Perc",
            "kind": "utca",
            "post_code": 0
        },
        {
            "name": "Pertikovits L\u00e1szl\u00f3",
            "kind": "utca",
            "post_code": 0
        },
        {
            "name": "Pet\u0151fi",
            "kind": "utca",
            "post_code": 0
        },
        {
            "name": "Pince",
            "kind": "k\u00f6z",
            "post_code": 0
        },
        {
            "name": "Pincemester",
            "kind": "utca",
            "post_code": 0
        },
        {
            "name": "Posta",
            "kind": "utca",
            "post_code": 0
        },
        {
            "name": "Pozsonyi",
            "kind": "\u00fat",
            "post_code": 0
        },
        {
            "name": "R\u00e1k\u00f3czi",
            "kind": "\u00fat",
            "post_code": 0
        },
        {
            "name": "R\u00e1k\u00f3czi",
            "kind": "utca",
            "post_code": 0
        },
        {
            "name": "R\u00e1k\u00f3czi Zsigmond",
            "kind": "t\u00e9r",
            "post_code": 0
        },
        {
            "name": "Rakod\u00f3",
            "kind": "utca",
            "post_code": 0
        },
        {
            "name": "R\u00f3zsa",
            "kind": "utca",
            "post_code": 0
        },
        {
            "name": "S\u00e1gv\u00e1ri",
            "kind": "utca",
            "post_code": 0
        },
        {
            "name": "Sallai",
            "kind": "utca",
            "post_code": 0
        },
        {
            "name": "Szabads\u00e1g",
            "kind": "utca",
            "post_code": 0
        },
        {
            "name": "Sz\u00e9chenyi",
            "kind": "k\u00f6z",
            "post_code": 0
        },
        {
            "name": "Sz\u00e9chenyi",
            "kind": "utca",
            "post_code": 0
        },
        {
            "name": "Szegf\u0171",
            "kind": "\u00fat",
            "post_code": 0
        },
        {
            "name": "Szemere",
            "kind": "utca",
            "post_code": 0
        },
        {
            "name": "Szilas A. P\u00e1l",
            "kind": "utca",
            "post_code": 0
        },
        {
            "name": "Sz\u0171k",
            "kind": "utca",
            "post_code": 0
        },
        {
            "name": "Takta",
            "kind": "utca",
            "post_code": 0
        },
        {
            "name": "T\u00e1ncsics Mih\u00e1ly",
            "kind": "utca",
            "post_code": 0
        },
        {
            "name": "Tatay Zolt\u00e1n",
            "kind": "utca",
            "post_code": 0
        },
        {
            "name": "Tavasz",
            "kind": "utca",
            "post_code": 0
        },
        {
            "name": "V\u00e1ci Mih\u00e1ly",
            "kind": "utca",
            "post_code": 0
        },
        {
            "name": "Vajda J\u00e1nos",
            "kind": "utca",
            "post_code": 0
        },
        {
            "name": "Vas\u00fat\u00e1llom\u00e1s",
            "kind": "utca",
            "post_code": 0
        },
        {
            "name": "Veres P\u00e9ter",
            "kind": "utca",
            "post_code": 0
        },
        {
            "name": "V\u00f6r\u00f6smarty Mih\u00e1ly",
            "kind": "utca",
            "post_code": 0
        },
        {
            "name": "Zr\u00ednyi",
            "kind": "utca",
            "post_code": 0
        }
    ]
}