{
    "codes": {
        "8264": [
            "Szigliget",
            null
        ]
    },
    "streets": [
        {
            "name": "Ady",
            "kind": "utca",
            "post_code": 0
        },
        {
            "name": "Antalhegyi",
            "kind": "utca",
            "post_code": 0
        },
        {
            "name": "Aranykagyl\u00f3",
            "kind": "\u00fat",
            "post_code": 0
        },
        {
            "name": "Balaton",
            "kind": "utca",
            "post_code": 0
        },
        {
            "name": "Bels\u0151hegyi",
            "kind": "utca",
            "post_code": 0
        },
        {
            "name": "D\u00f3zsa",
            "kind": "utca",
            "post_code": 0
        },
        {
            "name": "Ederc",
            "kind": "utca",
            "post_code": 0
        },
        {
            "name": "E\u00f6tv\u00f6s K\u00e1roly",
            "kind": "utca",
            "post_code": 0
        },
        {
            "name": "Farkasv\u00f6lgyi",
            "kind": "\u00fat",
            "post_code": 0
        },
        {
            "name": "F\u00fcrd\u0151",
            "kind": "utca",
            "post_code": 0
        },
        {
            "name": "Hegyaljai",
            "kind": "\u00fat",
            "post_code": 0
        },
        {
            "name": "H\u00f3vir\u00e1g",
            "kind": "utca",
            "post_code": 0
        },
        {
            "name": "Iharos",
            "kind": "utca",
            "post_code": 0
        },
        {
            "name": "Kamonk\u0151i",
            "kind": "\u00fat",
            "post_code": 0
        },
        {
            "name": "Kik\u00f6t\u0151",
            "kind": "",
            "post_code": 0
        },
        {
            "name": "Kisfaludy",
            "kind": "utca",
            "post_code": 0
        },
        {
            "name": "Kossuth Lajos",
            "kind": "utca",
            "post_code": 0
        },
        {
            "name": "K\u00fcls\u0151hegyi",
            "kind": "\u00fat",
            "post_code": 0
        },
        {
            "name": "Liget",
            "kind": "\u00fat",
            "post_code": 0
        },
        {
            "name": "Maj\u00e1lisi",
            "kind": "\u00fat",
            "post_code": 0
        },
        {
            "name": "Maj\u00e1lis",
            "kind": "\u00fat",
            "post_code": 0
        },
        {
            "name": "Ny\u00e1r",
            "kind": "utca",
            "post_code": 0
        },
        {
            "name": "\u00d6reghegyi",
            "kind": "\u00fat",
            "post_code": 0
        },
        {
            "name": "\u00d6reghegyi",
            "kind": "utca",
            "post_code": 0
        },
        {
            "name": "\u0150sz",
            "kind": "utca",
            "post_code": 0
        },
        {
            "name": "Pacsirta",
            "kind": "utca",
            "post_code": 0
        },
        {
            "name": "Patak",
            "kind": "utca",
            "post_code": 0
        },
        {
            "name": "Pet\u0151fi S\u00e1ndor",
            "kind": "utca",
            "post_code": 0
        },
        {
            "name": "R\u00e1k\u00f3czi",
            "kind": "utca",
            "post_code": 0
        },
        {
            "name": "R\u00e9helyi",
            "kind": "\u00fat",
            "post_code": 0
        },
        {
            "name": "R\u00e9v\u00e9sz",
            "kind": "utca",
            "post_code": 0
        },
        {
            "name": "R\u00f3kar\u00e1nt\u00f3i",
            "kind": "\u00fat",
            "post_code": 0
        },
        {
            "name": "R\u00f3szahegyi",
            "kind": "utca",
            "post_code": 0
        },
        {
            "name": "Soponyai",
            "kind": "\u00fat",
            "post_code": 0
        },
        {
            "name": "Szabads\u00e1g",
            "kind": "utca",
            "post_code": 0
        },
        {
            "name": "Sz\u00e9chenyi",
            "kind": "utca",
            "post_code": 0
        },
        {
            "name": "Szilv\u00e1s",
            "kind": "utca",
            "post_code": 0
        },
        {
            "name": "Tavasz",
            "kind": "utca",
            "post_code": 0
        },
        {
            "name": "Vadr\u00f3zsa",
            "kind": "utca",
            "post_code": 0
        },
        {
            "name": "Vilmahegyi",
            "kind": "\u00fat",
            "post_code": 0
        },
        {
            "name": "V\u00f6lgy",
            "kind": "utca",
            "post_code": 0
        }
    ]
}