{
    "codes": {
        "2015": [
            "Szigetmonostor",
            null
        ]
    },
    "streets": [
        {
            "name": "Ady Endre",
            "kind": "utca",
            "post_code": 0
        },
        {
            "name": "\u00c1fonya",
            "kind": "t\u00e9r",
            "post_code": 0
        },
        {
            "name": "Ak\u00e1cfa",
            "kind": "utca",
            "post_code": 0
        },
        {
            "name": "Arany J\u00e1nos",
            "kind": "utca",
            "post_code": 0
        },
        {
            "name": "\u00c1rp\u00e1d",
            "kind": "utca",
            "post_code": 0
        },
        {
            "name": "\u00c1rv\u00e1cska",
            "kind": "utca",
            "post_code": 0
        },
        {
            "name": "Babar\u00f3zsa",
            "kind": "utca",
            "post_code": 0
        },
        {
            "name": "Bajcsy-Zsilinszky",
            "kind": "utca",
            "post_code": 0
        },
        {
            "name": "Barackos",
            "kind": "utca",
            "post_code": 0
        },
        {
            "name": "Bem",
            "kind": "utca",
            "post_code": 0
        },
        {
            "name": "Berkenye",
            "kind": "t\u00e9r",
            "post_code": 0
        },
        {
            "name": "Bodza",
            "kind": "k\u00f6z",
            "post_code": 0
        },
        {
            "name": "Bodzavir\u00e1g",
            "kind": "utca",
            "post_code": 0
        },
        {
            "name": "Bogl\u00e1rka",
            "kind": "utca",
            "post_code": 0
        },
        {
            "name": "Bokr\u00e9ta",
            "kind": "utca",
            "post_code": 0
        },
        {
            "name": "Bor\u00f3ka",
            "kind": "t\u00e9r",
            "post_code": 0
        },
        {
            "name": "B\u00fazavir\u00e1g",
            "kind": "utca",
            "post_code": 0
        },
        {
            "name": "Cikl\u00e1men",
            "kind": "utca",
            "post_code": 0
        },
        {
            "name": "Cinke",
            "kind": "utca",
            "post_code": 0
        },
        {
            "name": "Csalog\u00e1ny",
            "kind": "utca",
            "post_code": 0
        },
        {
            "name": "Csillagf\u00fcrt",
            "kind": "utca",
            "post_code": 0
        },
        {
            "name": "D\u00e1lia",
            "kind": "utca",
            "post_code": 0
        },
        {
            "name": "Damjanich",
            "kind": "k\u00f6z",
            "post_code": 0
        },
        {
            "name": "Damjanich",
            "kind": "utca",
            "post_code": 0
        },
        {
            "name": "De\u00e1k Ferenc",
            "kind": "utca",
            "post_code": 0
        },
        {
            "name": "D\u00f3zsa",
            "kind": "hegy",
            "post_code": 0
        },
        {
            "name": "D\u00f3zsa-hegy",
            "kind": "",
            "post_code": 0
        },
        {
            "name": "Duna",
            "kind": "sor",
            "post_code": 0
        },
        {
            "name": "Erkel",
            "kind": "k\u00f6z",
            "post_code": 0
        },
        {
            "name": "Estike",
            "kind": "utca",
            "post_code": 0
        },
        {
            "name": "F\u00e1c\u00e1nos",
            "kind": "\u00fat",
            "post_code": 0
        },
        {
            "name": "Fagy\u00f6ngy",
            "kind": "utca",
            "post_code": 0
        },
        {
            "name": "Feny\u0151liget",
            "kind": "utca",
            "post_code": 0
        },
        {
            "name": "Feny\u0151",
            "kind": "t\u00e9r",
            "post_code": 0
        },
        {
            "name": "Feny\u0151",
            "kind": "utca",
            "post_code": 0
        },
        {
            "name": "Fics\u00far",
            "kind": "utca",
            "post_code": 0
        },
        {
            "name": "Folyond\u00e1r",
            "kind": "utca",
            "post_code": 0
        },
        {
            "name": "F\u0151",
            "kind": "utca",
            "post_code": 0
        },
        {
            "name": "F\u00fcrj",
            "kind": "utca",
            "post_code": 0
        },
        {
            "name": "F\u00fczeserd\u0151",
            "kind": "utca",
            "post_code": 0
        },
        {
            "name": "Galagonya",
            "kind": "t\u00e9r",
            "post_code": 0
        },
        {
            "name": "Galagonya",
            "kind": "utca",
            "post_code": 0
        },
        {
            "name": "G\u00e1t",
            "kind": "utca",
            "post_code": 0
        },
        {
            "name": "Gerle",
            "kind": "utca",
            "post_code": 0
        },
        {
            "name": "Gy\u00f6ngyvir\u00e1g",
            "kind": "utca",
            "post_code": 0
        },
        {
            "name": "Gyop\u00e1r",
            "kind": "k\u00f6z",
            "post_code": 0
        },
        {
            "name": "Gyop\u00e1r",
            "kind": "utca",
            "post_code": 0
        },
        {
            "name": "Gy\u00fcm\u00f6lcs\u00f6s",
            "kind": "\u00fat",
            "post_code": 0
        },
        {
            "name": "Hajnalka",
            "kind": "utca",
            "post_code": 0
        },
        {
            "name": "Harangvir\u00e1g",
            "kind": "utca",
            "post_code": 0
        },
        {
            "name": "Hark\u00e1ly",
            "kind": "utca",
            "post_code": 0
        },
        {
            "name": "H\u00e1rsfa",
            "kind": "t\u00e9r",
            "post_code": 0
        },
        {
            "name": "H\u00e1rsfa",
            "kind": "utca",
            "post_code": 0
        },
        {
            "name": "Hor\u00e1nygy\u00f6ngye",
            "kind": "k\u00f6z",
            "post_code": 0
        },
        {
            "name": "Hor\u00e1nygy\u00f6ngye",
            "kind": "\u00fcd\u00fcl\u0151",
            "post_code": 0
        },
        {
            "name": "Hor\u00e1nygy\u00f6ngye",
            "kind": "utca",
            "post_code": 0
        },
        {
            "name": "H\u00f3vir\u00e1g",
            "kind": "utca",
            "post_code": 0
        },
        {
            "name": "Ibolya",
            "kind": "k\u00f6z",
            "post_code": 0
        },
        {
            "name": "Ibolya",
            "kind": "utca",
            "post_code": 0
        },
        {
            "name": "Illy\u00e9s Gyula",
            "kind": "k\u00f6z",
            "post_code": 0
        },
        {
            "name": "J\u00e1cint",
            "kind": "utca",
            "post_code": 0
        },
        {
            "name": "J\u00e1zmin",
            "kind": "utca",
            "post_code": 0
        },
        {
            "name": "Jegenye",
            "kind": "k\u00f6z",
            "post_code": 0
        },
        {
            "name": "Jegenye",
            "kind": "sor",
            "post_code": 0
        },
        {
            "name": "J\u00f3zsef Attila",
            "kind": "utca",
            "post_code": 0
        },
        {
            "name": "Kamilla",
            "kind": "utca",
            "post_code": 0
        },
        {
            "name": "KDV VIZIG",
            "kind": "",
            "post_code": 0
        },
        {
            "name": "KDV-VIZIG",
            "kind": "",
            "post_code": 0
        },
        {
            "name": "Kisdunapart",
            "kind": "",
            "post_code": 0
        },
        {
            "name": "Klapka",
            "kind": "utca",
            "post_code": 0
        },
        {
            "name": "K\u00f6k\u00e9ny",
            "kind": "t\u00e9r",
            "post_code": 0
        },
        {
            "name": "K\u00f6k\u00f6rcsin",
            "kind": "utca",
            "post_code": 0
        },
        {
            "name": "Kossuth",
            "kind": "t\u00e9r",
            "post_code": 0
        },
        {
            "name": "Kossuth",
            "kind": "utca",
            "post_code": 0
        },
        {
            "name": "K\u00f6zt\u00e1rsas\u00e1g",
            "kind": "utca",
            "post_code": 0
        },
        {
            "name": "Kr\u00fady",
            "kind": "k\u00f6z",
            "post_code": 0
        },
        {
            "name": "Leander",
            "kind": "utca",
            "post_code": 0
        },
        {
            "name": "Levendula",
            "kind": "utca",
            "post_code": 0
        },
        {
            "name": "Liliom",
            "kind": "utca",
            "post_code": 0
        },
        {
            "name": "Mack\u00f3",
            "kind": "utca",
            "post_code": 0
        },
        {
            "name": "Mad\u00e1ch",
            "kind": "t\u00e9r",
            "post_code": 0
        },
        {
            "name": "Margar\u00e9ta",
            "kind": "utca",
            "post_code": 0
        },
        {
            "name": "Martinovics",
            "kind": "utca",
            "post_code": 0
        },
        {
            "name": "M\u00e1rt\u00edrok",
            "kind": "\u00fatja",
            "post_code": 0
        },
        {
            "name": "M\u00e1ty\u00e1s kir\u00e1ly",
            "kind": "t\u00e9r",
            "post_code": 0
        },
        {
            "name": "Megyeri h\u00edd",
            "kind": "",
            "post_code": 0
        },
        {
            "name": "Menta",
            "kind": "utca",
            "post_code": 0
        },
        {
            "name": "Mim\u00f3za",
            "kind": "utca",
            "post_code": 0
        },
        {
            "name": "M\u00f3kus",
            "kind": "utca",
            "post_code": 0
        },
        {
            "name": "Monostori",
            "kind": "\u00fat",
            "post_code": 0
        },
        {
            "name": "Munk\u00e1csy",
            "kind": "utca",
            "post_code": 0
        },
        {
            "name": "Musk\u00e1tli",
            "kind": "utca",
            "post_code": 0
        },
        {
            "name": "Nagyduna",
            "kind": "s\u00e9t\u00e1ny",
            "post_code": 0
        },
        {
            "name": "Napraforg\u00f3",
            "kind": "utca",
            "post_code": 0
        },
        {
            "name": "N\u00e1rcisz",
            "kind": "utca",
            "post_code": 0
        },
        {
            "name": "Nefelejcs",
            "kind": "t\u00e9r",
            "post_code": 0
        },
        {
            "name": "Nefelejcs",
            "kind": "utca",
            "post_code": 0
        },
        {
            "name": "Ny\u00edrf\u00e1s",
            "kind": "utca",
            "post_code": 0
        },
        {
            "name": "Ny\u00fal",
            "kind": "utca",
            "post_code": 0
        },
        {
            "name": "Orgona",
            "kind": "k\u00f6z",
            "post_code": 0
        },
        {
            "name": "Orgona",
            "kind": "utca",
            "post_code": 0
        },
        {
            "name": "\u0150szir\u00f3zsa",
            "kind": "utca",
            "post_code": 0
        },
        {
            "name": "\u0150zike",
            "kind": "utca",
            "post_code": 0
        },
        {
            "name": "P\u00e1fr\u00e1ny",
            "kind": "utca",
            "post_code": 0
        },
        {
            "name": "Parti",
            "kind": "utca",
            "post_code": 0
        },
        {
            "name": "P\u00e1va",
            "kind": "utca",
            "post_code": 0
        },
        {
            "name": "Pet\u0151fi S\u00e1ndor",
            "kind": "utca",
            "post_code": 0
        },
        {
            "name": "Piac",
            "kind": "utca",
            "post_code": 0
        },
        {
            "name": "Pilinszky",
            "kind": "k\u00f6z",
            "post_code": 0
        },
        {
            "name": "Pipacs",
            "kind": "utca",
            "post_code": 0
        },
        {
            "name": "Pusztamonostori",
            "kind": "utca",
            "post_code": 0
        },
        {
            "name": "R\u00e1k\u00f3czi",
            "kind": "utca",
            "post_code": 0
        },
        {
            "name": "R\u00e9giusz Lajos",
            "kind": "k\u00f6z",
            "post_code": 0
        },
        {
            "name": "Repk\u00e9ny",
            "kind": "utca",
            "post_code": 0
        },
        {
            "name": "R\u00e9v",
            "kind": "\u00fat",
            "post_code": 0
        },
        {
            "name": "Rezeda",
            "kind": "utca",
            "post_code": 0
        },
        {
            "name": "R\u00e9zvir\u00e1g",
            "kind": "k\u00f6z",
            "post_code": 0
        },
        {
            "name": "R\u00f3ka",
            "kind": "utca",
            "post_code": 0
        },
        {
            "name": "Rosd",
            "kind": "utca",
            "post_code": 0
        },
        {
            "name": "Rozmaring",
            "kind": "utca",
            "post_code": 0
        },
        {
            "name": "R\u00f3zsa",
            "kind": "k\u00f6z",
            "post_code": 0
        },
        {
            "name": "R\u00f3zsa",
            "kind": "utca",
            "post_code": 0
        },
        {
            "name": "Szabads\u00e1g",
            "kind": "t\u00e9r",
            "post_code": 0
        },
        {
            "name": "Szam\u00f3ca",
            "kind": "t\u00e9r",
            "post_code": 0
        },
        {
            "name": "Szam\u00f3ca",
            "kind": "utca",
            "post_code": 0
        },
        {
            "name": "Sz\u00e1zszorsz\u00e9p",
            "kind": "utca",
            "post_code": 0
        },
        {
            "name": "Szedres",
            "kind": "t\u00e9r",
            "post_code": 0
        },
        {
            "name": "Szegf\u0171",
            "kind": "utca",
            "post_code": 0
        },
        {
            "name": "Szentendrei",
            "kind": "\u00fat",
            "post_code": 0
        },
        {
            "name": "Sziget",
            "kind": "\u00fat",
            "post_code": 0
        },
        {
            "name": "T\u00e1ncsics",
            "kind": "utca",
            "post_code": 0
        },
        {
            "name": "T\u00e1tika",
            "kind": "utca",
            "post_code": 0
        },
        {
            "name": "Toboz",
            "kind": "utca",
            "post_code": 0
        },
        {
            "name": "T\u00f6lgyfa",
            "kind": "utca",
            "post_code": 0
        },
        {
            "name": "T\u00fccs\u00f6k",
            "kind": "utca",
            "post_code": 0
        },
        {
            "name": "Tulip\u00e1n",
            "kind": "utca",
            "post_code": 0
        },
        {
            "name": "Vadgalamb",
            "kind": "utca",
            "post_code": 0
        },
        {
            "name": "Vadr\u00f3zsa",
            "kind": "utca",
            "post_code": 0
        },
        {
            "name": "Vadvir\u00e1g",
            "kind": "k\u00f6z",
            "post_code": 0
        },
        {
            "name": "Vadvir\u00e1g",
            "kind": "utca",
            "post_code": 0
        },
        {
            "name": "Viola",
            "kind": "utca",
            "post_code": 0
        },
        {
            "name": "Z\u00f6ldfa",
            "kind": "utca",
            "post_code": 0
        },
        {
            "name": "Z\u00f6ldike",
            "kind": "utca",
            "post_code": 0
        },
        {
            "name": "Zr\u00ednyi",
            "kind": "\u00fat",
            "post_code": 0
        }
    ]
}