{
    "codes": {
        "2624": [
            "Szokolya",
            null
        ]
    },
    "streets": [
        {
            "name": "Ady Endre",
            "kind": "utca",
            "post_code": 0
        },
        {
            "name": "Aradi",
            "kind": "utca",
            "post_code": 0
        },
        {
            "name": "\u00c1rkai",
            "kind": "utca",
            "post_code": 0
        },
        {
            "name": "Ben\u0151tt!",
            "kind": "",
            "post_code": 0
        },
        {
            "name": "ben\u0151tt, nehezen j\u00e1rhat\u00f3",
            "kind": "",
            "post_code": 0
        },
        {
            "name": "Ben\u0151tt, nehezen j\u00e1rhat\u00f3 szakasz",
            "kind": "",
            "post_code": 0
        },
        {
            "name": "Borz",
            "kind": "utca",
            "post_code": 0
        },
        {
            "name": "Brass\u00f3i",
            "kind": "k\u00f6z",
            "post_code": 0
        },
        {
            "name": "B\u00fazavir\u00e1g",
            "kind": "utca",
            "post_code": 0
        },
        {
            "name": "D\u00f3zsa Gy\u00f6rgy",
            "kind": "utca",
            "post_code": 0
        },
        {
            "name": "Egres",
            "kind": "\u00fat",
            "post_code": 0
        },
        {
            "name": "F\u0151",
            "kind": "\u00fat",
            "post_code": 0
        },
        {
            "name": "Gazos",
            "kind": "",
            "post_code": 0
        },
        {
            "name": "Gr\u00f3fi",
            "kind": "\u00fat",
            "post_code": 0
        },
        {
            "name": "Hadi\u00fat",
            "kind": "",
            "post_code": 0
        },
        {
            "name": "Hajnalka",
            "kind": "utca",
            "post_code": 0
        },
        {
            "name": "Hangy\u00e1sb\u00e9rci makad\u00e1m\u00fat",
            "kind": "",
            "post_code": 0
        },
        {
            "name": "Hat\u00e1r",
            "kind": "utca",
            "post_code": 0
        },
        {
            "name": "Hunyadi J\u00e1nos",
            "kind": "utca",
            "post_code": 0
        },
        {
            "name": "In\u00f3ci v\u00e1g\u00e1s",
            "kind": "",
            "post_code": 0
        },
        {
            "name": "Ipolys\u00e1gi",
            "kind": "\u00fat",
            "post_code": 0
        },
        {
            "name": "J\u00f3kai M\u00f3r",
            "kind": "utca",
            "post_code": 0
        },
        {
            "name": "Kassai",
            "kind": "k\u00f6z",
            "post_code": 0
        },
        {
            "name": "Kid\u0151lt f\u00e1k! Nehezen j\u00e1rhat\u00f3!",
            "kind": "",
            "post_code": 0
        },
        {
            "name": "Kir\u00e1lyr\u00e9ti",
            "kind": "\u00fat",
            "post_code": 0
        },
        {
            "name": "Kir\u00e1lyr\u00e9t - N\u00f3gr\u00e1d ker\u00e9kp\u00e1rozhat\u00f3 makad\u00e1m\u00fat",
            "kind": "",
            "post_code": 0
        },
        {
            "name": "Kolozsv\u00e1r",
            "kind": "utca",
            "post_code": 0
        },
        {
            "name": "Kossuth Lajos",
            "kind": "utca",
            "post_code": 0
        },
        {
            "name": "L\u00e9vai",
            "kind": "utca",
            "post_code": 0
        },
        {
            "name": "Liget",
            "kind": "utca",
            "post_code": 0
        },
        {
            "name": "Magastaxi erd\u00e9szeti",
            "kind": "\u00fat",
            "post_code": 0
        },
        {
            "name": "Malom",
            "kind": "utca",
            "post_code": 0
        },
        {
            "name": "M\u00e1nyoki \u00c1d\u00e1m",
            "kind": "utca",
            "post_code": 0
        },
        {
            "name": "Maros",
            "kind": "k\u00f6z",
            "post_code": 0
        },
        {
            "name": "Mez\u0151",
            "kind": "utca",
            "post_code": 0
        },
        {
            "name": "Nagyhideghegyi szerviz\u00fat",
            "kind": "",
            "post_code": 0
        },
        {
            "name": "Nehezen j\u00e1rhat\u00f3",
            "kind": "",
            "post_code": 0
        },
        {
            "name": "Nyilad\u00e9k",
            "kind": "",
            "post_code": 0
        },
        {
            "name": "Pet\u0151fi S\u00e1ndor",
            "kind": "utca",
            "post_code": 0
        },
        {
            "name": "Pozsonyi",
            "kind": "k\u00f6z",
            "post_code": 0
        },
        {
            "name": "R\u00e1k\u00f3czi Ferenc",
            "kind": "utca",
            "post_code": 0
        },
        {
            "name": "Sz\u00e9npataki erd\u00e9szeti",
            "kind": "\u00fat",
            "post_code": 0
        },
        {
            "name": "Szokolyai",
            "kind": "\u00fat",
            "post_code": 0
        },
        {
            "name": "T\u00e1tra",
            "kind": "k\u00f6z",
            "post_code": 0
        },
        {
            "name": "\u00dajtelep",
            "kind": "k\u00f6z",
            "post_code": 0
        }
    ]
}