{
    "codes": {
        "6821": [
            "Sz\u00e9kkutas",
            null
        ]
    },
    "streets": [
        {
            "name": "4419",
            "kind": "",
            "post_code": 0
        },
        {
            "name": "Ady Endre",
            "kind": "utca",
            "post_code": 0
        },
        {
            "name": "Alkotm\u00e1ny",
            "kind": "utca",
            "post_code": 0
        },
        {
            "name": "Arany J\u00e1nos",
            "kind": "utca",
            "post_code": 0
        },
        {
            "name": "B\u00e9ke",
            "kind": "utca",
            "post_code": 0
        },
        {
            "name": "Bem",
            "kind": "utca",
            "post_code": 0
        },
        {
            "name": "D\u00f3zsa Gy\u00f6rgy",
            "kind": "utca",
            "post_code": 0
        },
        {
            "name": "Dr. K\u00f3nya J\u00e1nos",
            "kind": "utca",
            "post_code": 0
        },
        {
            "name": "Erkel Ferenc",
            "kind": "utca",
            "post_code": 0
        },
        {
            "name": "Gregus M\u00e1t\u00e9",
            "kind": "utca",
            "post_code": 0
        },
        {
            "name": "Hidi Mih\u00e1ly",
            "kind": "utca",
            "post_code": 0
        },
        {
            "name": "Istv\u00e1n kir\u00e1ly",
            "kind": "utca",
            "post_code": 0
        },
        {
            "name": "J\u00f3kai",
            "kind": "utca",
            "post_code": 0
        },
        {
            "name": "J\u00f3zsef Attila",
            "kind": "utca",
            "post_code": 0
        },
        {
            "name": "Kamilla",
            "kind": "utca",
            "post_code": 0
        },
        {
            "name": "K\u00f6lcsey",
            "kind": "utca",
            "post_code": 0
        },
        {
            "name": "Kossuth",
            "kind": "utca",
            "post_code": 0
        },
        {
            "name": "Maczelka G\u00e1bor",
            "kind": "utca",
            "post_code": 0
        },
        {
            "name": "M\u00e1gocsi",
            "kind": "utca",
            "post_code": 0
        },
        {
            "name": "Mester",
            "kind": "utca",
            "post_code": 0
        },
        {
            "name": "M\u00f3ra Ferenc",
            "kind": "utca",
            "post_code": 0
        },
        {
            "name": "M\u00f3ricz Zsigmond",
            "kind": "utca",
            "post_code": 0
        },
        {
            "name": "Murg\u00e1cs K\u00e1lm\u00e1n",
            "kind": "utca",
            "post_code": 0
        },
        {
            "name": "Nagy kereszt\u00fat",
            "kind": "",
            "post_code": 0
        },
        {
            "name": "N\u00e9meth L\u00e1szl\u00f3",
            "kind": "utca",
            "post_code": 0
        },
        {
            "name": "Pet\u0151fi",
            "kind": "utca",
            "post_code": 0
        },
        {
            "name": "Radn\u00f3ti Mikl\u00f3s",
            "kind": "utca",
            "post_code": 0
        },
        {
            "name": "Szabads\u00e1g",
            "kind": "utca",
            "post_code": 0
        },
        {
            "name": "Sz\u00e9lmalom",
            "kind": "utca",
            "post_code": 0
        },
        {
            "name": "Temesv\u00e1ry Imre",
            "kind": "utca",
            "post_code": 0
        },
        {
            "name": "V\u00e1s\u00e1rhelyi",
            "kind": "utca",
            "post_code": 0
        }
    ]
}