{
    "codes": {
        "7000": [
            "S\u00e1rbog\u00e1rd",
            " "
        ],
        "7003": [
            "S\u00e1rbog\u00e1rd",
            "S\u00e1rszentmikl\u00f3s"
        ],
        "7018": [
            "S\u00e1rbog\u00e1rd",
            "Pusztaegres"
        ],
        "7019": [
            "S\u00e1rbog\u00e1rd",
            "S\u00e1rhatvan"
        ]
    },
    "streets": [
        {
            "name": "Ady Endre",
            "kind": "utca",
            "post_code": 0
        },
        {
            "name": "Ady",
            "kind": "lak\u00f3telep",
            "post_code": 0
        },
        {
            "name": "Ak\u00e1cfa",
            "kind": "utca",
            "post_code": 0
        },
        {
            "name": "\u00c1lmos vez\u00e9r",
            "kind": "utca",
            "post_code": 0
        },
        {
            "name": "Arany J\u00e1nos",
            "kind": "utca",
            "post_code": 0
        },
        {
            "name": "\u00c1rp\u00e1d lak\u00f3telep",
            "kind": "utca",
            "post_code": 0
        },
        {
            "name": "\u00c1rp\u00e1d",
            "kind": "utca",
            "post_code": 0
        },
        {
            "name": "Asztalos",
            "kind": "utca",
            "post_code": 0
        },
        {
            "name": "Attila",
            "kind": "utca",
            "post_code": 0
        },
        {
            "name": "Bajcsy-Zsilinszky",
            "kind": "utca",
            "post_code": 0
        },
        {
            "name": "Balassi B\u00e1lint",
            "kind": "utca",
            "post_code": 0
        },
        {
            "name": "Bar\u00e1ts\u00e1g",
            "kind": "utca",
            "post_code": 0
        },
        {
            "name": "Baross G\u00e1bor",
            "kind": "utca",
            "post_code": 0
        },
        {
            "name": "B\u00e9ke",
            "kind": "utca",
            "post_code": 0
        },
        {
            "name": "Bem J\u00f3zsef",
            "kind": "utca",
            "post_code": 0
        },
        {
            "name": "Bercs\u00e9nyi Mikl\u00f3s",
            "kind": "utca",
            "post_code": 0
        },
        {
            "name": "Berzsenyi D\u00e1niel",
            "kind": "utca",
            "post_code": 0
        },
        {
            "name": "Bethlen G\u00e1bor",
            "kind": "utca",
            "post_code": 0
        },
        {
            "name": "Bocskai Istv\u00e1n",
            "kind": "utca",
            "post_code": 0
        },
        {
            "name": "Csaba",
            "kind": "utca",
            "post_code": 0
        },
        {
            "name": "Cs\u00edk",
            "kind": "utca",
            "post_code": 0
        },
        {
            "name": "Cs\u00f3k Istv\u00e1n",
            "kind": "utca",
            "post_code": 0
        },
        {
            "name": "Damjanich J\u00e1nos",
            "kind": "utca",
            "post_code": 0
        },
        {
            "name": "De\u00e1k Ferenc",
            "kind": "utca",
            "post_code": 0
        },
        {
            "name": "D\u00e9gi",
            "kind": "\u00fat",
            "post_code": 0
        },
        {
            "name": "Dob\u00f3 Istv\u00e1n",
            "kind": "utca",
            "post_code": 0
        },
        {
            "name": "Dorogi",
            "kind": "k\u00f6z",
            "post_code": 0
        },
        {
            "name": "D\u00f3zsa Gy\u00f6rgy",
            "kind": "utca",
            "post_code": 0
        },
        {
            "name": "Egressy B\u00e9ni",
            "kind": "utca",
            "post_code": 0
        },
        {
            "name": "El\u0151d vez\u00e9r",
            "kind": "utca",
            "post_code": 0
        },
        {
            "name": "Esze Tam\u00e1s",
            "kind": "utca",
            "post_code": 0
        },
        {
            "name": "Fasor",
            "kind": "utca",
            "post_code": 0
        },
        {
            "name": "Feh\u00e9rv\u00e1ri",
            "kind": "utca",
            "post_code": 0
        },
        {
            "name": "Feny\u0151",
            "kind": "utca",
            "post_code": 0
        },
        {
            "name": "Gagarin",
            "kind": "utca",
            "post_code": 0
        },
        {
            "name": "G\u00e1rdonyi G\u00e9za",
            "kind": "utca",
            "post_code": 0
        },
        {
            "name": "Gergely",
            "kind": "k\u00f6z",
            "post_code": 0
        },
        {
            "name": "Gesztenye",
            "kind": "sor",
            "post_code": 0
        },
        {
            "name": "Gilice",
            "kind": "k\u00f6z",
            "post_code": 0
        },
        {
            "name": "Halad\u00e1s",
            "kind": "utca",
            "post_code": 0
        },
        {
            "name": "H\u00e1rsfa",
            "kind": "utca",
            "post_code": 0
        },
        {
            "name": "Hatvani",
            "kind": "utca",
            "post_code": 0
        },
        {
            "name": "Hatvany",
            "kind": "utca",
            "post_code": 0
        },
        {
            "name": "Homoksor",
            "kind": "utca",
            "post_code": 0
        },
        {
            "name": "Honv\u00e9d",
            "kind": "utca",
            "post_code": 0
        },
        {
            "name": "H\u0151s\u00f6k",
            "kind": "tere",
            "post_code": 0
        },
        {
            "name": "Huba",
            "kind": "utca",
            "post_code": 0
        },
        {
            "name": "Hunyadi J\u00e1nos",
            "kind": "utca",
            "post_code": 0
        },
        {
            "name": "Ifj\u00fas\u00e1g",
            "kind": "utca",
            "post_code": 0
        },
        {
            "name": "Imre major",
            "kind": "utca",
            "post_code": 0
        },
        {
            "name": "Iskola",
            "kind": "k\u00f6z",
            "post_code": 0
        },
        {
            "name": "J\u00f3kai M\u00f3r",
            "kind": "utca",
            "post_code": 0
        },
        {
            "name": "J\u00f3zsef Attila",
            "kind": "utca",
            "post_code": 0
        },
        {
            "name": "Katona",
            "kind": "utca",
            "post_code": 0
        },
        {
            "name": "Kazinczy Ferenc",
            "kind": "utca",
            "post_code": 0
        },
        {
            "name": "Kereszt",
            "kind": "utca",
            "post_code": 0
        },
        {
            "name": "Kertalja",
            "kind": "utca",
            "post_code": 0
        },
        {
            "name": "K\u00edgy\u00f3",
            "kind": "utca",
            "post_code": 0
        },
        {
            "name": "Kinizsi P\u00e1l",
            "kind": "utca",
            "post_code": 0
        },
        {
            "name": "Kisfaludy",
            "kind": "k\u00f6z",
            "post_code": 0
        },
        {
            "name": "Kis",
            "kind": "k\u00f6z",
            "post_code": 0
        },
        {
            "name": "Kiss",
            "kind": "utca",
            "post_code": 0
        },
        {
            "name": "Kis",
            "kind": "utca",
            "post_code": 0
        },
        {
            "name": "K\u00f6lcsey Ferenc",
            "kind": "utca",
            "post_code": 0
        },
        {
            "name": "Kossuth Lajos",
            "kind": "utca",
            "post_code": 0
        },
        {
            "name": "Kov\u00e1cs",
            "kind": "k\u00f6z",
            "post_code": 0
        },
        {
            "name": "K\u00f6zt\u00e1rsas\u00e1g",
            "kind": "t\u00e9r",
            "post_code": 0
        },
        {
            "name": "K\u00f6zt\u00e1rsas\u00e1g",
            "kind": "utca",
            "post_code": 0
        },
        {
            "name": "L\u00e1szl\u00f3",
            "kind": "utca",
            "post_code": 0
        },
        {
            "name": "L\u00e1z\u00e1r",
            "kind": "utca",
            "post_code": 0
        },
        {
            "name": "Lehel",
            "kind": "utca",
            "post_code": 0
        },
        {
            "name": "M\u00e1di",
            "kind": "k\u00f6z",
            "post_code": 0
        },
        {
            "name": "Magyar",
            "kind": "utca",
            "post_code": 0
        },
        {
            "name": "M\u00e1nyoki",
            "kind": "utca",
            "post_code": 0
        },
        {
            "name": "M\u00e1ty\u00e1s kir\u00e1ly",
            "kind": "utca",
            "post_code": 0
        },
        {
            "name": "M\u00e9sz\u0151ly G\u00e9za",
            "kind": "utca",
            "post_code": 0
        },
        {
            "name": "Mikes",
            "kind": "k\u00f6z",
            "post_code": 0
        },
        {
            "name": "Mikl\u00f3s",
            "kind": "utca",
            "post_code": 0
        },
        {
            "name": "Munk\u00e1csy Mih\u00e1ly",
            "kind": "utca",
            "post_code": 0
        },
        {
            "name": "Nagy Lajos",
            "kind": "utca",
            "post_code": 0
        },
        {
            "name": "Nap",
            "kind": "utca",
            "post_code": 0
        },
        {
            "name": "N\u00e9meth Lajos",
            "kind": "k\u00f6z",
            "post_code": 0
        },
        {
            "name": "N\u00e9meth-sarok",
            "kind": "utca",
            "post_code": 0
        },
        {
            "name": "Ny\u00e1rfa",
            "kind": "utca",
            "post_code": 0
        },
        {
            "name": "Ny\u00edl",
            "kind": "utca",
            "post_code": 0
        },
        {
            "name": "\u00d3",
            "kind": "utca",
            "post_code": 0
        },
        {
            "name": "Park",
            "kind": "utca",
            "post_code": 0
        },
        {
            "name": "Pet\u0151fi S\u00e1ndor",
            "kind": "utca",
            "post_code": 0
        },
        {
            "name": "Posta",
            "kind": "utca",
            "post_code": 0
        },
        {
            "name": "Puha",
            "kind": "k\u00f6z",
            "post_code": 0
        },
        {
            "name": "Radn\u00f3ti Mikl\u00f3s",
            "kind": "utca",
            "post_code": 0
        },
        {
            "name": "R\u00e1k\u00f3czi Ferenc",
            "kind": "utca",
            "post_code": 0
        },
        {
            "name": "R\u00f3zsa Ferenc",
            "kind": "utca",
            "post_code": 0
        },
        {
            "name": "R\u00f3zsa",
            "kind": "utca",
            "post_code": 0
        },
        {
            "name": "Salamon",
            "kind": "utca",
            "post_code": 0
        },
        {
            "name": "S\u00e1voly",
            "kind": "utca",
            "post_code": 0
        },
        {
            "name": "Semmelweis",
            "kind": "utca",
            "post_code": 0
        },
        {
            "name": "Simon",
            "kind": "k\u00f6z",
            "post_code": 0
        },
        {
            "name": "S\u00f6v\u00e9ny",
            "kind": "utca",
            "post_code": 0
        },
        {
            "name": "Szabads\u00e1g",
            "kind": "utca",
            "post_code": 0
        },
        {
            "name": "Sz\u00e1zados",
            "kind": "utca",
            "post_code": 0
        },
        {
            "name": "Sz\u00e9chenyi Istv\u00e1n",
            "kind": "utca",
            "post_code": 0
        },
        {
            "name": "Szegf\u0171",
            "kind": "utca",
            "post_code": 0
        },
        {
            "name": "Sz\u00e9ls\u0151",
            "kind": "utca",
            "post_code": 0
        },
        {
            "name": "Szent Istv\u00e1n",
            "kind": "utca",
            "post_code": 0
        },
        {
            "name": "T\u00e1ncsics Mih\u00e1ly",
            "kind": "utca",
            "post_code": 0
        },
        {
            "name": "Temet\u0151",
            "kind": "utca",
            "post_code": 0
        },
        {
            "name": "Templom",
            "kind": "k\u00f6z",
            "post_code": 0
        },
        {
            "name": "Tin\u00f3di",
            "kind": "k\u00f6z",
            "post_code": 0
        },
        {
            "name": "Tin\u00f3di Lantos Sebesty\u00e9n",
            "kind": "utca",
            "post_code": 0
        },
        {
            "name": "Tisza",
            "kind": "utca",
            "post_code": 0
        },
        {
            "name": "Tompa Mih\u00e1ly",
            "kind": "utca",
            "post_code": 0
        },
        {
            "name": "T\u00fary Mikl\u00f3s",
            "kind": "utca",
            "post_code": 0
        },
        {
            "name": "T\u00fcz\u00e9r",
            "kind": "utca",
            "post_code": 0
        },
        {
            "name": "\u00datt\u00f6r\u0151",
            "kind": "utca",
            "post_code": 0
        },
        {
            "name": "V\u00e1g\u00f3h\u00edd",
            "kind": "utca",
            "post_code": 0
        },
        {
            "name": "Vak Botty\u00e1n",
            "kind": "utca",
            "post_code": 0
        },
        {
            "name": "Vas\u00fat",
            "kind": "utca",
            "post_code": 0
        },
        {
            "name": "Vez\u00e9r",
            "kind": "utca",
            "post_code": 0
        },
        {
            "name": "Vir\u00e1gsarok",
            "kind": "utca",
            "post_code": 0
        },
        {
            "name": "V\u00f6r\u00f6smarty Mih\u00e1ly",
            "kind": "utca",
            "post_code": 0
        },
        {
            "name": "Wessel\u00e9nyi Mikl\u00f3s",
            "kind": "utca",
            "post_code": 0
        },
        {
            "name": "Zr\u00ednyi Mikl\u00f3s",
            "kind": "utca",
            "post_code": 0
        }
    ]
}