{
    "codes": {
        "9600": [
            "S\u00e1rv\u00e1r",
            " "
        ],
        "9608": [
            "S\u00e1rv\u00e1r",
            "R\u00e1bas\u00f6mj\u00e9n"
        ],
        "9609": [
            "S\u00e1rv\u00e1r",
            "L\u00e1nkapuszta"
        ]
    },
    "streets": [
        {
            "name": "Ab\u00e1di Benedek stny.",
            "kind": "",
            "post_code": 0
        },
        {
            "name": "Ady Endre",
            "kind": "utca",
            "post_code": 0
        },
        {
            "name": "\u00c1gfalva",
            "kind": "utca",
            "post_code": 0
        },
        {
            "name": "Ak\u00e1cfa",
            "kind": "utca",
            "post_code": 0
        },
        {
            "name": "Alkotm\u00e1ny",
            "kind": "k\u00f6r\u00fat",
            "post_code": 0
        },
        {
            "name": "Alkotm\u00e1ny",
            "kind": "utca",
            "post_code": 0
        },
        {
            "name": "Alm\u00e1skerti",
            "kind": "utca",
            "post_code": 0
        },
        {
            "name": "Arad",
            "kind": "utca",
            "post_code": 0
        },
        {
            "name": "Arany J\u00e1nos",
            "kind": "utca",
            "post_code": 0
        },
        {
            "name": "\u00c1rp\u00e1d",
            "kind": "utca",
            "post_code": 0
        },
        {
            "name": "\u00c1rv\u00edzv\u00e9delmi t\u00f6lt\u00e9s",
            "kind": "",
            "post_code": 0
        },
        {
            "name": "Attila",
            "kind": "utca",
            "post_code": 0
        },
        {
            "name": "Bajti",
            "kind": "utca",
            "post_code": 0
        },
        {
            "name": "Balassi B\u00e1lint",
            "kind": "utca",
            "post_code": 0
        },
        {
            "name": "Balogh \u00c1d\u00e1m",
            "kind": "utca",
            "post_code": 0
        },
        {
            "name": "Barackfa",
            "kind": "utca",
            "post_code": 0
        },
        {
            "name": "Baross G\u00e1bor",
            "kind": "utca",
            "post_code": 0
        },
        {
            "name": "B\u00e1rtfa",
            "kind": "utca",
            "post_code": 0
        },
        {
            "name": "Bart\u00f3k B\u00e9la",
            "kind": "utca",
            "post_code": 0
        },
        {
            "name": "Batthy\u00e1ny Lajos",
            "kind": "utca",
            "post_code": 0
        },
        {
            "name": "Bem J\u00f3zsef",
            "kind": "utca",
            "post_code": 0
        },
        {
            "name": "Bercs\u00e9nyi Mikl\u00f3s",
            "kind": "utca",
            "post_code": 0
        },
        {
            "name": "Berek",
            "kind": "utca",
            "post_code": 0
        },
        {
            "name": "Berzsenyi D\u00e1niel",
            "kind": "utca",
            "post_code": 0
        },
        {
            "name": "Bocskai Istv\u00e1n",
            "kind": "utca",
            "post_code": 0
        },
        {
            "name": "Bodza",
            "kind": "utca",
            "post_code": 0
        },
        {
            "name": "Budai Nagy Antal",
            "kind": "utca",
            "post_code": 0
        },
        {
            "name": "B\u00fazavir\u00e1g",
            "kind": "utca",
            "post_code": 0
        },
        {
            "name": "Celli",
            "kind": "\u00fat",
            "post_code": 0
        },
        {
            "name": "Csall\u00f3k\u00f6z",
            "kind": "utca",
            "post_code": 0
        },
        {
            "name": "Cs\u00e9nye\u00fajmajor",
            "kind": "",
            "post_code": 0
        },
        {
            "name": "Csokonai",
            "kind": "utca",
            "post_code": 0
        },
        {
            "name": "cukorgy\u00e1ri vas\u00fat t\u00f6lt\u00e9se",
            "kind": "",
            "post_code": 0
        },
        {
            "name": "Cukorgy\u00e1r",
            "kind": "telep",
            "post_code": 0
        },
        {
            "name": "Cukorgy\u00e1r",
            "kind": "utca",
            "post_code": 0
        },
        {
            "name": "Damjanich J\u00e1nos",
            "kind": "utca",
            "post_code": 0
        },
        {
            "name": "De\u00e1k Ferenc",
            "kind": "utca",
            "post_code": 0
        },
        {
            "name": "D\u00e9vai B\u00edr\u00f3 M\u00e1ty\u00e1s",
            "kind": "utca",
            "post_code": 0
        },
        {
            "name": "Di\u00f3fa",
            "kind": "utca",
            "post_code": 0
        },
        {
            "name": "Dorottya",
            "kind": "utca",
            "post_code": 0
        },
        {
            "name": "D\u00f3zsa Gy\u00f6rgy",
            "kind": "utca",
            "post_code": 0
        },
        {
            "name": "egykori S\u00e1rv\u00e1r - Fel\u0151l\u00e1szl\u00f3 vas\u00fatvonal",
            "kind": "",
            "post_code": 0
        },
        {
            "name": "egykori S\u00e1rv\u00e1r - Fels\u0151l\u00e1szl\u00f3 vas\u00fatvonal",
            "kind": "",
            "post_code": 0
        },
        {
            "name": "egykori S\u00e1rv\u00e1r - Zalab\u00e9r-Batyk vas\u00fatvonal t\u00f6lt\u00e9se",
            "kind": "",
            "post_code": 0
        },
        {
            "name": "Eperjes",
            "kind": "utca",
            "post_code": 0
        },
        {
            "name": "Eper",
            "kind": "k\u00f6z",
            "post_code": 0
        },
        {
            "name": "Erd\u00e9ly",
            "kind": "utca",
            "post_code": 0
        },
        {
            "name": "Esze Tam\u00e1s",
            "kind": "utca",
            "post_code": 0
        },
        {
            "name": "Feketeh\u00edd",
            "kind": "utca",
            "post_code": 0
        },
        {
            "name": "Fels\u0151 S\u00f3tonyi",
            "kind": "utca",
            "post_code": 0
        },
        {
            "name": "Gar\u00e1zs",
            "kind": "sor",
            "post_code": 0
        },
        {
            "name": "G\u00e1rdonyi G\u00e9za",
            "kind": "utca",
            "post_code": 0
        },
        {
            "name": "Gayer Endre",
            "kind": "s\u00e9t\u00e1ny",
            "post_code": 0
        },
        {
            "name": "Gy\u00f6ngy\u00f6s",
            "kind": "utca",
            "post_code": 0
        },
        {
            "name": "Harangvir\u00e1g",
            "kind": "utca",
            "post_code": 0
        },
        {
            "name": "H\u00e1rsfa",
            "kind": "utca",
            "post_code": 0
        },
        {
            "name": "Herpeny\u0151",
            "kind": "utca",
            "post_code": 0
        },
        {
            "name": "Hold",
            "kind": "utca",
            "post_code": 0
        },
        {
            "name": "H\u00f3vir\u00e1g",
            "kind": "utca",
            "post_code": 0
        },
        {
            "name": "Hunyadi J\u00e1nos",
            "kind": "utca",
            "post_code": 0
        },
        {
            "name": "Ikerv\u00e1ri",
            "kind": "utca",
            "post_code": 0
        },
        {
            "name": "Ipartelep",
            "kind": "utca",
            "post_code": 0
        },
        {
            "name": "Isaszeg",
            "kind": "utca",
            "post_code": 0
        },
        {
            "name": "Iskola",
            "kind": "utca",
            "post_code": 0
        },
        {
            "name": "J\u00f3kai M\u00f3r",
            "kind": "utca",
            "post_code": 0
        },
        {
            "name": "J\u00f3zsef Attila",
            "kind": "utca",
            "post_code": 0
        },
        {
            "name": "Kabos L\u00e1szl\u00f3",
            "kind": "utca",
            "post_code": 0
        },
        {
            "name": "Kanizsai",
            "kind": "utca",
            "post_code": 0
        },
        {
            "name": "Kassa",
            "kind": "utca",
            "post_code": 0
        },
        {
            "name": "Katalin",
            "kind": "utca",
            "post_code": 0
        },
        {
            "name": "Kat\u00f3",
            "kind": "k\u00f6z",
            "post_code": 0
        },
        {
            "name": "Katona J\u00f3zsef",
            "kind": "utca",
            "post_code": 0
        },
        {
            "name": "Kazinczy Ferenc",
            "kind": "utca",
            "post_code": 0
        },
        {
            "name": "Kem\u00e9ny Istv\u00e1n",
            "kind": "utca",
            "post_code": 0
        },
        {
            "name": "Kertekalja",
            "kind": "utca",
            "post_code": 0
        },
        {
            "name": "Kil\u00e1t\u00f3",
            "kind": "utca",
            "post_code": 0
        },
        {
            "name": "Kinizsi P\u00e1l",
            "kind": "utca",
            "post_code": 0
        },
        {
            "name": "Kisfaludy S\u00e1ndor",
            "kind": "utca",
            "post_code": 0
        },
        {
            "name": "Kis J\u00e1nos alt\u00e1bornagy",
            "kind": "utca",
            "post_code": 0
        },
        {
            "name": "Kiss J\u00e1nos alt\u00e1bornagy",
            "kind": "utca",
            "post_code": 0
        },
        {
            "name": "Kod\u00e1ly Zolt\u00e1n",
            "kind": "utca",
            "post_code": 0
        },
        {
            "name": "Kom\u00e1rom",
            "kind": "utca",
            "post_code": 0
        },
        {
            "name": "Kop\u00e1csi",
            "kind": "d\u0171l\u0151",
            "post_code": 0
        },
        {
            "name": "K\u00f6rtefa",
            "kind": "utca",
            "post_code": 0
        },
        {
            "name": "Kossuth Lajos",
            "kind": "t\u00e9r",
            "post_code": 0
        },
        {
            "name": "Kszerhegyi",
            "kind": "\u00fat",
            "post_code": 0
        },
        {
            "name": "Laktanya",
            "kind": "utca",
            "post_code": 0
        },
        {
            "name": "Liliom",
            "kind": "utca",
            "post_code": 0
        },
        {
            "name": "Mad\u00e1ch Imre",
            "kind": "utca",
            "post_code": 0
        },
        {
            "name": "Magash\u00e1zi",
            "kind": "\u00fat",
            "post_code": 0
        },
        {
            "name": "Magyari Istv\u00e1n",
            "kind": "utca",
            "post_code": 0
        },
        {
            "name": "Malom",
            "kind": "utca",
            "post_code": 0
        },
        {
            "name": "M\u00e1lyva",
            "kind": "k\u00f6z",
            "post_code": 0
        },
        {
            "name": "M\u00e1rcius 15.",
            "kind": "utca",
            "post_code": 0
        },
        {
            "name": "Markusovszky",
            "kind": "utca",
            "post_code": 0
        },
        {
            "name": "M\u00e1ty\u00e1s kir\u00e1ly",
            "kind": "utca",
            "post_code": 0
        },
        {
            "name": "Medgyessy Ferenc",
            "kind": "utca",
            "post_code": 0
        },
        {
            "name": "Mez\u0151",
            "kind": "utca",
            "post_code": 0
        },
        {
            "name": "Mikes Kelemen",
            "kind": "utca",
            "post_code": 0
        },
        {
            "name": "M\u00f3ricz Zsigmond",
            "kind": "utca",
            "post_code": 0
        },
        {
            "name": "Munk\u00e1csy Mih\u00e1ly",
            "kind": "utca",
            "post_code": 0
        },
        {
            "name": "N\u00e1dasdy Ferenc h\u00edd",
            "kind": "",
            "post_code": 0
        },
        {
            "name": "N\u00e1dasdy Ferenc",
            "kind": "utca",
            "post_code": 0
        },
        {
            "name": "Nagyv\u00e1rad",
            "kind": "utca",
            "post_code": 0
        },
        {
            "name": "Nefelejcs",
            "kind": "utca",
            "post_code": 0
        },
        {
            "name": "\u00d6lb\u0151i",
            "kind": "utca",
            "post_code": 0
        },
        {
            "name": "Orsolya",
            "kind": "utca",
            "post_code": 0
        },
        {
            "name": "Ostffyasszonyfai",
            "kind": "utca",
            "post_code": 0
        },
        {
            "name": "\u00d6sv\u00e9ny az illeg\u00e1lis hullad\u00e9klerak\u00f3hoz",
            "kind": "",
            "post_code": 0
        },
        {
            "name": "Otello",
            "kind": "utca",
            "post_code": 0
        },
        {
            "name": "\u00d3v\u00e1r",
            "kind": "utca",
            "post_code": 0
        },
        {
            "name": "P\u00e1lh\u00e1zi G\u00f6ncz Mikl\u00f3s",
            "kind": "utca",
            "post_code": 0
        },
        {
            "name": "Pap",
            "kind": "k\u00f6z",
            "post_code": 0
        },
        {
            "name": "P\u00e9ntekfalui",
            "kind": "utca",
            "post_code": 0
        },
        {
            "name": "P\u00e9ntekhegyi",
            "kind": "utca",
            "post_code": 0
        },
        {
            "name": "Pet\u0151fi S\u00e1ndor",
            "kind": "utca",
            "post_code": 0
        },
        {
            "name": "Pipit\u00e9r",
            "kind": "k\u00f6z",
            "post_code": 0
        },
        {
            "name": "Poh\u00e1rsz\u00e1rogat\u00f3",
            "kind": "utca",
            "post_code": 0
        },
        {
            "name": "Posta",
            "kind": "t\u00e9r",
            "post_code": 0
        },
        {
            "name": "Posta",
            "kind": "utca",
            "post_code": 0
        },
        {
            "name": "R\u00e1ba-h\u00edd",
            "kind": "",
            "post_code": 0
        },
        {
            "name": "R\u00e1ba K\u00f6z",
            "kind": "",
            "post_code": 0
        },
        {
            "name": "R\u00e1bas\u00f6mj\u00e9ni",
            "kind": "utca",
            "post_code": 0
        },
        {
            "name": "R\u00e1k\u00f3czi Ferenc",
            "kind": "\u00fat",
            "post_code": 0
        },
        {
            "name": "R\u00f3zsa",
            "kind": "k\u00f6z",
            "post_code": 0
        },
        {
            "name": "S\u00e1rsziget",
            "kind": "utca",
            "post_code": 0
        },
        {
            "name": "Selyemgy\u00e1r",
            "kind": "utca",
            "post_code": 0
        },
        {
            "name": "Soproni",
            "kind": "utca",
            "post_code": 0
        },
        {
            "name": "S\u00f3tonyi",
            "kind": "utca",
            "post_code": 0
        },
        {
            "name": "Sport",
            "kind": "utca",
            "post_code": 0
        },
        {
            "name": "Szatm\u00e1r",
            "kind": "utca",
            "post_code": 0
        },
        {
            "name": "Sz\u00e1zszorsz\u00e9p",
            "kind": "utca",
            "post_code": 0
        },
        {
            "name": "Sz\u00e9chenyi Istv\u00e1n",
            "kind": "utca",
            "post_code": 0
        },
        {
            "name": "Szegedi K\u0151r\u00f6s G\u00e1sp\u00e1r",
            "kind": "utca",
            "post_code": 0
        },
        {
            "name": "Sz\u00e9kely",
            "kind": "utca",
            "post_code": 0
        },
        {
            "name": "Szent Imre herceg",
            "kind": "utca",
            "post_code": 0
        },
        {
            "name": "Sz\u00e9r\u0171skert",
            "kind": "utca",
            "post_code": 0
        },
        {
            "name": "Szilvafa",
            "kind": "k\u00f6z",
            "post_code": 0
        },
        {
            "name": "Szombathelyi",
            "kind": "utca",
            "post_code": 0
        },
        {
            "name": "Szylveszter J\u00e1nos",
            "kind": "utca",
            "post_code": 0
        },
        {
            "name": "Temet\u0151",
            "kind": "utca",
            "post_code": 0
        },
        {
            "name": "Tilosalja",
            "kind": "utca",
            "post_code": 0
        },
        {
            "name": "Tin\u00f3di Lantos Sebesty\u00e9n",
            "kind": "utca",
            "post_code": 0
        },
        {
            "name": "Tizenh\u00e1romv\u00e1ros",
            "kind": "utca",
            "post_code": 0
        },
        {
            "name": "T\u00f6lgyfa",
            "kind": "utca",
            "post_code": 0
        },
        {
            "name": "Tomori P\u00e1l",
            "kind": "utca",
            "post_code": 0
        },
        {
            "name": "Tompa Mih\u00e1ly",
            "kind": "utca",
            "post_code": 0
        },
        {
            "name": "Tubize",
            "kind": "t\u00e9r",
            "post_code": 0
        },
        {
            "name": "Tulip\u00e1n",
            "kind": "utca",
            "post_code": 0
        },
        {
            "name": "T\u00fcsk\u00e9si",
            "kind": "utca",
            "post_code": 0
        },
        {
            "name": "\u00dajhegy",
            "kind": "utca",
            "post_code": 0
        },
        {
            "name": "\u00dajmajor",
            "kind": "utca",
            "post_code": 0
        },
        {
            "name": "\u00dajsziget",
            "kind": "utca",
            "post_code": 0
        },
        {
            "name": "Ungv\u00e1r",
            "kind": "utca",
            "post_code": 0
        },
        {
            "name": "Uzsoki",
            "kind": "utca",
            "post_code": 0
        },
        {
            "name": "Vadkert",
            "kind": "k\u00f6r\u00fat",
            "post_code": 0
        },
        {
            "name": "Vadkert",
            "kind": "utca",
            "post_code": 0
        },
        {
            "name": "V\u00e1g\u00f3h\u00edd",
            "kind": "utca",
            "post_code": 0
        },
        {
            "name": "Vak Botty\u00e1n",
            "kind": "utca",
            "post_code": 0
        },
        {
            "name": "V\u00e1rker\u00fclet",
            "kind": "",
            "post_code": 0
        },
        {
            "name": "V\u00e1s\u00e1r",
            "kind": "t\u00e9r",
            "post_code": 0
        },
        {
            "name": "Vas\u00fati fel\u00fclj\u00e1r\u00f3",
            "kind": "",
            "post_code": 0
        },
        {
            "name": "vas\u00fati t\u00f6lt\u00e9s",
            "kind": "",
            "post_code": 0
        },
        {
            "name": "Vil\u00e1gos",
            "kind": "utca",
            "post_code": 0
        },
        {
            "name": "Vitny\u00e9di Istv\u00e1n",
            "kind": "utca",
            "post_code": 0
        },
        {
            "name": "V\u00edztorony",
            "kind": "k\u00f6z",
            "post_code": 0
        },
        {
            "name": "V\u00f6r\u00f6skavicsos",
            "kind": "utca",
            "post_code": 0
        },
        {
            "name": "V\u00f6r\u00f6smarty",
            "kind": "utca",
            "post_code": 0
        },
        {
            "name": "Zr\u00ednyi Mikl\u00f3s",
            "kind": "utca",
            "post_code": 0
        },
        {
            "name": "Posta",
            "kind": "t\u00e9r",
            "post_code": 0
        }
    ]
}