{
    "codes": {
        "6346": [
            "S\u00fck\u00f6sd",
            null
        ]
    },
    "streets": [
        {
            "name": "Ady Endre",
            "kind": "utca",
            "post_code": 0
        },
        {
            "name": "Arany J\u00e1nos",
            "kind": "utca",
            "post_code": 0
        },
        {
            "name": "\u00c1rp\u00e1d vez\u00e9r",
            "kind": "utca",
            "post_code": 0
        },
        {
            "name": "Bajcsy-Zsilinszky Endre",
            "kind": "utca",
            "post_code": 0
        },
        {
            "name": "Dar\u00e1l\u00f3",
            "kind": "utca",
            "post_code": 0
        },
        {
            "name": "De\u00e1k Ferenc",
            "kind": "utca",
            "post_code": 0
        },
        {
            "name": "D\u00f3zsa Gy\u00f6rgy",
            "kind": "utca",
            "post_code": 0
        },
        {
            "name": "Duna ker\u00e9kp\u00e1r\u00fat",
            "kind": "",
            "post_code": 0
        },
        {
            "name": "Hangy\u00e1sz",
            "kind": "utca",
            "post_code": 0
        },
        {
            "name": "Horg\u00e1sz",
            "kind": "utca",
            "post_code": 0
        },
        {
            "name": "H\u0151s\u00f6k",
            "kind": "utca",
            "post_code": 0
        },
        {
            "name": "Hunyadi",
            "kind": "utca",
            "post_code": 0
        },
        {
            "name": "K\u00e1lv\u00e1ria",
            "kind": "",
            "post_code": 0
        },
        {
            "name": "Kossuth Lajos",
            "kind": "utca",
            "post_code": 0
        },
        {
            "name": "M\u00e1rt\u00edrok",
            "kind": "\u00fatja",
            "post_code": 0
        },
        {
            "name": "Mez\u0151",
            "kind": "utca",
            "post_code": 0
        },
        {
            "name": "Pet\u0151fi S\u00e1ndor",
            "kind": "utca",
            "post_code": 0
        },
        {
            "name": "R\u00f6vid",
            "kind": "utca",
            "post_code": 0
        },
        {
            "name": "S\u00e1gv\u00e1ri Endre",
            "kind": "utca",
            "post_code": 0
        },
        {
            "name": "Szabads\u00e1g",
            "kind": "utca",
            "post_code": 0
        },
        {
            "name": "T\u00e1ncsics Mih\u00e1ly",
            "kind": "utca",
            "post_code": 0
        },
        {
            "name": "Templom",
            "kind": "utca",
            "post_code": 0
        },
        {
            "name": "\u00daj",
            "kind": "utca",
            "post_code": 0
        },
        {
            "name": "\u00dajv\u00e1ri",
            "kind": "utca",
            "post_code": 0
        },
        {
            "name": "V\u00f6r\u00f6smarty",
            "kind": "utca",
            "post_code": 0
        },
        {
            "name": "Zr\u00ednyi",
            "kind": "utca",
            "post_code": 0
        }
    ]
}