{
    "codes": {
        "8330": [
            "S\u00fcmeg",
            null
        ]
    },
    "streets": [
        {
            "name": "\u00c1d\u00e1m Iv\u00e1n",
            "kind": "utca",
            "post_code": 0
        },
        {
            "name": "Ady Endre",
            "kind": "utca",
            "post_code": 0
        },
        {
            "name": "Ak\u00e1cos",
            "kind": "utca",
            "post_code": 0
        },
        {
            "name": "Alkotm\u00e1ny",
            "kind": "utca",
            "post_code": 0
        },
        {
            "name": "Arany J\u00e1nos",
            "kind": "utca",
            "post_code": 0
        },
        {
            "name": "\u00c1rp\u00e1d",
            "kind": "utca",
            "post_code": 0
        },
        {
            "name": "Baglyassz\u00e9l",
            "kind": "utca",
            "post_code": 0
        },
        {
            "name": "Balogh",
            "kind": "utca",
            "post_code": 0
        },
        {
            "name": "Baross",
            "kind": "utca",
            "post_code": 0
        },
        {
            "name": "B\u00e9ke",
            "kind": "t\u00e9r",
            "post_code": 0
        },
        {
            "name": "Bem J\u00e1nos",
            "kind": "utca",
            "post_code": 0
        },
        {
            "name": "Bem J\u00f3zsef",
            "kind": "utca",
            "post_code": 0
        },
        {
            "name": "B\u00edr\u00f3 M\u00e1rton",
            "kind": "utca",
            "post_code": 0
        },
        {
            "name": "Bosny\u00e1k Istv\u00e1n",
            "kind": "utca",
            "post_code": 0
        },
        {
            "name": "Cs\u00e1nyi",
            "kind": "utca",
            "post_code": 0
        },
        {
            "name": "Cseh L\u00e1szl\u00f3",
            "kind": "utca",
            "post_code": 0
        },
        {
            "name": "Darnay K\u00e1lm\u00e1n",
            "kind": "utca",
            "post_code": 0
        },
        {
            "name": "De\u00e1k Ferenc",
            "kind": "utca",
            "post_code": 0
        },
        {
            "name": "D\u00f3zsa Gy\u00f6rgy",
            "kind": "utca",
            "post_code": 0
        },
        {
            "name": "Eitner",
            "kind": "utca",
            "post_code": 0
        },
        {
            "name": "Entz Ferenc",
            "kind": "utca",
            "post_code": 0
        },
        {
            "name": "\u00c9p\u00edt\u0151k",
            "kind": "\u00fatja",
            "post_code": 0
        },
        {
            "name": "Ereki",
            "kind": "utca",
            "post_code": 0
        },
        {
            "name": "Feh\u00e9rk\u0151",
            "kind": "utca",
            "post_code": 0
        },
        {
            "name": "Feny\u0151",
            "kind": "utca",
            "post_code": 0
        },
        {
            "name": "Fl\u00f3ri\u00e1n",
            "kind": "t\u00e9r",
            "post_code": 0
        },
        {
            "name": "Hal\u00e1sz L\u00e1szl\u00f3",
            "kind": "utca",
            "post_code": 0
        },
        {
            "name": "Hamuh\u00e1zi",
            "kind": "utca",
            "post_code": 0
        },
        {
            "name": "Haraszti",
            "kind": "utca",
            "post_code": 0
        },
        {
            "name": "H\u00e1rsk\u00fati",
            "kind": "utca",
            "post_code": 0
        },
        {
            "name": "Hegyalja",
            "kind": "utca",
            "post_code": 0
        },
        {
            "name": "Hunyadi J\u00e1nos",
            "kind": "utca",
            "post_code": 0
        },
        {
            "name": "Ifj\u00fas\u00e1g",
            "kind": "\u00fatja",
            "post_code": 0
        },
        {
            "name": "Izabella",
            "kind": "utca",
            "post_code": 0
        },
        {
            "name": "J\u00f3kai",
            "kind": "utca",
            "post_code": 0
        },
        {
            "name": "J\u00f3zsef Attila",
            "kind": "utca",
            "post_code": 0
        },
        {
            "name": "K\u00e1lv\u00e1ria",
            "kind": "t\u00e9r",
            "post_code": 0
        },
        {
            "name": "Karolina",
            "kind": "utca",
            "post_code": 0
        },
        {
            "name": "Kinizsi P\u00e1l",
            "kind": "utca",
            "post_code": 0
        },
        {
            "name": "Kisfaludy M\u00f3r",
            "kind": "utca",
            "post_code": 0
        },
        {
            "name": "Kompanik",
            "kind": "utca",
            "post_code": 0
        },
        {
            "name": "Korona",
            "kind": "utca",
            "post_code": 0
        },
        {
            "name": "Kossuth Lajos",
            "kind": "utca",
            "post_code": 0
        },
        {
            "name": "K\u00f6ves Andr\u00e1s",
            "kind": "utca",
            "post_code": 0
        },
        {
            "name": "K\u00f6vesdomb",
            "kind": "utca",
            "post_code": 0
        },
        {
            "name": "K\u00fcls\u0151tokaj",
            "kind": "utca",
            "post_code": 0
        },
        {
            "name": "Lukonich G\u00e1bor",
            "kind": "utca",
            "post_code": 0
        },
        {
            "name": "Magyar Ferenc",
            "kind": "utca",
            "post_code": 0
        },
        {
            "name": "M\u00e1jus 1.",
            "kind": "utca",
            "post_code": 0
        },
        {
            "name": "M\u00e1rt\u00edrok",
            "kind": "\u00fatja",
            "post_code": 0
        },
        {
            "name": "Mih\u00e1lyfai",
            "kind": "utca",
            "post_code": 0
        },
        {
            "name": "M\u00f3ricz Zsigmond",
            "kind": "utca",
            "post_code": 0
        },
        {
            "name": "\u00d6reghegyi",
            "kind": "utca",
            "post_code": 0
        },
        {
            "name": "Pet\u0151fi S\u00e1ndor",
            "kind": "utca",
            "post_code": 0
        },
        {
            "name": "R\u00e1k\u00f3czi Ferenc",
            "kind": "utca",
            "post_code": 0
        },
        {
            "name": "Ramassetter Vince",
            "kind": "utca",
            "post_code": 0
        },
        {
            "name": "R\u00e9gi K",
            "kind": "",
            "post_code": 0
        },
        {
            "name": "Rendek",
            "kind": "\u00fatja",
            "post_code": 0
        },
        {
            "name": "Sarvaly",
            "kind": "utca",
            "post_code": 0
        },
        {
            "name": "Simon Istv\u00e1n",
            "kind": "utca",
            "post_code": 0
        },
        {
            "name": "Somoskerti",
            "kind": "utca",
            "post_code": 0
        },
        {
            "name": "Sport",
            "kind": "utca",
            "post_code": 0
        },
        {
            "name": "Szab\u00f3-Dezs\u0151",
            "kind": "utca",
            "post_code": 0
        },
        {
            "name": "Sz\u00e9chenyi Gy\u00f6rgy",
            "kind": "utca",
            "post_code": 0
        },
        {
            "name": "Szegedy Rezs\u0151",
            "kind": "utca",
            "post_code": 0
        },
        {
            "name": "Szent Istv\u00e1n",
            "kind": "t\u00e9r",
            "post_code": 0
        },
        {
            "name": "Szent L\u00e1szl\u00f3",
            "kind": "t\u00e9r",
            "post_code": 0
        },
        {
            "name": "Szeptember 6.",
            "kind": "utca",
            "post_code": 0
        },
        {
            "name": "Sz\u0151l\u0151skert",
            "kind": "utca",
            "post_code": 0
        },
        {
            "name": "T\u00e1ncsics Mih\u00e1ly",
            "kind": "utca",
            "post_code": 0
        },
        {
            "name": "Tapolcai",
            "kind": "utca",
            "post_code": 0
        },
        {
            "name": "T\u00e1tika",
            "kind": "utca",
            "post_code": 0
        },
        {
            "name": "Tokajk\u00f6z",
            "kind": "utca",
            "post_code": 0
        },
        {
            "name": "T\u00f3th Tivadar",
            "kind": "utca",
            "post_code": 0
        },
        {
            "name": "Vadja",
            "kind": "utca",
            "post_code": 0
        },
        {
            "name": "Vadr\u00f3zsa",
            "kind": "utca",
            "post_code": 0
        },
        {
            "name": "Vajda Ign\u00e1c",
            "kind": "utca",
            "post_code": 0
        },
        {
            "name": "Vak Botty\u00e1n",
            "kind": "utca",
            "post_code": 0
        },
        {
            "name": "V\u00e1ralja",
            "kind": "utca",
            "post_code": 0
        },
        {
            "name": "V\u00e1rnagy",
            "kind": "utca",
            "post_code": 0
        },
        {
            "name": "V\u00e1zsonyi Vilmos",
            "kind": "utca",
            "post_code": 0
        },
        {
            "name": "Vincell\u00e9r",
            "kind": "utca",
            "post_code": 0
        },
        {
            "name": "Zr\u00ednyi Mikl\u00f3s",
            "kind": "utca",
            "post_code": 0
        }
    ]
}