{
    "codes": {
        "8237": [
            "Tihany",
            null
        ]
    },
    "streets": [
        {
            "name": "Als\u00f3kopaszhegyi",
            "kind": "utca",
            "post_code": 0
        },
        {
            "name": "Als\u00f3\u00f3v\u00e1ri",
            "kind": "utca",
            "post_code": 0
        },
        {
            "name": "Aranyh\u00e1z",
            "kind": "utca",
            "post_code": 0
        },
        {
            "name": "\u00c1rp\u00e1d",
            "kind": "utca",
            "post_code": 0
        },
        {
            "name": "B\u00e1nya",
            "kind": "k\u00f6z",
            "post_code": 0
        },
        {
            "name": "Batthy\u00e1ny",
            "kind": "utca",
            "post_code": 0
        },
        {
            "name": "Borsos Mikl\u00f3s",
            "kind": "t\u00e9r",
            "post_code": 0
        },
        {
            "name": "Cinke",
            "kind": "utca",
            "post_code": 0
        },
        {
            "name": "Cipri\u00e1n",
            "kind": "utca",
            "post_code": 0
        },
        {
            "name": "Club Tihany",
            "kind": "",
            "post_code": 0
        },
        {
            "name": "Cserhegy",
            "kind": "",
            "post_code": 0
        },
        {
            "name": "Cserhegyi",
            "kind": "utca",
            "post_code": 0
        },
        {
            "name": "Csokonai Mih\u00e1ly",
            "kind": "utca",
            "post_code": 0
        },
        {
            "name": "Di\u00f3si",
            "kind": "utca",
            "post_code": 0
        },
        {
            "name": "D\u00f3zsa Gy\u00f6rgy",
            "kind": "utca",
            "post_code": 0
        },
        {
            "name": "Fecske",
            "kind": "utca",
            "post_code": 0
        },
        {
            "name": "Fels\u0151kopaszhegyi",
            "kind": "utca",
            "post_code": 0
        },
        {
            "name": "Fels\u0151\u00f3v\u00e1ri",
            "kind": "utca",
            "post_code": 0
        },
        {
            "name": "Feny\u0151",
            "kind": "utca",
            "post_code": 0
        },
        {
            "name": "F\u00fcge",
            "kind": "utca",
            "post_code": 0
        },
        {
            "name": "F\u00fcrd\u0151telepi",
            "kind": "utca",
            "post_code": 0
        },
        {
            "name": "Galagonya",
            "kind": "utca",
            "post_code": 0
        },
        {
            "name": "Garai J\u00e1nos",
            "kind": "utca",
            "post_code": 0
        },
        {
            "name": "Garay",
            "kind": "utca",
            "post_code": 0
        },
        {
            "name": "Garda",
            "kind": "k\u00f6z",
            "post_code": 0
        },
        {
            "name": "G\u00f6dr\u00f6s",
            "kind": "utca",
            "post_code": 0
        },
        {
            "name": "gyalogh\u00edd",
            "kind": "",
            "post_code": 0
        },
        {
            "name": "Hal\u00e1sz-k\u00f6z",
            "kind": "",
            "post_code": 0
        },
        {
            "name": "Hal\u00e1sz",
            "kind": "utca",
            "post_code": 0
        },
        {
            "name": "I. Andr\u00e1s",
            "kind": "t\u00e9r",
            "post_code": 0
        },
        {
            "name": "Itat\u00f3",
            "kind": "k\u00f6z",
            "post_code": 0
        },
        {
            "name": "Jegenye",
            "kind": "sor",
            "post_code": 0
        },
        {
            "name": "J\u00f3zsef Attila",
            "kind": "utca",
            "post_code": 0
        },
        {
            "name": "Kagyl\u00f3",
            "kind": "k\u00f6z",
            "post_code": 0
        },
        {
            "name": "K\u00e1r\u00e1sz",
            "kind": "utca",
            "post_code": 0
        },
        {
            "name": "Kecskek\u00f6r\u00f6m",
            "kind": "utca",
            "post_code": 0
        },
        {
            "name": "Kenderf\u00f6ld",
            "kind": "\u00fat",
            "post_code": 0
        },
        {
            "name": "Kiserd\u0151telepi",
            "kind": "\u00fat",
            "post_code": 0
        },
        {
            "name": "Kiskopaszhegy",
            "kind": "utca",
            "post_code": 0
        },
        {
            "name": "Kiss",
            "kind": "utca",
            "post_code": 0
        },
        {
            "name": "Klebelsberg Kuno",
            "kind": "utca",
            "post_code": 0
        },
        {
            "name": "K\u0151fejt\u0151",
            "kind": "sor",
            "post_code": 0
        },
        {
            "name": "Kossuth Lajos",
            "kind": "utca",
            "post_code": 0
        },
        {
            "name": "K\u00f6z\u00e9ps\u0151\u00f3v\u00e1ri",
            "kind": "utca",
            "post_code": 0
        },
        {
            "name": "L\u00e9pcs\u0151",
            "kind": "sor",
            "post_code": 0
        },
        {
            "name": "Lepke",
            "kind": "sor",
            "post_code": 0
        },
        {
            "name": "Levendula",
            "kind": "utca",
            "post_code": 0
        },
        {
            "name": "M\u00e1dl Ferenc",
            "kind": "t\u00e9r",
            "post_code": 0
        },
        {
            "name": "Major",
            "kind": "utca",
            "post_code": 0
        },
        {
            "name": "M\u00e1lyva",
            "kind": "utca",
            "post_code": 0
        },
        {
            "name": "Pet\u0151fi S\u00e1ndor",
            "kind": "utca",
            "post_code": 0
        },
        {
            "name": "Pisky",
            "kind": "s\u00e9t\u00e1ny",
            "post_code": 0
        },
        {
            "name": "Rege",
            "kind": "utca",
            "post_code": 0
        },
        {
            "name": "Rendesk\u0151",
            "kind": "utca",
            "post_code": 0
        },
        {
            "name": "R\u00e9v",
            "kind": "utca",
            "post_code": 0
        },
        {
            "name": "R\u00f3ka",
            "kind": "utca",
            "post_code": 0
        },
        {
            "name": "Romk\u00e1polna",
            "kind": "utca",
            "post_code": 0
        },
        {
            "name": "Sajkodi",
            "kind": "sor",
            "post_code": 0
        },
        {
            "name": "Sereg\u00e9ly",
            "kind": "utca",
            "post_code": 0
        },
        {
            "name": "Somfa",
            "kind": "utca",
            "post_code": 0
        },
        {
            "name": "Sz\u0151l\u0151",
            "kind": "utca",
            "post_code": 0
        },
        {
            "name": "T\u00e1rogat\u00f3",
            "kind": "k\u00f6z",
            "post_code": 0
        },
        {
            "name": "Tihanyi",
            "kind": "m\u0171\u00fat",
            "post_code": 0
        },
        {
            "name": "\u00dcrgedombi",
            "kind": "utca",
            "post_code": 0
        },
        {
            "name": "V\u00e1ralja",
            "kind": "utca",
            "post_code": 0
        },
        {
            "name": "V\u00e1rfal",
            "kind": "",
            "post_code": 0
        },
        {
            "name": "Visszhang",
            "kind": "utca",
            "post_code": 0
        },
        {
            "name": "V\u00f6lgy",
            "kind": "utca",
            "post_code": 0
        },
        {
            "name": "Malom",
            "kind": "t\u00e9r",
            "post_code": 0
        }
    ]
}