{
    "codes": {
        "5233": [
            "Tiszagyenda",
            null
        ]
    },
    "streets": [
        {
            "name": "Ady Endre",
            "kind": "\u00fat",
            "post_code": 0
        },
        {
            "name": "Alkotm\u00e1ny",
            "kind": "utca",
            "post_code": 0
        },
        {
            "name": "Bacs\u00f3 B\u00e9la",
            "kind": "\u00fat",
            "post_code": 0
        },
        {
            "name": "Bart\u00f3k B\u00e9la",
            "kind": "utca",
            "post_code": 0
        },
        {
            "name": "Bocskai",
            "kind": "\u00fat",
            "post_code": 0
        },
        {
            "name": "Damjanich",
            "kind": "utca",
            "post_code": 0
        },
        {
            "name": "D\u00f3zsa Gy\u00f6rgy",
            "kind": "utca",
            "post_code": 0
        },
        {
            "name": "Gy\u00f3ni G\u00e9za",
            "kind": "utca",
            "post_code": 0
        },
        {
            "name": "Hat\u00e1r",
            "kind": "utca",
            "post_code": 0
        },
        {
            "name": "Herman Ott\u00f3",
            "kind": "utca",
            "post_code": 0
        },
        {
            "name": "II. R\u00e1k\u00f3czi Ferenc",
            "kind": "\u00fat",
            "post_code": 0
        },
        {
            "name": "J\u00f3zsef Attila",
            "kind": "utca",
            "post_code": 0
        },
        {
            "name": "Katona J\u00f3zsef",
            "kind": "utca",
            "post_code": 0
        },
        {
            "name": "Kert",
            "kind": "k\u00f6z",
            "post_code": 0
        },
        {
            "name": "Kossuth Lajos",
            "kind": "utca",
            "post_code": 0
        },
        {
            "name": "Kunhalom",
            "kind": "utca",
            "post_code": 0
        },
        {
            "name": "Liget",
            "kind": "k\u00f6z",
            "post_code": 0
        },
        {
            "name": "Liszt Ferenc",
            "kind": "utca",
            "post_code": 0
        },
        {
            "name": "Mad\u00e1ch Imre",
            "kind": "utca",
            "post_code": 0
        },
        {
            "name": "Marx K\u00e1roly",
            "kind": "utca",
            "post_code": 0
        },
        {
            "name": "Pet\u0151fi S\u00e1ndor",
            "kind": "\u00fat",
            "post_code": 0
        },
        {
            "name": "R\u00f3zsa",
            "kind": "k\u00f6z",
            "post_code": 0
        },
        {
            "name": "R\u00f3zsa",
            "kind": "utca",
            "post_code": 0
        },
        {
            "name": "Szabads\u00e1g",
            "kind": "utca",
            "post_code": 0
        },
        {
            "name": "Szent Mih\u00e1ly",
            "kind": "\u00fat",
            "post_code": 0
        },
        {
            "name": "Sz\u0151l\u0151",
            "kind": "k\u00f6z",
            "post_code": 0
        },
        {
            "name": "T\u00e1ncsics Mih\u00e1ly",
            "kind": "utca",
            "post_code": 0
        },
        {
            "name": "Vasv\u00e1ri P\u00e1l",
            "kind": "utca",
            "post_code": 0
        }
    ]
}