{
    "codes": {
        "3580": [
            "Tisza\u00fajv\u00e1ros",
            null
        ]
    },
    "streets": [
        {
            "name": "Ady Endre",
            "kind": "\u00fat",
            "post_code": 0
        },
        {
            "name": "Alkotm\u00e1ny",
            "kind": "k\u00f6z",
            "post_code": 0
        },
        {
            "name": "Arany J\u00e1nos",
            "kind": "\u00fat",
            "post_code": 0
        },
        {
            "name": "\u00c1rk\u00e1d",
            "kind": "sor",
            "post_code": 0
        },
        {
            "name": "\u00c1rp\u00e1d",
            "kind": "\u00fat",
            "post_code": 0
        },
        {
            "name": "Babits Mih\u00e1ly",
            "kind": "\u00fat",
            "post_code": 0
        },
        {
            "name": "Bajcsy-Zsilinszky Endre",
            "kind": "\u00fat",
            "post_code": 0
        },
        {
            "name": "B\u00e1nki Don\u00e1t",
            "kind": "utca",
            "post_code": 0
        },
        {
            "name": "Barcsay Jen\u0151",
            "kind": "t\u00e9r",
            "post_code": 0
        },
        {
            "name": "Bart\u00f3k B\u00e9la",
            "kind": "\u00fat",
            "post_code": 0
        },
        {
            "name": "Bay Zolt\u00e1n",
            "kind": "\u00fat",
            "post_code": 0
        },
        {
            "name": "B\u00e9ke",
            "kind": "\u00fat",
            "post_code": 0
        },
        {
            "name": "B\u00e9lahalma",
            "kind": "\u00fat",
            "post_code": 0
        },
        {
            "name": "Bethlen G\u00e1bor",
            "kind": "\u00fat",
            "post_code": 0
        },
        {
            "name": "Bethlen G\u00e1bor \u00fati k\u00f6rforgalom",
            "kind": "",
            "post_code": 0
        },
        {
            "name": "Bl\u00e1thy Ott\u00f3",
            "kind": "utca",
            "post_code": 0
        },
        {
            "name": "Bocskai Istv\u00e1n",
            "kind": "\u00fat",
            "post_code": 0
        },
        {
            "name": "Bolyai",
            "kind": "k\u00f6z",
            "post_code": 0
        },
        {
            "name": "De\u00e1k Ferenc",
            "kind": "t\u00e9r",
            "post_code": 0
        },
        {
            "name": "Debreceni",
            "kind": "\u00fat",
            "post_code": 0
        },
        {
            "name": "D\u00edszt\u00f3",
            "kind": "s\u00e9t\u00e1ny",
            "post_code": 0
        },
        {
            "name": "Doh\u00e1ny",
            "kind": "\u00fat",
            "post_code": 0
        },
        {
            "name": "D\u00f3zsa Gy\u00f6rgy",
            "kind": "utca",
            "post_code": 0
        },
        {
            "name": "Egressy B\u00e9ni",
            "kind": "utca",
            "post_code": 0
        },
        {
            "name": "\u00c9p\u00edt\u0151k",
            "kind": "\u00fatja",
            "post_code": 0
        },
        {
            "name": "Erzs\u00e9bet",
            "kind": "t\u00e9r",
            "post_code": 0
        },
        {
            "name": "Farkas K\u00e1lm\u00e1n",
            "kind": "\u00fat",
            "post_code": 0
        },
        {
            "name": "G\u00e1t",
            "kind": "\u00fat",
            "post_code": 0
        },
        {
            "name": "Hajd\u00fa",
            "kind": "t\u00e9r",
            "post_code": 0
        },
        {
            "name": "Hunyadi",
            "kind": "\u00fat",
            "post_code": 0
        },
        {
            "name": "Husz\u00e1r Andor",
            "kind": "\u00fat",
            "post_code": 0
        },
        {
            "name": "Irinyi J\u00e1nos",
            "kind": "\u00fat",
            "post_code": 0
        },
        {
            "name": "Izabella",
            "kind": "\u00fat",
            "post_code": 0
        },
        {
            "name": "Jedlik \u00c1nyos",
            "kind": "utca",
            "post_code": 0
        },
        {
            "name": "J\u00f3zsef Attila",
            "kind": "\u00fat",
            "post_code": 0
        },
        {
            "name": "Juhar",
            "kind": "k\u00f6z",
            "post_code": 0
        },
        {
            "name": "K1",
            "kind": "",
            "post_code": 0
        },
        {
            "name": "K2",
            "kind": "",
            "post_code": 0
        },
        {
            "name": "K3",
            "kind": "",
            "post_code": 0
        },
        {
            "name": "K4",
            "kind": "",
            "post_code": 0
        },
        {
            "name": "K5",
            "kind": "",
            "post_code": 0
        },
        {
            "name": "K6",
            "kind": "",
            "post_code": 0
        },
        {
            "name": "K7",
            "kind": "",
            "post_code": 0
        },
        {
            "name": "K8",
            "kind": "",
            "post_code": 0
        },
        {
            "name": "K9",
            "kind": "",
            "post_code": 0
        },
        {
            "name": "Kand\u00f3 K\u00e1lm\u00e1n",
            "kind": "\u00fat",
            "post_code": 0
        },
        {
            "name": "Karinthy Frigyes",
            "kind": "\u00fat",
            "post_code": 0
        },
        {
            "name": "Kazinczy Ferenc",
            "kind": "\u00fat",
            "post_code": 0
        },
        {
            "name": "Kir\u00e1ly",
            "kind": "k\u00f6z",
            "post_code": 0
        },
        {
            "name": "Kossuth Lajos",
            "kind": "\u00fat",
            "post_code": 0
        },
        {
            "name": "Kosztol\u00e1nyi Dezs\u0151",
            "kind": "\u00fat",
            "post_code": 0
        },
        {
            "name": "Krisztina",
            "kind": "\u00fat",
            "post_code": 0
        },
        {
            "name": "L\u00e9vay J\u00f3zsef",
            "kind": "\u00fat",
            "post_code": 0
        },
        {
            "name": "Liszt Ferenc",
            "kind": "\u00fat",
            "post_code": 0
        },
        {
            "name": "Lor\u00e1ntffy Zsuzsanna",
            "kind": "\u00fat",
            "post_code": 0
        },
        {
            "name": "Margit",
            "kind": "s\u00e9t\u00e1ny",
            "post_code": 0
        },
        {
            "name": "M\u00e1ty\u00e1s kir\u00e1ly",
            "kind": "\u00fat",
            "post_code": 0
        },
        {
            "name": "Munk\u00e1csy Mih\u00e1ly",
            "kind": "\u00fat",
            "post_code": 0
        },
        {
            "name": "Neumann J\u00e1nos",
            "kind": "utca",
            "post_code": 0
        },
        {
            "name": "\u00d6r\u00f6si",
            "kind": "\u00fat",
            "post_code": 0
        },
        {
            "name": "Pajt\u00e1s",
            "kind": "k\u00f6z",
            "post_code": 0
        },
        {
            "name": "Per\u00e9nyi P\u00e9ter",
            "kind": "utca",
            "post_code": 0
        },
        {
            "name": "Pet\u0151fi S\u00e1ndor",
            "kind": "\u00fat",
            "post_code": 0
        },
        {
            "name": "R\u00e1koczi Ferenc",
            "kind": "\u00fat",
            "post_code": 0
        },
        {
            "name": "R\u00f3zsa",
            "kind": "\u00fat",
            "post_code": 0
        },
        {
            "name": "Saj\u00f3",
            "kind": "\u00fat",
            "post_code": 0
        },
        {
            "name": "Sarolta",
            "kind": "\u00fat",
            "post_code": 0
        },
        {
            "name": "S\u00e9t\u00e1l\u00f3",
            "kind": "\u00fat",
            "post_code": 0
        },
        {
            "name": "Sulymosh\u00e1t",
            "kind": "\u00fat",
            "post_code": 0
        },
        {
            "name": "Szabads\u00e1g",
            "kind": "\u00fat",
            "post_code": 0
        },
        {
            "name": "Sz\u00e9chenyi",
            "kind": "\u00fat",
            "post_code": 0
        },
        {
            "name": "Szederk\u00e9nyi",
            "kind": "\u00fat",
            "post_code": 0
        },
        {
            "name": "Szederk\u00e9nyi \u00fati k\u00f6rforgalom",
            "kind": "",
            "post_code": 0
        },
        {
            "name": "Szemere Bertalan",
            "kind": "utca",
            "post_code": 0
        },
        {
            "name": "Szent Istv\u00e1n",
            "kind": "\u00fat",
            "post_code": 0
        },
        {
            "name": "Szent Istv\u00e1n \u00fati k\u00f6rforgalom",
            "kind": "",
            "post_code": 0
        },
        {
            "name": "Szent L\u00e1szl\u00f3",
            "kind": "\u00fat",
            "post_code": 0
        },
        {
            "name": "T\u00e1ncsics Mih\u00e1ly",
            "kind": "\u00fat",
            "post_code": 0
        },
        {
            "name": "T\u00e1rnok",
            "kind": "\u00fat",
            "post_code": 0
        },
        {
            "name": "Teleki Blanka",
            "kind": "\u00fat",
            "post_code": 0
        },
        {
            "name": "Templom",
            "kind": "\u00fat",
            "post_code": 0
        },
        {
            "name": "Tisza",
            "kind": "\u00fat",
            "post_code": 0
        },
        {
            "name": "Tisza\u00fati",
            "kind": "tanya",
            "post_code": 0
        },
        {
            "name": "Tiszavir\u00e1g",
            "kind": "utca",
            "post_code": 0
        },
        {
            "name": "Tompa Mih\u00e1ly",
            "kind": "\u00fat",
            "post_code": 0
        },
        {
            "name": "T\u00f3th \u00c1rp\u00e1d",
            "kind": "utca",
            "post_code": 0
        },
        {
            "name": "T\u0171zolt\u00f3",
            "kind": "\u00fat",
            "post_code": 0
        },
        {
            "name": "U1",
            "kind": "",
            "post_code": 0
        },
        {
            "name": "U2",
            "kind": "",
            "post_code": 0
        },
        {
            "name": "U3",
            "kind": "",
            "post_code": 0
        },
        {
            "name": "U4",
            "kind": "",
            "post_code": 0
        },
        {
            "name": "U5",
            "kind": "",
            "post_code": 0
        },
        {
            "name": "Vasv\u00e1ri P\u00e1l",
            "kind": "\u00fat",
            "post_code": 0
        },
        {
            "name": "Vegy\u00e9szek",
            "kind": "\u00fatja",
            "post_code": 0
        },
        {
            "name": "Vereb\u00e9ly L\u00e1szl\u00f3",
            "kind": "utca",
            "post_code": 0
        },
        {
            "name": "V\u00f6r\u00f6smarty",
            "kind": "\u00fat",
            "post_code": 0
        },
        {
            "name": "Zagyvai B\u00e9la",
            "kind": "\u00fat",
            "post_code": 0
        },
        {
            "name": "Zita",
            "kind": "\u00fat",
            "post_code": 0
        },
        {
            "name": "Zr\u00ednyi Mikl\u00f3s",
            "kind": "\u00fat",
            "post_code": 0
        },
        {
            "name": "V\u00e1rosh\u00e1zt\u00e9r",
            "kind": "",
            "post_code": 0
        }
    ]
}