{
    "codes": {
        "5350": [
            "Tiszaf\u00fcred",
            " "
        ],
        "5358": [
            "Tiszaf\u00fcred",
            "Tisza\u00f6rv\u00e9ny"
        ],
        "5359": [
            "Tiszaf\u00fcred",
            "K\u00f3cs\u00fajfalu"
        ]
    },
    "streets": [
        {
            "name": "300 m",
            "kind": "",
            "post_code": 0
        },
        {
            "name": "400 m",
            "kind": "",
            "post_code": 0
        },
        {
            "name": "Ady Endre",
            "kind": "utca",
            "post_code": 0
        },
        {
            "name": "Ak\u00e1cfa",
            "kind": "utca",
            "post_code": 0
        },
        {
            "name": "Aradi",
            "kind": "\u00fat",
            "post_code": 0
        },
        {
            "name": "Aradi v\u00e9rtan\u00fak",
            "kind": "\u00fatja",
            "post_code": 0
        },
        {
            "name": "Arany J\u00e1nos",
            "kind": "\u00fat",
            "post_code": 0
        },
        {
            "name": "\u00c1rp\u00e1d",
            "kind": "utca",
            "post_code": 0
        },
        {
            "name": "\u00c1rt\u00e9ri",
            "kind": "\u00fat",
            "post_code": 0
        },
        {
            "name": "Bajcsy-Zsilinszky",
            "kind": "utca",
            "post_code": 0
        },
        {
            "name": "Balogh",
            "kind": "\u00fat",
            "post_code": 0
        },
        {
            "name": "B\u00e1n Zsigmond",
            "kind": "utca",
            "post_code": 0
        },
        {
            "name": "Bart\u00f3k B\u00e9la",
            "kind": "utca",
            "post_code": 0
        },
        {
            "name": "B\u00e9ke",
            "kind": "\u00fat",
            "post_code": 0
        },
        {
            "name": "Bels\u0151fokpart",
            "kind": "\u00fat",
            "post_code": 0
        },
        {
            "name": "Bels\u0151fokpart",
            "kind": "utca",
            "post_code": 0
        },
        {
            "name": "Bels\u0151kertsor",
            "kind": "utca",
            "post_code": 0
        },
        {
            "name": "Bern\u00e1th",
            "kind": "utca",
            "post_code": 0
        },
        {
            "name": "Beton csatorna",
            "kind": "",
            "post_code": 0
        },
        {
            "name": "Bors\u00f3kert",
            "kind": "utca",
            "post_code": 0
        },
        {
            "name": "Budai S\u00e1ndor",
            "kind": "utca",
            "post_code": 0
        },
        {
            "name": "Butella",
            "kind": "utca",
            "post_code": 0
        },
        {
            "name": "B\u00fazavir\u00e1g",
            "kind": "utca",
            "post_code": 0
        },
        {
            "name": "canopy",
            "kind": "",
            "post_code": 0
        },
        {
            "name": "Csaba",
            "kind": "\u00fat",
            "post_code": 0
        },
        {
            "name": "Csap",
            "kind": "utca",
            "post_code": 0
        },
        {
            "name": "Csatl\u00f3s",
            "kind": "utca",
            "post_code": 0
        },
        {
            "name": "Csillag",
            "kind": "utca",
            "post_code": 0
        },
        {
            "name": "Csokonai",
            "kind": "\u00fat",
            "post_code": 0
        },
        {
            "name": "Csuka",
            "kind": "\u00fat",
            "post_code": 0
        },
        {
            "name": "Damjanich",
            "kind": "utca",
            "post_code": 0
        },
        {
            "name": "Debreceni",
            "kind": "\u00fat",
            "post_code": 0
        },
        {
            "name": "D\u00e9lib\u00e1b",
            "kind": "utca",
            "post_code": 0
        },
        {
            "name": "D\u00e9v\u00e9r",
            "kind": "\u00fat",
            "post_code": 0
        },
        {
            "name": "Di\u00f3fa",
            "kind": "utca",
            "post_code": 0
        },
        {
            "name": "Dob\u00f3",
            "kind": "utca",
            "post_code": 0
        },
        {
            "name": "Domah\u00e1zi",
            "kind": "\u00fat",
            "post_code": 0
        },
        {
            "name": "D\u00f3zsa Gy\u00f6rgy",
            "kind": "utca",
            "post_code": 0
        },
        {
            "name": "Eper",
            "kind": "utca",
            "post_code": 0
        },
        {
            "name": "Erd\u0151sor",
            "kind": "\u00fat",
            "post_code": 0
        },
        {
            "name": "Esze Tam\u00e1s",
            "kind": "utca",
            "post_code": 0
        },
        {
            "name": "EURO-VELO 11.",
            "kind": "",
            "post_code": 0
        },
        {
            "name": "Fels\u0151buda",
            "kind": "utca",
            "post_code": 0
        },
        {
            "name": "F\u00e9szek lombkorona tan\u00f6sv\u00e9ny",
            "kind": "",
            "post_code": 0
        },
        {
            "name": "Feszty \u00c1rp\u00e1d",
            "kind": "utca",
            "post_code": 0
        },
        {
            "name": "F\u0151",
            "kind": "utca",
            "post_code": 0
        },
        {
            "name": "F\u00fcrd\u0151",
            "kind": "utca",
            "post_code": 0
        },
        {
            "name": "F\u00fcredi",
            "kind": "\u00fat",
            "post_code": 0
        },
        {
            "name": "F\u00fcstdomb",
            "kind": "utca",
            "post_code": 0
        },
        {
            "name": "F\u00fcstifecske",
            "kind": "k\u00f6z",
            "post_code": 0
        },
        {
            "name": "G\u00e1bor \u00c1ron",
            "kind": "\u00fat",
            "post_code": 0
        },
        {
            "name": "G\u00e1rdonyi",
            "kind": "utca",
            "post_code": 0
        },
        {
            "name": "Gerle",
            "kind": "k\u00f6z",
            "post_code": 0
        },
        {
            "name": "Geszteny\u00e9s",
            "kind": "\u00fat",
            "post_code": 0
        },
        {
            "name": "G\u00f6rbe",
            "kind": "utca",
            "post_code": 0
        },
        {
            "name": "Gy\u00e1rtelepi",
            "kind": "\u00fat",
            "post_code": 0
        },
        {
            "name": "Gy\u00f6ngyvir\u00e1g",
            "kind": "utca",
            "post_code": 0
        },
        {
            "name": "Hajnal",
            "kind": "k\u00f6z",
            "post_code": 0
        },
        {
            "name": "H\u00e1m\u00e1n Kat\u00f3",
            "kind": "utca",
            "post_code": 0
        },
        {
            "name": "Harcsa",
            "kind": "\u00fat",
            "post_code": 0
        },
        {
            "name": "H\u00e1rsfa",
            "kind": "utca",
            "post_code": 0
        },
        {
            "name": "Hat\u00e1r",
            "kind": "utca",
            "post_code": 0
        },
        {
            "name": "Hatty\u00fa",
            "kind": "utca",
            "post_code": 0
        },
        {
            "name": "H\u00f3d tan\u00f6sv\u00e9ny \u00e9s pall\u00f3\u00fat",
            "kind": "",
            "post_code": 0
        },
        {
            "name": "Hold",
            "kind": "utca",
            "post_code": 0
        },
        {
            "name": "Horog",
            "kind": "utca",
            "post_code": 0
        },
        {
            "name": "Hunyadi",
            "kind": "utca",
            "post_code": 0
        },
        {
            "name": "H\u00fasz\u00f6les",
            "kind": "\u00fat",
            "post_code": 0
        },
        {
            "name": "Ifj\u00fas\u00e1g",
            "kind": "\u00fat",
            "post_code": 0
        },
        {
            "name": "Igari",
            "kind": "\u00fat",
            "post_code": 0
        },
        {
            "name": "Iskola",
            "kind": "\u00fat",
            "post_code": 0
        },
        {
            "name": "Janafoki",
            "kind": "\u00fat",
            "post_code": 0
        },
        {
            "name": "J\u00f3kai",
            "kind": "utca",
            "post_code": 0
        },
        {
            "name": "J\u00f3zsa",
            "kind": "utca",
            "post_code": 0
        },
        {
            "name": "J\u00f3zsef Attila",
            "kind": "utca",
            "post_code": 0
        },
        {
            "name": "Kakukk",
            "kind": "utca",
            "post_code": 0
        },
        {
            "name": "Kamilla",
            "kind": "utca",
            "post_code": 0
        },
        {
            "name": "Kand\u00f3",
            "kind": "k\u00f6z",
            "post_code": 0
        },
        {
            "name": "K\u00e1ntorv\u00e1r",
            "kind": "utca",
            "post_code": 0
        },
        {
            "name": "K\u00e1r\u00e1sz",
            "kind": "\u00fat",
            "post_code": 0
        },
        {
            "name": "Kasfon\u00f3",
            "kind": "\u00fat",
            "post_code": 0
        },
        {
            "name": "Kast\u00e9ly",
            "kind": "\u00fat",
            "post_code": 0
        },
        {
            "name": "Katalin",
            "kind": "\u00fat",
            "post_code": 0
        },
        {
            "name": "Katona J\u00f3zsef",
            "kind": "\u00fat",
            "post_code": 0
        },
        {
            "name": "Keleti",
            "kind": "\u00fat",
            "post_code": 0
        },
        {
            "name": "Kert\u00e9sz",
            "kind": "utca",
            "post_code": 0
        },
        {
            "name": "Kik\u00f6t\u0151",
            "kind": "k\u00f6r\u00fat",
            "post_code": 0
        },
        {
            "name": "Kinizsi",
            "kind": "utca",
            "post_code": 0
        },
        {
            "name": "Kis P\u00e1l",
            "kind": "\u00fat",
            "post_code": 0
        },
        {
            "name": "Kistisza",
            "kind": "\u00fat",
            "post_code": 0
        },
        {
            "name": "Kis-Zug",
            "kind": "utca",
            "post_code": 0
        },
        {
            "name": "K\u00f6ny\u00f6k",
            "kind": "utca",
            "post_code": 0
        },
        {
            "name": "Kornyiksz\u0151l\u0151",
            "kind": "utca",
            "post_code": 0
        },
        {
            "name": "Kossuth Lajos",
            "kind": "utca",
            "post_code": 0
        },
        {
            "name": "k\u00f6t\u00e9lp\u00e1lya, gyerek halad\u00f3",
            "kind": "",
            "post_code": 0
        },
        {
            "name": "k\u00f6t\u00e9lp\u00e1lya, gyerek kezd\u0151",
            "kind": "",
            "post_code": 0
        },
        {
            "name": "k\u00f6t\u00e9lp\u00e1lya, halad\u00f3 extr\u00e9m",
            "kind": "",
            "post_code": 0
        },
        {
            "name": "k\u00f6t\u00e9lp\u00e1lya, kezd\u0151-k\u00f6z\u00e9phalad\u00f3",
            "kind": "",
            "post_code": 0
        },
        {
            "name": "Kr\u00fady Gyula",
            "kind": "\u00fat",
            "post_code": 0
        },
        {
            "name": "K\u00fcls\u0151fokpart",
            "kind": "\u00fat",
            "post_code": 0
        },
        {
            "name": "K\u00fcls\u0151kertsor",
            "kind": "utca",
            "post_code": 0
        },
        {
            "name": "Lehel",
            "kind": "utca",
            "post_code": 0
        },
        {
            "name": "Lejt\u0151s",
            "kind": "k\u00f6z",
            "post_code": 0
        },
        {
            "name": "Liget",
            "kind": "utca",
            "post_code": 0
        },
        {
            "name": "Liliom",
            "kind": "utca",
            "post_code": 0
        },
        {
            "name": "Liszt Ferenc",
            "kind": "utca",
            "post_code": 0
        },
        {
            "name": "Mad\u00e1ch Imre",
            "kind": "utca",
            "post_code": 0
        },
        {
            "name": "M\u00e1k",
            "kind": "utca",
            "post_code": 0
        },
        {
            "name": "Malom",
            "kind": "utca",
            "post_code": 0
        },
        {
            "name": "M\u00e1rt\u00edrok",
            "kind": "\u00fatja",
            "post_code": 0
        },
        {
            "name": "Moh\u00e1ri",
            "kind": "utca",
            "post_code": 0
        },
        {
            "name": "M\u00f3r\u00e9",
            "kind": "\u00fat",
            "post_code": 0
        },
        {
            "name": "Morg\u00f3",
            "kind": "utca",
            "post_code": 0
        },
        {
            "name": "M\u00f3ricz Zsigmond",
            "kind": "utca",
            "post_code": 0
        },
        {
            "name": "Morotva",
            "kind": "\u00fat",
            "post_code": 0
        },
        {
            "name": "Morotva",
            "kind": "utca",
            "post_code": 0
        },
        {
            "name": "Muhi",
            "kind": "\u00fat",
            "post_code": 0
        },
        {
            "name": "Munk\u00e1csy",
            "kind": "utca",
            "post_code": 0
        },
        {
            "name": "Napraforg\u00f3",
            "kind": "utca",
            "post_code": 0
        },
        {
            "name": "Nefelejcs",
            "kind": "\u00fat",
            "post_code": 0
        },
        {
            "name": "Nefelejcs",
            "kind": "utca",
            "post_code": 0
        },
        {
            "name": "Ny\u00e1rf\u00e1s",
            "kind": "utca",
            "post_code": 0
        },
        {
            "name": "Nyergesek",
            "kind": "utc\u00e1ja",
            "post_code": 0
        },
        {
            "name": "Nyulas Sz\u0151l\u0151",
            "kind": "\u00fat",
            "post_code": 0
        },
        {
            "name": "Ny\u00fal",
            "kind": "utca",
            "post_code": 0
        },
        {
            "name": "\u00d3buda",
            "kind": "utca",
            "post_code": 0
        },
        {
            "name": "\u00d6k\u00f6rszem",
            "kind": "\u00fat",
            "post_code": 0
        },
        {
            "name": "Orgona",
            "kind": "\u00fat",
            "post_code": 0
        },
        {
            "name": "\u0150rhalom",
            "kind": "utca",
            "post_code": 0
        },
        {
            "name": "\u00d6rv\u00e9nyi",
            "kind": "\u00fat",
            "post_code": 0
        },
        {
            "name": "\u00d6sszek\u00f6t\u0151",
            "kind": "\u00fat",
            "post_code": 0
        },
        {
            "name": "\u0150z",
            "kind": "utca",
            "post_code": 0
        },
        {
            "name": "Pacsirta",
            "kind": "utca",
            "post_code": 0
        },
        {
            "name": "P\u00e9k",
            "kind": "utca",
            "post_code": 0
        },
        {
            "name": "Pet\u0151fi S\u00e1ndor",
            "kind": "utca",
            "post_code": 0
        },
        {
            "name": "Piac",
            "kind": "t\u00e9r",
            "post_code": 0
        },
        {
            "name": "Poroszl\u00f3i",
            "kind": "\u00fat",
            "post_code": 0
        },
        {
            "name": "Potyka",
            "kind": "\u00fat",
            "post_code": 0
        },
        {
            "name": "R\u00e1k\u00f3czi",
            "kind": "\u00fat",
            "post_code": 0
        },
        {
            "name": "Rem\u00e9nyi",
            "kind": "\u00fat",
            "post_code": 0
        },
        {
            "name": "R\u00e9t",
            "kind": "\u00fat",
            "post_code": 0
        },
        {
            "name": "R\u00f3k\u00e1s sz\u0151l\u0151",
            "kind": "utca",
            "post_code": 0
        },
        {
            "name": "R\u00f3zsadomb",
            "kind": "utca",
            "post_code": 0
        },
        {
            "name": "R\u00f3zsa",
            "kind": "k\u00f6z",
            "post_code": 0
        },
        {
            "name": "R\u00f3zsa",
            "kind": "utca",
            "post_code": 0
        },
        {
            "name": "Sallai",
            "kind": "utca",
            "post_code": 0
        },
        {
            "name": "S\u00e1rgarig\u00f3",
            "kind": "\u00fat",
            "post_code": 0
        },
        {
            "name": "Sarl\u00f3",
            "kind": "utca",
            "post_code": 0
        },
        {
            "name": "Semmelweis",
            "kind": "\u00fat",
            "post_code": 0
        },
        {
            "name": "Sir\u00e1ly",
            "kind": "k\u00f6z",
            "post_code": 0
        },
        {
            "name": "S\u00fcll\u0151",
            "kind": "\u00fat",
            "post_code": 0
        },
        {
            "name": "Szabads\u00e1g",
            "kind": "utca",
            "post_code": 0
        },
        {
            "name": "Sz\u00e1rcsa",
            "kind": "k\u00f6z",
            "post_code": 0
        },
        {
            "name": "Sz\u00e9chenyi",
            "kind": "kert",
            "post_code": 0
        },
        {
            "name": "Szeretet",
            "kind": "\u00fat",
            "post_code": 0
        },
        {
            "name": "Szilva",
            "kind": "utca",
            "post_code": 0
        },
        {
            "name": "Sz\u0151l\u0151si",
            "kind": "\u00fat",
            "post_code": 0
        },
        {
            "name": "Sz\u0151l\u0151",
            "kind": "utca",
            "post_code": 0
        },
        {
            "name": "Takar\u00f3",
            "kind": "k\u00f6z",
            "post_code": 0
        },
        {
            "name": "Takar\u00f3",
            "kind": "utca",
            "post_code": 0
        },
        {
            "name": "T\u00e1ncsics Mih\u00e1ly",
            "kind": "\u00fat",
            "post_code": 0
        },
        {
            "name": "Tariczky",
            "kind": "s\u00e9t\u00e1ny",
            "post_code": 0
        },
        {
            "name": "T\u00e9gl\u00e1s",
            "kind": "utca",
            "post_code": 0
        },
        {
            "name": "Temet\u0151",
            "kind": "utca",
            "post_code": 0
        },
        {
            "name": "Tiszaikertsor",
            "kind": "\u00fat",
            "post_code": 0
        },
        {
            "name": "Tisza",
            "kind": "\u00fat",
            "post_code": 0
        },
        {
            "name": "Toldi Mikl\u00f3s",
            "kind": "utca",
            "post_code": 0
        },
        {
            "name": "T\u00f6lgyes",
            "kind": "\u00fat",
            "post_code": 0
        },
        {
            "name": "\u00datt\u00f6r\u0151",
            "kind": "utca",
            "post_code": 0
        },
        {
            "name": "V\u00e1ci Mih\u00e1ly",
            "kind": "\u00fat",
            "post_code": 0
        },
        {
            "name": "Vad\u00e1sz",
            "kind": "utca",
            "post_code": 0
        },
        {
            "name": "V\u00e1g\u00f3h\u00edd",
            "kind": "utca",
            "post_code": 0
        },
        {
            "name": "Vajgy\u00e1r",
            "kind": "utca",
            "post_code": 0
        },
        {
            "name": "V\u00e1roskert",
            "kind": "\u00fat",
            "post_code": 0
        },
        {
            "name": "V\u00e1s\u00e1rhelyi P\u00e1l",
            "kind": "utca",
            "post_code": 0
        },
        {
            "name": "Vas\u00fat",
            "kind": "utca",
            "post_code": 0
        },
        {
            "name": "Z\u00f6ldike",
            "kind": "k\u00f6z",
            "post_code": 0
        },
        {
            "name": "Zr\u00ednyi Mikl\u00f3s",
            "kind": "utca",
            "post_code": 0
        },
        {
            "name": "Zug",
            "kind": "utca",
            "post_code": 0
        }
    ]
}