{
    "codes": {
        "3910": [
            "Tokaj",
            null
        ]
    },
    "streets": [
        {
            "name": "Ady Endre",
            "kind": "utca",
            "post_code": 0
        },
        {
            "name": "Aranyosi",
            "kind": "utca",
            "post_code": 0
        },
        {
            "name": "\u00c1rp\u00e1d",
            "kind": "utca",
            "post_code": 0
        },
        {
            "name": "Bajcsy-Zsilinszky Endre",
            "kind": "\u00fat",
            "post_code": 0
        },
        {
            "name": "B\u00e1r\u00f3 Hirsch",
            "kind": "utca",
            "post_code": 0
        },
        {
            "name": "Baross G\u00e1bor",
            "kind": "utca",
            "post_code": 0
        },
        {
            "name": "Bart\u00f3k B\u00e9la",
            "kind": "utca",
            "post_code": 0
        },
        {
            "name": "B\u00e1thory",
            "kind": "utca",
            "post_code": 0
        },
        {
            "name": "Bem J\u00f3zsef",
            "kind": "utca",
            "post_code": 0
        },
        {
            "name": "Benedek P\u00e1l",
            "kind": "utca",
            "post_code": 0
        },
        {
            "name": "Bethlen G\u00e1bor",
            "kind": "utca",
            "post_code": 0
        },
        {
            "name": "Bocskai",
            "kind": "utca",
            "post_code": 0
        },
        {
            "name": "Bodn\u00e1r",
            "kind": "k\u00f6z",
            "post_code": 0
        },
        {
            "name": "Bodrogkereszt\u00fari",
            "kind": "\u00fat",
            "post_code": 0
        },
        {
            "name": "Bodrog",
            "kind": "utca",
            "post_code": 0
        },
        {
            "name": "Budai Nagy Antal",
            "kind": "utca",
            "post_code": 0
        },
        {
            "name": "Csalog\u00e1ny",
            "kind": "utca",
            "post_code": 0
        },
        {
            "name": "Csokonai",
            "kind": "utca",
            "post_code": 0
        },
        {
            "name": "Csurg\u00f3",
            "kind": "v\u00f6lgy",
            "post_code": 0
        },
        {
            "name": "De\u00e1k Ferenc",
            "kind": "utca",
            "post_code": 0
        },
        {
            "name": "Dienes",
            "kind": "utca",
            "post_code": 0
        },
        {
            "name": "Esze Tam\u00e1s",
            "kind": "utca",
            "post_code": 0
        },
        {
            "name": "G\u00f6nczi",
            "kind": "utca",
            "post_code": 0
        },
        {
            "name": "G\u00f6r\u00f6g",
            "kind": "utca",
            "post_code": 0
        },
        {
            "name": "Gr\u00f3f Apponyi Albert",
            "kind": "utca",
            "post_code": 0
        },
        {
            "name": "Gyepsz\u00e9l",
            "kind": "utca",
            "post_code": 0
        },
        {
            "name": "Hajd\u00fa",
            "kind": "k\u00f6z",
            "post_code": 0
        },
        {
            "name": "Hunyadi J\u00e1nos",
            "kind": "utca",
            "post_code": 0
        },
        {
            "name": "J\u00f3kai",
            "kind": "utca",
            "post_code": 0
        },
        {
            "name": "J\u00f3zsef Attila",
            "kind": "utca",
            "post_code": 0
        },
        {
            "name": "Kod\u00e1ly Zolt\u00e1n",
            "kind": "utca",
            "post_code": 0
        },
        {
            "name": "Kossuth",
            "kind": "t\u00e9r",
            "post_code": 0
        },
        {
            "name": "Lad\u00e1nyi",
            "kind": "utca",
            "post_code": 0
        },
        {
            "name": "Liget",
            "kind": "k\u00f6z",
            "post_code": 0
        },
        {
            "name": "Malom",
            "kind": "utca",
            "post_code": 0
        },
        {
            "name": "Mez\u0151",
            "kind": "utca",
            "post_code": 0
        },
        {
            "name": "Mosolyg\u00f3 J\u00f3zsef",
            "kind": "utca",
            "post_code": 0
        },
        {
            "name": "N\u00e9gyes",
            "kind": "utca",
            "post_code": 0
        },
        {
            "name": "N\u00e9meti Ferenc",
            "kind": "utca",
            "post_code": 0
        },
        {
            "name": "\u00d3v\u00e1r",
            "kind": "utca",
            "post_code": 0
        },
        {
            "name": "Pet\u0151fi S\u00e1ndor",
            "kind": "utca",
            "post_code": 0
        },
        {
            "name": "R\u00e1k\u00f3czi",
            "kind": "utca",
            "post_code": 0
        },
        {
            "name": "R\u00f3zsa k\u00f6z,",
            "kind": "",
            "post_code": 0
        },
        {
            "name": "Serh\u00e1z",
            "kind": "utca",
            "post_code": 0
        },
        {
            "name": "Szabads\u00e1g",
            "kind": "\u00fat",
            "post_code": 0
        },
        {
            "name": "Szepsi L\u00e1szl\u00f3",
            "kind": "utca",
            "post_code": 0
        },
        {
            "name": "Szerelmi picesor",
            "kind": "",
            "post_code": 0
        },
        {
            "name": "T\u00e1ncsics",
            "kind": "k\u00f6z",
            "post_code": 0
        },
        {
            "name": "T\u00e1ncsics",
            "kind": "utca",
            "post_code": 0
        },
        {
            "name": "Tarcali",
            "kind": "\u00fat",
            "post_code": 0
        },
        {
            "name": "Tenkes Tibor",
            "kind": "utca",
            "post_code": 0
        },
        {
            "name": "Terebes",
            "kind": "utca",
            "post_code": 0
        },
        {
            "name": "Tisza h\u00edd",
            "kind": "",
            "post_code": 0
        },
        {
            "name": "Tokaji Ferenc",
            "kind": "lak\u00f3telep",
            "post_code": 0
        },
        {
            "name": "Toldi",
            "kind": "utca",
            "post_code": 0
        },
        {
            "name": "T\u00f6lt\u00e9s",
            "kind": "k\u00f6z",
            "post_code": 0
        },
        {
            "name": "Tompa Mih\u00e1ly",
            "kind": "utca",
            "post_code": 0
        },
        {
            "name": "V\u00e1radi",
            "kind": "utca",
            "post_code": 0
        },
        {
            "name": "V\u00e1s\u00e1rt\u00e9r",
            "kind": "utca",
            "post_code": 0
        },
        {
            "name": "Vasv\u00e1ri P\u00e1l",
            "kind": "utca",
            "post_code": 0
        },
        {
            "name": "Verebes",
            "kind": "d\u0171l\u0151",
            "post_code": 0
        },
        {
            "name": "Zak\u00f3",
            "kind": "k\u00f6z",
            "post_code": 0
        }
    ]
}