{
    "codes": {
        "2253": [
            "T\u00e1pi\u00f3s\u00e1g",
            null
        ]
    },
    "streets": [
        {
            "name": "Ady Endre",
            "kind": "utca",
            "post_code": 0
        },
        {
            "name": "Arany J\u00e1nos",
            "kind": "utca",
            "post_code": 0
        },
        {
            "name": "Bart\u00f3k B\u00e9la",
            "kind": "utca",
            "post_code": 0
        },
        {
            "name": "Bicskei",
            "kind": "utca",
            "post_code": 0
        },
        {
            "name": "Cicahegy",
            "kind": "\u00fat",
            "post_code": 0
        },
        {
            "name": "D\u00f3zsa Gy\u00f6rgy",
            "kind": "utca",
            "post_code": 0
        },
        {
            "name": "Forg\u00e1cs Istv\u00e1n",
            "kind": "utca",
            "post_code": 0
        },
        {
            "name": "Forg\u00e1cs",
            "kind": "utca",
            "post_code": 0
        },
        {
            "name": "Fut\u00f3",
            "kind": "utca",
            "post_code": 0
        },
        {
            "name": "J\u00f3kai M\u00f3r",
            "kind": "utca",
            "post_code": 0
        },
        {
            "name": "J\u00f3zsef",
            "kind": "utca",
            "post_code": 0
        },
        {
            "name": "Kossuth Lajos",
            "kind": "utca",
            "post_code": 0
        },
        {
            "name": "M\u00e1rt\u00edrok",
            "kind": "\u00fat",
            "post_code": 0
        },
        {
            "name": "Mez\u0151",
            "kind": "utca",
            "post_code": 0
        },
        {
            "name": "M\u00f3ricz Zsigmond",
            "kind": "utca",
            "post_code": 0
        },
        {
            "name": "Nagy",
            "kind": "k\u00f6z",
            "post_code": 0
        },
        {
            "name": "Papp K\u00e1roly",
            "kind": "utca",
            "post_code": 0
        },
        {
            "name": "Pet\u0151fi S\u00e1ndor",
            "kind": "utca",
            "post_code": 0
        },
        {
            "name": "R\u00e1k\u00f3czi Ferenc",
            "kind": "utca",
            "post_code": 0
        },
        {
            "name": "S\u00f3\u00fat",
            "kind": "",
            "post_code": 0
        },
        {
            "name": "Szabads\u00e1g",
            "kind": "utca",
            "post_code": 0
        },
        {
            "name": "Szecs\u0151i",
            "kind": "\u00fat",
            "post_code": 0
        },
        {
            "name": "Szentm\u00e1rtonk\u00e1tai",
            "kind": "\u00fat",
            "post_code": 0
        },
        {
            "name": "Templom",
            "kind": "t\u00e9r",
            "post_code": 0
        },
        {
            "name": "T\u00f6r\u00f6k-h\u00edd",
            "kind": "",
            "post_code": 0
        },
        {
            "name": "\u00dari",
            "kind": "\u00fat",
            "post_code": 0
        },
        {
            "name": "Vadvir\u00e1g",
            "kind": "utca",
            "post_code": 0
        },
        {
            "name": "Zr\u00ednyi Mikl\u00f3s",
            "kind": "utca",
            "post_code": 0
        }
    ]
}