{
    "codes": {
        "8109": [
            "T\u00e9s",
            null
        ]
    },
    "streets": [
        {
            "name": "Arany J\u00e1nos",
            "kind": "utca",
            "post_code": 0
        },
        {
            "name": "Bakony",
            "kind": "utca",
            "post_code": 0
        },
        {
            "name": "Cs\u00e1k\u00e1nyos-v\u00f6lgy",
            "kind": "",
            "post_code": 0
        },
        {
            "name": "Csepeg\u0151-\u00e1rok",
            "kind": "",
            "post_code": 0
        },
        {
            "name": "Cs\u0151szpuszta",
            "kind": "",
            "post_code": 0
        },
        {
            "name": "D\u00f3zsa Gy\u00f6rgy",
            "kind": "utca",
            "post_code": 0
        },
        {
            "name": "felm\u00e9rend\u0151",
            "kind": "",
            "post_code": 0
        },
        {
            "name": "Hunyadi J\u00e1nos",
            "kind": "utca",
            "post_code": 0
        },
        {
            "name": "K\u00e9pesfa",
            "kind": "utca",
            "post_code": 0
        },
        {
            "name": "Kossuth Lajos",
            "kind": "utca",
            "post_code": 0
        },
        {
            "name": "nehezen j\u00e1rhat\u00f3",
            "kind": "",
            "post_code": 0
        },
        {
            "name": "Pet\u0151fi S\u00e1ndor",
            "kind": "utca",
            "post_code": 0
        },
        {
            "name": "R\u00e1k\u00f3czi Ferenc",
            "kind": "utca",
            "post_code": 0
        },
        {
            "name": "S\u00f6t\u00e9t-horog",
            "kind": "",
            "post_code": 0
        },
        {
            "name": "Szabads\u00e1g",
            "kind": "t\u00e9r",
            "post_code": 0
        },
        {
            "name": "T\u00e1ncsics Mih\u00e1ly",
            "kind": "utca",
            "post_code": 0
        },
        {
            "name": "Temet\u0151",
            "kind": "utca",
            "post_code": 0
        },
        {
            "name": "Tompa-v\u00f6lgy",
            "kind": "",
            "post_code": 0
        }
    ]
}