{
    "codes": {
        "9800": [
            "Vasv\u00e1r",
            null
        ]
    },
    "streets": [
        {
            "name": "\u00c1chim Andr\u00e1s",
            "kind": "utca",
            "post_code": 0
        },
        {
            "name": "Ady Endre",
            "kind": "utca",
            "post_code": 0
        },
        {
            "name": "Ak\u00e1cfa",
            "kind": "utca",
            "post_code": 0
        },
        {
            "name": "Alkotm\u00e1ny",
            "kind": "utca",
            "post_code": 0
        },
        {
            "name": "Als\u00f3\u00e1rokhegy",
            "kind": "utca",
            "post_code": 0
        },
        {
            "name": "Arany J\u00e1nos",
            "kind": "utca",
            "post_code": 0
        },
        {
            "name": "\u00c1rp\u00e1d",
            "kind": "t\u00e9r",
            "post_code": 0
        },
        {
            "name": "Barab\u00e1s Istv\u00e1n",
            "kind": "utca",
            "post_code": 0
        },
        {
            "name": "Bart\u00f3k B\u00e9la",
            "kind": "utca",
            "post_code": 0
        },
        {
            "name": "B\u00e9ke",
            "kind": "utca",
            "post_code": 0
        },
        {
            "name": "Bendefy L\u00e1szl\u00f3",
            "kind": "utca",
            "post_code": 0
        },
        {
            "name": "B\u00e9ri Balogh \u00c1d\u00e1m",
            "kind": "utca",
            "post_code": 0
        },
        {
            "name": "Budai Nagy Antal",
            "kind": "utca",
            "post_code": 0
        },
        {
            "name": "Buja",
            "kind": "",
            "post_code": 0
        },
        {
            "name": "Csokonai Vit\u00e9z Mih\u00e1ly",
            "kind": "utca",
            "post_code": 0
        },
        {
            "name": "Cs\u00f6rn\u00f6c",
            "kind": "\u00fat",
            "post_code": 0
        },
        {
            "name": "Derkovits Gyula",
            "kind": "utca",
            "post_code": 0
        },
        {
            "name": "D\u00f3zsa Gy\u00f6rgy",
            "kind": "utca",
            "post_code": 0
        },
        {
            "name": "Dr. Tretter L\u00e1szl\u00f3",
            "kind": "utca",
            "post_code": 0
        },
        {
            "name": "E\u00f6tv\u00f6s Lor\u00e1nd",
            "kind": "utca",
            "post_code": 0
        },
        {
            "name": "Esze Tam\u00e1s",
            "kind": "utca",
            "post_code": 0
        },
        {
            "name": "Fels\u0151\u00e1rokhegy",
            "kind": "utca",
            "post_code": 0
        },
        {
            "name": "F\u0151szolgab\u00edr\u00f3",
            "kind": "t\u00e9r",
            "post_code": 0
        },
        {
            "name": "F\u00fcrd\u0151",
            "kind": "utca",
            "post_code": 0
        },
        {
            "name": "Gersei",
            "kind": "utca",
            "post_code": 0
        },
        {
            "name": "Geszteny\u00e9shegyi",
            "kind": "\u00fat",
            "post_code": 0
        },
        {
            "name": "G\u00f3r\u00e9",
            "kind": "utca",
            "post_code": 0
        },
        {
            "name": "Gy\u00e1r",
            "kind": "utca",
            "post_code": 0
        },
        {
            "name": "Gy\u0151rv\u00e1ri",
            "kind": "utca",
            "post_code": 0
        },
        {
            "name": "H\u00e1rmashegy III.",
            "kind": "utca",
            "post_code": 0
        },
        {
            "name": "H\u00e1rmashegy II.",
            "kind": "utca",
            "post_code": 0
        },
        {
            "name": "H\u00e1rmashegy I.",
            "kind": "utca",
            "post_code": 0
        },
        {
            "name": "Hunyadi J\u00e1nos",
            "kind": "utca",
            "post_code": 0
        },
        {
            "name": "Ifj\u00fas\u00e1g",
            "kind": "utca",
            "post_code": 0
        },
        {
            "name": "J\u00e1rd\u00e1nyi professzor",
            "kind": "utca",
            "post_code": 0
        },
        {
            "name": "J\u00f3zsef Attila",
            "kind": "utca",
            "post_code": 0
        },
        {
            "name": "Katon\u00e1k",
            "kind": "\u00fatja",
            "post_code": 0
        },
        {
            "name": "Kisk\u00f6veshegy",
            "kind": "utca",
            "post_code": 0
        },
        {
            "name": "Kism\u00e1kfa",
            "kind": "utca",
            "post_code": 0
        },
        {
            "name": "K\u0151r\u00f6si Csoma S\u00e1ndor",
            "kind": "utca",
            "post_code": 0
        },
        {
            "name": "Kossuth Lajos",
            "kind": "utca",
            "post_code": 0
        },
        {
            "name": "K\u00f6zt\u00e1rsas\u00e1g",
            "kind": "t\u00e9r",
            "post_code": 0
        },
        {
            "name": "M\u00e1rcius 15.",
            "kind": "t\u00e9r",
            "post_code": 0
        },
        {
            "name": "M\u00e1rt\u00edrok",
            "kind": "\u00fatja",
            "post_code": 0
        },
        {
            "name": "Munk\u00e1csy Mih\u00e1ly",
            "kind": "utca",
            "post_code": 0
        },
        {
            "name": "Nagyk\u00f6veshegy",
            "kind": "utca",
            "post_code": 0
        },
        {
            "name": "Nagym\u00e1kfa",
            "kind": "utca",
            "post_code": 0
        },
        {
            "name": "N\u00e9meth Antal",
            "kind": "utca",
            "post_code": 0
        },
        {
            "name": "P\u00e1csonyi",
            "kind": "utca",
            "post_code": 0
        },
        {
            "name": "Papmalmi",
            "kind": "\u00fat",
            "post_code": 0
        },
        {
            "name": "P\u00e1sztor",
            "kind": "utca",
            "post_code": 0
        },
        {
            "name": "P\u00e9terfai",
            "kind": "utca",
            "post_code": 0
        },
        {
            "name": "Pet\u0151fi S\u00e1ndor",
            "kind": "utca",
            "post_code": 0
        },
        {
            "name": "Ragyog\u00f3",
            "kind": "utca",
            "post_code": 0
        },
        {
            "name": "R\u00e9gi 8-as",
            "kind": "f\u0151\u00fat",
            "post_code": 0
        },
        {
            "name": "R\u00f3mai Katon\u00e1k",
            "kind": "\u00fatja",
            "post_code": 0
        },
        {
            "name": "Semmelweis",
            "kind": "utca",
            "post_code": 0
        },
        {
            "name": "Szentmih\u00e1lyfalvi",
            "kind": "utca",
            "post_code": 0
        },
        {
            "name": "T\u00e1ncsics Mih\u00e1ly",
            "kind": "utca",
            "post_code": 0
        },
        {
            "name": "\u00dajlaki",
            "kind": "utca",
            "post_code": 0
        },
        {
            "name": "Vas\u00fati",
            "kind": "utca",
            "post_code": 0
        },
        {
            "name": "Vasv\u00e1ri P\u00e1l",
            "kind": "utca",
            "post_code": 0
        },
        {
            "name": "V\u00e9rmez\u0151",
            "kind": "utca",
            "post_code": 0
        },
        {
            "name": "v\u00edzmos\u00e1s",
            "kind": "",
            "post_code": 0
        },
        {
            "name": "V\u00f6r\u00f6smarty Mih\u00e1ly",
            "kind": "utca",
            "post_code": 0
        },
        {
            "name": "M\u00e1rcius 15.",
            "kind": "t\u00e9r",
            "post_code": 0
        }
    ]
}