{
    "codes": {
        "3351": [
            "Verpel\u00e9t",
            null
        ]
    },
    "streets": [
        {
            "name": "Ady Endre",
            "kind": "\u00fat",
            "post_code": 0
        },
        {
            "name": "Ak\u00e1cfa",
            "kind": "\u00fat",
            "post_code": 0
        },
        {
            "name": "Alkot\u00e1s",
            "kind": "\u00fat",
            "post_code": 0
        },
        {
            "name": "Arany J\u00e1nos",
            "kind": "\u00fat",
            "post_code": 0
        },
        {
            "name": "\u00c1rp\u00e1d",
            "kind": "\u00fat",
            "post_code": 0
        },
        {
            "name": "Bajcsy-Zsilinszky",
            "kind": "\u00fat",
            "post_code": 0
        },
        {
            "name": "Bart\u00f3k B\u00e9la",
            "kind": "\u00fat",
            "post_code": 0
        },
        {
            "name": "B\u00e9ke",
            "kind": "\u00fat",
            "post_code": 0
        },
        {
            "name": "Bem J\u00f3zsef",
            "kind": "\u00fat",
            "post_code": 0
        },
        {
            "name": "Bercs\u00e9nyi Mikl\u00f3s",
            "kind": "\u00fat",
            "post_code": 0
        },
        {
            "name": "Bezer\u00e9di Imre",
            "kind": "\u00fat",
            "post_code": 0
        },
        {
            "name": "Csokonai Vit\u00e9z Mih\u00e1ly",
            "kind": "\u00fat",
            "post_code": 0
        },
        {
            "name": "Dank\u00f3 Pista",
            "kind": "\u00fat",
            "post_code": 0
        },
        {
            "name": "De\u00e1k Ferenc",
            "kind": "\u00fat",
            "post_code": 0
        },
        {
            "name": "Dimitrov",
            "kind": "\u00fat",
            "post_code": 0
        },
        {
            "name": "Dob\u00f3",
            "kind": "\u00fat",
            "post_code": 0
        },
        {
            "name": "D\u00f3zsa Gy\u00f6rgy",
            "kind": "\u00fat",
            "post_code": 0
        },
        {
            "name": "G\u00e1rdonyi G\u00e9za",
            "kind": "\u00fat",
            "post_code": 0
        },
        {
            "name": "Gizella",
            "kind": "\u00fat",
            "post_code": 0
        },
        {
            "name": "Hegy",
            "kind": "\u00fat",
            "post_code": 0
        },
        {
            "name": "Honv\u00e9d",
            "kind": "\u00fat",
            "post_code": 0
        },
        {
            "name": "Ifj\u00fas\u00e1g",
            "kind": "\u00fat",
            "post_code": 0
        },
        {
            "name": "II. R\u00e1k\u00f3czi Ferenc",
            "kind": "\u00fat",
            "post_code": 0
        },
        {
            "name": "Kap\u00e1s",
            "kind": "\u00fat",
            "post_code": 0
        },
        {
            "name": "K\u00e1rolyi Mih\u00e1ly",
            "kind": "\u00fat",
            "post_code": 0
        },
        {
            "name": "Kast\u00e9ly",
            "kind": "utca",
            "post_code": 0
        },
        {
            "name": "Keletif\u00e9ny",
            "kind": "\u00fat",
            "post_code": 0
        },
        {
            "name": "Kisfaludy Ferenc",
            "kind": "\u00fat",
            "post_code": 0
        },
        {
            "name": "Kiss Ern\u0151",
            "kind": "\u00fat",
            "post_code": 0
        },
        {
            "name": "K\u00f6lcsey Ferenc",
            "kind": "\u00fat",
            "post_code": 0
        },
        {
            "name": "Kossuth Lajos",
            "kind": "\u00fat",
            "post_code": 0
        },
        {
            "name": "Lehel",
            "kind": "\u00fat",
            "post_code": 0
        },
        {
            "name": "Liget",
            "kind": "\u00fat",
            "post_code": 0
        },
        {
            "name": "Malom",
            "kind": "\u00fat",
            "post_code": 0
        },
        {
            "name": "Mez\u0151 Imre",
            "kind": "\u00fat",
            "post_code": 0
        },
        {
            "name": "Micsurin",
            "kind": "\u00fat",
            "post_code": 0
        },
        {
            "name": "Mikes Kelemen",
            "kind": "\u00fat",
            "post_code": 0
        },
        {
            "name": "Ny\u00e1r",
            "kind": "\u00fat",
            "post_code": 0
        },
        {
            "name": "Pet\u0151fi S\u00e1ndor",
            "kind": "\u00fat",
            "post_code": 0
        },
        {
            "name": "R\u00f3zsa",
            "kind": "\u00fat",
            "post_code": 0
        },
        {
            "name": "S\u00e1gv\u00e1ri Endre",
            "kind": "\u00fat",
            "post_code": 0
        },
        {
            "name": "Sallai Imre",
            "kind": "\u00fat",
            "post_code": 0
        },
        {
            "name": "Sport",
            "kind": "\u00fat",
            "post_code": 0
        },
        {
            "name": "Szabads\u00e1g",
            "kind": "t\u00e9r",
            "post_code": 0
        },
        {
            "name": "Sz\u00e9chenyi Istv\u00e1n",
            "kind": "\u00fat",
            "post_code": 0
        },
        {
            "name": "T\u00e1ncsics Mih\u00e1ly",
            "kind": "\u00fat",
            "post_code": 0
        },
        {
            "name": "Templom",
            "kind": "\u00fat",
            "post_code": 0
        },
        {
            "name": "Toldi Mikl\u00f3s",
            "kind": "\u00fat",
            "post_code": 0
        },
        {
            "name": "T\u0171zolt\u00f3",
            "kind": "\u00fat",
            "post_code": 0
        },
        {
            "name": "Vad\u00e1sz",
            "kind": "\u00fat",
            "post_code": 0
        },
        {
            "name": "Vas",
            "kind": "\u00fat",
            "post_code": 0
        },
        {
            "name": "Verpel\u00e9t",
            "kind": "",
            "post_code": 0
        },
        {
            "name": "V\u00f6r\u00f6smarty Mih\u00e1ly",
            "kind": "\u00fat",
            "post_code": 0
        },
        {
            "name": "Zr\u00ednyi Mikl\u00f3s",
            "kind": "\u00fat",
            "post_code": 0
        }
    ]
}