{
    "codes": {
        "3293": [
            "Visznek",
            null
        ]
    },
    "streets": [
        {
            "name": "Alkotm\u00e1ny",
            "kind": "utca",
            "post_code": 0
        },
        {
            "name": "Bart\u00f3k B\u00e9la",
            "kind": "utca",
            "post_code": 0
        },
        {
            "name": "Dob\u00f3 Katica",
            "kind": "utca",
            "post_code": 0
        },
        {
            "name": "K\u00f6zt\u00e1rsas\u00e1g",
            "kind": "utca",
            "post_code": 0
        },
        {
            "name": "M\u00e1rt\u00edrok",
            "kind": "\u00fatja",
            "post_code": 0
        },
        {
            "name": "Nefelejcs",
            "kind": "\u00fat",
            "post_code": 0
        },
        {
            "name": "Pet\u0151fi S\u00e1ndor",
            "kind": "utca",
            "post_code": 0
        },
        {
            "name": "R\u00e1k\u00f3czi Ferenc",
            "kind": "utca",
            "post_code": 0
        },
        {
            "name": "R\u00f3zsa",
            "kind": "\u00fat",
            "post_code": 0
        },
        {
            "name": "Szabads\u00e1g",
            "kind": "\u00fat",
            "post_code": 0
        },
        {
            "name": "Szondy G\u00f6rgy",
            "kind": "utca",
            "post_code": 0
        },
        {
            "name": "T\u00e1ncsics Mih\u00e1ly",
            "kind": "utca",
            "post_code": 0
        },
        {
            "name": "T\u00f3part",
            "kind": "\u00fat",
            "post_code": 0
        },
        {
            "name": "\u00dajvil\u00e1g",
            "kind": "utca",
            "post_code": 0
        },
        {
            "name": "Zr\u00ednyi Mikl\u00f3s",
            "kind": "utca",
            "post_code": 0
        }
    ]
}