{
    "codes": {
        "2163": [
            "V\u00e1cr\u00e1t\u00f3t",
            null
        ]
    },
    "streets": [
        {
            "name": "Ady Endre",
            "kind": "utca",
            "post_code": 0
        },
        {
            "name": "Alkotm\u00e1ny",
            "kind": "utca",
            "post_code": 0
        },
        {
            "name": "Arany J\u00e1nos",
            "kind": "utca",
            "post_code": 0
        },
        {
            "name": "\u00c1rp\u00e1d",
            "kind": "utca",
            "post_code": 0
        },
        {
            "name": "Bajcsy Zsilinszky",
            "kind": "utca",
            "post_code": 0
        },
        {
            "name": "B\u00e9ke",
            "kind": "utca",
            "post_code": 0
        },
        {
            "name": "Bem",
            "kind": "\u00fat",
            "post_code": 0
        },
        {
            "name": "Csokonai",
            "kind": "\u00fat",
            "post_code": 0
        },
        {
            "name": "D\u00e9r",
            "kind": "utca",
            "post_code": 0
        },
        {
            "name": "D\u00f3zsa Gy\u00f6rgy",
            "kind": "k\u00f6z",
            "post_code": 0
        },
        {
            "name": "D\u00f3zsa Gy\u00f6rgy",
            "kind": "utca",
            "post_code": 0
        },
        {
            "name": "Fekete Istv\u00e1n",
            "kind": "utca",
            "post_code": 0
        },
        {
            "name": "Fels\u0151r\u00e9ti",
            "kind": "\u00fat",
            "post_code": 0
        },
        {
            "name": "G\u00e1t",
            "kind": "\u00fat",
            "post_code": 0
        },
        {
            "name": "Harty\u00e1n",
            "kind": "\u00fat",
            "post_code": 0
        },
        {
            "name": "Hat\u00e1r",
            "kind": "\u00fat",
            "post_code": 0
        },
        {
            "name": "Hunyadi",
            "kind": "k\u00f6z",
            "post_code": 0
        },
        {
            "name": "Hunyadi",
            "kind": "\u00fat",
            "post_code": 0
        },
        {
            "name": "Ifj\u00fas\u00e1g",
            "kind": "t\u00e9r",
            "post_code": 0
        },
        {
            "name": "Ir\u00e1ny",
            "kind": "\u00fat",
            "post_code": 0
        },
        {
            "name": "Jegenye",
            "kind": "utca",
            "post_code": 0
        },
        {
            "name": "Katona J\u00f3zsef",
            "kind": "utca",
            "post_code": 0
        },
        {
            "name": "Kinizsi P\u00e1l",
            "kind": "utca",
            "post_code": 0
        },
        {
            "name": "Kossuth Lajos",
            "kind": "utca",
            "post_code": 0
        },
        {
            "name": "Malom",
            "kind": "utca",
            "post_code": 0
        },
        {
            "name": "Papk\u00fati tan\u00f6sv\u00e9ny",
            "kind": "",
            "post_code": 0
        },
        {
            "name": "Patak",
            "kind": "utca",
            "post_code": 0
        },
        {
            "name": "Pet\u0151fi S\u00e1ndor",
            "kind": "utca",
            "post_code": 0
        },
        {
            "name": "R\u00e1k\u00f3czi Ferenc",
            "kind": "utca",
            "post_code": 0
        },
        {
            "name": "S\u00e1gv\u00e1ri Endre",
            "kind": "utca",
            "post_code": 0
        },
        {
            "name": "Szabads\u00e1g",
            "kind": "utca",
            "post_code": 0
        },
        {
            "name": "Sz\u00e9chenyi",
            "kind": "\u00fat",
            "post_code": 0
        },
        {
            "name": "Szent Istv\u00e1n",
            "kind": "utca",
            "post_code": 0
        },
        {
            "name": "Szil\u00f3s",
            "kind": "\u00fat",
            "post_code": 0
        },
        {
            "name": "T\u00e1ncsics Mih\u00e1ly",
            "kind": "utca",
            "post_code": 0
        },
        {
            "name": "Temet\u0151",
            "kind": "k\u00f6z",
            "post_code": 0
        }
    ]
}