{
    "codes": {
        "2600": [
            "V\u00e1c",
            null
        ]
    },
    "streets": [
        {
            "name": "Ady Endre",
            "kind": "s\u00e9t\u00e1ny",
            "post_code": 0
        },
        {
            "name": "Aga",
            "kind": "k\u00f6z",
            "post_code": 0
        },
        {
            "name": "\u00c1g",
            "kind": "utca",
            "post_code": 0
        },
        {
            "name": "Ak\u00e1cfa",
            "kind": "utca",
            "post_code": 0
        },
        {
            "name": "Ak\u00f3",
            "kind": "utca",
            "post_code": 0
        },
        {
            "name": "Alig",
            "kind": "utca",
            "post_code": 0
        },
        {
            "name": "Als\u00f3",
            "kind": "sor",
            "post_code": 0
        },
        {
            "name": "Als\u00f3 T\u00f6r\u00f6khegy",
            "kind": "\u00fat",
            "post_code": 0
        },
        {
            "name": "Als\u00f3",
            "kind": "\u00fat",
            "post_code": 0
        },
        {
            "name": "Als\u00f3",
            "kind": "utca",
            "post_code": 0
        },
        {
            "name": "Alt\u00e1ny",
            "kind": "\u00fat",
            "post_code": 0
        },
        {
            "name": "Althann Mih\u00e1ly Frigyes",
            "kind": "utca",
            "post_code": 0
        },
        {
            "name": "Ambr\u00f3 Ferenc",
            "kind": "utca",
            "post_code": 0
        },
        {
            "name": "Amur",
            "kind": "utca",
            "post_code": 0
        },
        {
            "name": "Angyal",
            "kind": "utca",
            "post_code": 0
        },
        {
            "name": "Aranka",
            "kind": "utca",
            "post_code": 0
        },
        {
            "name": "Arany J\u00e1nos",
            "kind": "utca",
            "post_code": 0
        },
        {
            "name": "Arat\u00f3",
            "kind": "utca",
            "post_code": 0
        },
        {
            "name": "Argenti D\u00f6me",
            "kind": "t\u00e9r",
            "post_code": 0
        },
        {
            "name": "\u00c1rok",
            "kind": "sor",
            "post_code": 0
        },
        {
            "name": "Aroma",
            "kind": "utca",
            "post_code": 0
        },
        {
            "name": "\u00c1rp\u00e1d",
            "kind": "k\u00f6z",
            "post_code": 0
        },
        {
            "name": "\u00c1rp\u00e1d",
            "kind": "\u00fat",
            "post_code": 0
        },
        {
            "name": "\u00c1rpa",
            "kind": "utca",
            "post_code": 0
        },
        {
            "name": "\u00c1rt\u00e9ri tan\u00f6sv\u00e9ny",
            "kind": "",
            "post_code": 0
        },
        {
            "name": "\u00c1rv\u00e1cska",
            "kind": "utca",
            "post_code": 0
        },
        {
            "name": "Attila",
            "kind": "utca",
            "post_code": 0
        },
        {
            "name": "Avar",
            "kind": "utca",
            "post_code": 0
        },
        {
            "name": "Baba",
            "kind": "utca",
            "post_code": 0
        },
        {
            "name": "B\u00e1cska",
            "kind": "d\u0171l\u0151",
            "post_code": 0
        },
        {
            "name": "B\u00e1cska",
            "kind": "utca",
            "post_code": 0
        },
        {
            "name": "Bajcsy-Zsilinszky Endre",
            "kind": "utca",
            "post_code": 0
        },
        {
            "name": "Balassagyarmati",
            "kind": "\u00fat",
            "post_code": 0
        },
        {
            "name": "Balin",
            "kind": "utca",
            "post_code": 0
        },
        {
            "name": "B\u00e1n M\u00e1rton",
            "kind": "utca",
            "post_code": 0
        },
        {
            "name": "Barab\u00e1s Mikl\u00f3s",
            "kind": "utca",
            "post_code": 0
        },
        {
            "name": "B\u00e1rsonyvir\u00e1g",
            "kind": "utca",
            "post_code": 0
        },
        {
            "name": "Basa",
            "kind": "k\u00f6z",
            "post_code": 0
        },
        {
            "name": "B\u00e1thori",
            "kind": "utca",
            "post_code": 0
        },
        {
            "name": "Bauer Mih\u00e1ly",
            "kind": "utca",
            "post_code": 0
        },
        {
            "name": "B\u00e9g",
            "kind": "k\u00f6z",
            "post_code": 0
        },
        {
            "name": "Bej",
            "kind": "k\u00f6z",
            "post_code": 0
        },
        {
            "name": "B\u00e9ke",
            "kind": "t\u00e9r",
            "post_code": 0
        },
        {
            "name": "Belgakert",
            "kind": "utca",
            "post_code": 0
        },
        {
            "name": "Beniczky P\u00e9ter",
            "kind": "utca",
            "post_code": 0
        },
        {
            "name": "Ben\u0151tt, nehezen j\u00e1rhat\u00f3",
            "kind": "",
            "post_code": 0
        },
        {
            "name": "B\u00e9rczy K\u00e1roly",
            "kind": "utca",
            "post_code": 0
        },
        {
            "name": "Berkes Andr\u00e1s",
            "kind": "utca",
            "post_code": 0
        },
        {
            "name": "Bimb\u00f3",
            "kind": "utca",
            "post_code": 0
        },
        {
            "name": "Bocskai Istv\u00e1n",
            "kind": "t\u00e9r",
            "post_code": 0
        },
        {
            "name": "Bocskai",
            "kind": "utca",
            "post_code": 0
        },
        {
            "name": "Bocskor",
            "kind": "utca",
            "post_code": 0
        },
        {
            "name": "Bogl\u00e1rka",
            "kind": "utca",
            "post_code": 0
        },
        {
            "name": "Bogy\u00f3",
            "kind": "utca",
            "post_code": 0
        },
        {
            "name": "Bokor",
            "kind": "utca",
            "post_code": 0
        },
        {
            "name": "Bolg\u00e1r",
            "kind": "utca",
            "post_code": 0
        },
        {
            "name": "Bolyg\u00f3",
            "kind": "utca",
            "post_code": 0
        },
        {
            "name": "Bord\u00e9zsma",
            "kind": "utca",
            "post_code": 0
        },
        {
            "name": "Bors\u00f3",
            "kind": "utca",
            "post_code": 0
        },
        {
            "name": "Borvir\u00e1g",
            "kind": "utca",
            "post_code": 0
        },
        {
            "name": "Botond",
            "kind": "utca",
            "post_code": 0
        },
        {
            "name": "Botty\u00e1n",
            "kind": "utca",
            "post_code": 0
        },
        {
            "name": "Boz\u00f3t",
            "kind": "k\u00f6z",
            "post_code": 0
        },
        {
            "name": "Brodarics Istv\u00e1n",
            "kind": "\u00fat",
            "post_code": 0
        },
        {
            "name": "Budapesti",
            "kind": "f\u0151\u00fat",
            "post_code": 0
        },
        {
            "name": "B\u00fcf\u00e9",
            "kind": "utca",
            "post_code": 0
        },
        {
            "name": "Buki",
            "kind": "sor",
            "post_code": 0
        },
        {
            "name": "Bulcs\u00fa",
            "kind": "utca",
            "post_code": 0
        },
        {
            "name": "Burgundia",
            "kind": "utca",
            "post_code": 0
        },
        {
            "name": "B\u00faza",
            "kind": "utca",
            "post_code": 0
        },
        {
            "name": "B\u00fazavir\u00e1g",
            "kind": "utca",
            "post_code": 0
        },
        {
            "name": "Buzog\u00e1ny",
            "kind": "utca",
            "post_code": 0
        },
        {
            "name": "Ch\u00e1z\u00e1r Andr\u00e1s",
            "kind": "utca",
            "post_code": 0
        },
        {
            "name": "Cifra",
            "kind": "k\u00f6z",
            "post_code": 0
        },
        {
            "name": "Cindr\u00f3ka",
            "kind": "utca",
            "post_code": 0
        },
        {
            "name": "Cinege",
            "kind": "utca",
            "post_code": 0
        },
        {
            "name": "Cirok",
            "kind": "utca",
            "post_code": 0
        },
        {
            "name": "Csaba",
            "kind": "utca",
            "post_code": 0
        },
        {
            "name": "Cs\u00e1ng\u00f3",
            "kind": "utca",
            "post_code": 0
        },
        {
            "name": "Csatamez\u0151",
            "kind": "\u00fat",
            "post_code": 0
        },
        {
            "name": "Cs\u00e1volszky",
            "kind": "utca",
            "post_code": 0
        },
        {
            "name": "Csemete",
            "kind": "utca",
            "post_code": 0
        },
        {
            "name": "Cseng\u0151",
            "kind": "utca",
            "post_code": 0
        },
        {
            "name": "Cserh\u00e1t",
            "kind": "utca",
            "post_code": 0
        },
        {
            "name": "Cserje",
            "kind": "utca",
            "post_code": 0
        },
        {
            "name": "Csillag",
            "kind": "utca",
            "post_code": 0
        },
        {
            "name": "Csipk\u00e9s",
            "kind": "d\u0171l\u0151",
            "post_code": 0
        },
        {
            "name": "Cs\u00f6b\u00f6r",
            "kind": "utca",
            "post_code": 0
        },
        {
            "name": "Cs\u00f3k Istv\u00e1n",
            "kind": "utca",
            "post_code": 0
        },
        {
            "name": "Cs\u0151sz",
            "kind": "utca",
            "post_code": 0
        },
        {
            "name": "Csukatelep",
            "kind": "",
            "post_code": 0
        },
        {
            "name": "Csuka",
            "kind": "utca",
            "post_code": 0
        },
        {
            "name": "Cz\u00f3bel B\u00e9la",
            "kind": "utca",
            "post_code": 0
        },
        {
            "name": "Damjanich",
            "kind": "t\u00e9r",
            "post_code": 0
        },
        {
            "name": "Damjanich",
            "kind": "utca",
            "post_code": 0
        },
        {
            "name": "De\u00e1k Ferenc",
            "kind": "utca",
            "post_code": 0
        },
        {
            "name": "De\u00e1kv\u00e1ri",
            "kind": "fasor",
            "post_code": 0
        },
        {
            "name": "De\u00e1kv\u00e1ri",
            "kind": "f\u0151t\u00e9r",
            "post_code": 0
        },
        {
            "name": "De\u00e1kv\u00e1ri",
            "kind": "f\u0151\u00fat",
            "post_code": 0
        },
        {
            "name": "Degr\u00e9 Alajos",
            "kind": "utca",
            "post_code": 0
        },
        {
            "name": "D\u00e9lib\u00e1b",
            "kind": "utca",
            "post_code": 0
        },
        {
            "name": "D\u00e9li",
            "kind": "\u00fat",
            "post_code": 0
        },
        {
            "name": "Derecske",
            "kind": "d\u0171l\u0151",
            "post_code": 0
        },
        {
            "name": "Deres",
            "kind": "\u00fat",
            "post_code": 0
        },
        {
            "name": "Dervis",
            "kind": "k\u00f6z",
            "post_code": 0
        },
        {
            "name": "D\u00e9zsa",
            "kind": "utca",
            "post_code": 0
        },
        {
            "name": "D\u00e9zsma",
            "kind": "utca",
            "post_code": 0
        },
        {
            "name": "Diadal",
            "kind": "t\u00e9r",
            "post_code": 0
        },
        {
            "name": "Di\u00e1k",
            "kind": "k\u00f6z",
            "post_code": 0
        },
        {
            "name": "Di\u00e1k",
            "kind": "utca",
            "post_code": 0
        },
        {
            "name": "Di\u00f3fa",
            "kind": "utca",
            "post_code": 0
        },
        {
            "name": "Dolm\u00e1ny",
            "kind": "utca",
            "post_code": 0
        },
        {
            "name": "Dombay",
            "kind": "utca",
            "post_code": 0
        },
        {
            "name": "Domboldal",
            "kind": "k\u00f6z",
            "post_code": 0
        },
        {
            "name": "Domb",
            "kind": "utca",
            "post_code": 0
        },
        {
            "name": "Donga",
            "kind": "utca",
            "post_code": 0
        },
        {
            "name": "D\u00f3zsa Gy\u00f6rgy",
            "kind": "\u00fat",
            "post_code": 0
        },
        {
            "name": "Dr. Brusznyai \u00c1rp\u00e1d",
            "kind": "utca",
            "post_code": 0
        },
        {
            "name": "Dr. Cs\u00e1nyi L\u00e1szl\u00f3",
            "kind": "k\u00f6r\u00fat",
            "post_code": 0
        },
        {
            "name": "Duna",
            "kind": "utca",
            "post_code": 0
        },
        {
            "name": "Edison",
            "kind": "utca",
            "post_code": 0
        },
        {
            "name": "Egry J\u00f3zsef",
            "kind": "utca",
            "post_code": 0
        },
        {
            "name": "Egyh\u00e1zmege",
            "kind": "d\u0171l\u0151",
            "post_code": 0
        },
        {
            "name": "Eln\u00f6k",
            "kind": "utca",
            "post_code": 0
        },
        {
            "name": "E\u00f6tv\u00f6s",
            "kind": "utca",
            "post_code": 0
        },
        {
            "name": "Eperfa",
            "kind": "utca",
            "post_code": 0
        },
        {
            "name": "\u00c9p\u00edt\u0151k",
            "kind": "\u00fatja",
            "post_code": 0
        },
        {
            "name": "Erd\u0151",
            "kind": "sor",
            "post_code": 0
        },
        {
            "name": "Erzs\u00e9bet",
            "kind": "utca",
            "post_code": 0
        },
        {
            "name": "Esthajnal",
            "kind": "utca",
            "post_code": 0
        },
        {
            "name": "Est",
            "kind": "utca",
            "post_code": 0
        },
        {
            "name": "Eszterh\u00e1zy",
            "kind": "utca",
            "post_code": 0
        },
        {
            "name": "EuroVelo 6 ker\u00e9kp\u00e1r\u00fat",
            "kind": "",
            "post_code": 0
        },
        {
            "name": "F\u00e1c\u00e1n",
            "kind": "utca",
            "post_code": 0
        },
        {
            "name": "Farkasfalvi Imre",
            "kind": "utca",
            "post_code": 0
        },
        {
            "name": "Fecske",
            "kind": "utca",
            "post_code": 0
        },
        {
            "name": "Fekete K\u00e1roly",
            "kind": "utca",
            "post_code": 0
        },
        {
            "name": "Fekete",
            "kind": "utca",
            "post_code": 0
        },
        {
            "name": "F\u00e9lhold",
            "kind": "k\u00f6z",
            "post_code": 0
        },
        {
            "name": "Felh\u0151",
            "kind": "utca",
            "post_code": 0
        },
        {
            "name": "Fels\u0151csipk\u00e9s",
            "kind": "d\u0171l\u0151",
            "post_code": 0
        },
        {
            "name": "Fels\u0151 T\u00f6r\u00f6khegy",
            "kind": "\u00fat",
            "post_code": 0
        },
        {
            "name": "Fels\u0151zsobr\u00e1k",
            "kind": "d\u0171l\u0151",
            "post_code": 0
        },
        {
            "name": "F\u00e9nyes Adolf",
            "kind": "utca",
            "post_code": 0
        },
        {
            "name": "F\u00e9ny",
            "kind": "utca",
            "post_code": 0
        },
        {
            "name": "Ferenczy K\u00e1roly",
            "kind": "utca",
            "post_code": 0
        },
        {
            "name": "Fert\u00e1ly",
            "kind": "utca",
            "post_code": 0
        },
        {
            "name": "Fl\u00f3ri\u00e1n",
            "kind": "utca",
            "post_code": 0
        },
        {
            "name": "Fokos",
            "kind": "utca",
            "post_code": 0
        },
        {
            "name": "Fokt\u00f6vi J\u00e1nos",
            "kind": "utca",
            "post_code": 0
        },
        {
            "name": "F\u00f6ldv\u00e1ry",
            "kind": "t\u00e9r",
            "post_code": 0
        },
        {
            "name": "Fon\u00f3",
            "kind": "utca",
            "post_code": 0
        },
        {
            "name": "Frankus",
            "kind": "k\u00f6z",
            "post_code": 0
        },
        {
            "name": "Freisinger Lajos",
            "kind": "utca",
            "post_code": 0
        },
        {
            "name": "F\u00fcgg\u0151h\u00edd",
            "kind": "",
            "post_code": 0
        },
        {
            "name": "F\u00fclem\u00fcle",
            "kind": "utca",
            "post_code": 0
        },
        {
            "name": "F\u00fcrd\u0151",
            "kind": "utca",
            "post_code": 0
        },
        {
            "name": "F\u00fcredi Mih\u00e1ly",
            "kind": "utca",
            "post_code": 0
        },
        {
            "name": "F\u00fcrj",
            "kind": "utca",
            "post_code": 0
        },
        {
            "name": "F\u00fcrt",
            "kind": "utca",
            "post_code": 0
        },
        {
            "name": "F\u0171z",
            "kind": "utca",
            "post_code": 0
        },
        {
            "name": "Gabona",
            "kind": "utca",
            "post_code": 0
        },
        {
            "name": "Galamb",
            "kind": "k\u00f6z",
            "post_code": 0
        },
        {
            "name": "Galamb",
            "kind": "utca",
            "post_code": 0
        },
        {
            "name": "Galcsek",
            "kind": "utca",
            "post_code": 0
        },
        {
            "name": "Galsai Kov\u00e1ch Ern\u0151",
            "kind": "utca",
            "post_code": 0
        },
        {
            "name": "Garam",
            "kind": "utca",
            "post_code": 0
        },
        {
            "name": "Garda",
            "kind": "utca",
            "post_code": 0
        },
        {
            "name": "Gasparik K\u00e1zm\u00e9r",
            "kind": "utca",
            "post_code": 0
        },
        {
            "name": "Gazda",
            "kind": "k\u00f6z",
            "post_code": 0
        },
        {
            "name": "Gerle",
            "kind": "utca",
            "post_code": 0
        },
        {
            "name": "Gesztenyefa",
            "kind": "sor",
            "post_code": 0
        },
        {
            "name": "G\u00e9za kir\u00e1ly",
            "kind": "t\u00e9r",
            "post_code": 0
        },
        {
            "name": "G\u00f6d\u00f6ll\u0151i",
            "kind": "\u00fat",
            "post_code": 0
        },
        {
            "name": "Goh\u00e9r",
            "kind": "k\u00f6z",
            "post_code": 0
        },
        {
            "name": "G\u00f3lyah\u00edr",
            "kind": "utca",
            "post_code": 0
        },
        {
            "name": "Gomb\u00e1s",
            "kind": "d\u0171l\u0151",
            "post_code": 0
        },
        {
            "name": "Gomb\u00e1si",
            "kind": "\u00fat",
            "post_code": 0
        },
        {
            "name": "Gomb\u00e1s-patak h\u00eddja",
            "kind": "",
            "post_code": 0
        },
        {
            "name": "G\u00f6rgey Art\u00far",
            "kind": "utca",
            "post_code": 0
        },
        {
            "name": "G\u00f6r\u00f6g",
            "kind": "k\u00f6z",
            "post_code": 0
        },
        {
            "name": "G\u00f6tz K\u00e1roly Kereszt\u00e9ly",
            "kind": "utca",
            "post_code": 0
        },
        {
            "name": "G\u0151z\u00f6s",
            "kind": "utca",
            "post_code": 0
        },
        {
            "name": "Gyalogh\u00edd",
            "kind": "",
            "post_code": 0
        },
        {
            "name": "Gyepl\u0151",
            "kind": "utca",
            "post_code": 0
        },
        {
            "name": "Gyertya",
            "kind": "utca",
            "post_code": 0
        },
        {
            "name": "Gy\u00f6k\u00e9r",
            "kind": "utca",
            "post_code": 0
        },
        {
            "name": "Gy\u00f6ngyike",
            "kind": "utca",
            "post_code": 0
        },
        {
            "name": "Gy\u00f6ngyvir\u00e1g",
            "kind": "utca",
            "post_code": 0
        },
        {
            "name": "Gyurgyalag",
            "kind": "utca",
            "post_code": 0
        },
        {
            "name": "Hajl\u00e9k",
            "kind": "utca",
            "post_code": 0
        },
        {
            "name": "Hajnalka",
            "kind": "utca",
            "post_code": 0
        },
        {
            "name": "Hajnik P\u00e1l",
            "kind": "utca",
            "post_code": 0
        },
        {
            "name": "Hal\u00e1sz",
            "kind": "k\u00f6z",
            "post_code": 0
        },
        {
            "name": "Halfog\u00f3",
            "kind": "utca",
            "post_code": 0
        },
        {
            "name": "Hal",
            "kind": "k\u00f6z",
            "post_code": 0
        },
        {
            "name": "H\u00e1l\u00f3",
            "kind": "k\u00f6z",
            "post_code": 0
        },
        {
            "name": "H\u00e1m",
            "kind": "utca",
            "post_code": 0
        },
        {
            "name": "Hanusz",
            "kind": "utca",
            "post_code": 0
        },
        {
            "name": "Harang",
            "kind": "utca",
            "post_code": 0
        },
        {
            "name": "Harangvir\u00e1g",
            "kind": "utca",
            "post_code": 0
        },
        {
            "name": "Harcsa",
            "kind": "utca",
            "post_code": 0
        },
        {
            "name": "Hark\u00e1ly",
            "kind": "utca",
            "post_code": 0
        },
        {
            "name": "Harmincad",
            "kind": "k\u00f6z",
            "post_code": 0
        },
        {
            "name": "H\u00e1rsfa",
            "kind": "utca",
            "post_code": 0
        },
        {
            "name": "Hat\u00e1r",
            "kind": "utca",
            "post_code": 0
        },
        {
            "name": "Hatty\u00fa",
            "kind": "utca",
            "post_code": 0
        },
        {
            "name": "Hegyb\u00edr\u00f3",
            "kind": "utca",
            "post_code": 0
        },
        {
            "name": "Hegymester",
            "kind": "utca",
            "post_code": 0
        },
        {
            "name": "H\u00edrad\u00f3",
            "kind": "t\u00e9r",
            "post_code": 0
        },
        {
            "name": "Hold",
            "kind": "utca",
            "post_code": 0
        },
        {
            "name": "H\u00f3man B\u00e1lint",
            "kind": "\u00fat",
            "post_code": 0
        },
        {
            "name": "H\u00f3man B\u00e1lint",
            "kind": "utca",
            "post_code": 0
        },
        {
            "name": "Honv\u00e9d",
            "kind": "utca",
            "post_code": 0
        },
        {
            "name": "Hord\u00f3",
            "kind": "utca",
            "post_code": 0
        },
        {
            "name": "Horg\u00e1sz",
            "kind": "k\u00f6z",
            "post_code": 0
        },
        {
            "name": "Horg\u00e1szt\u00f3",
            "kind": "utca",
            "post_code": 0
        },
        {
            "name": "Horka",
            "kind": "utca",
            "post_code": 0
        },
        {
            "name": "Horv\u00e1th Mih\u00e1ly",
            "kind": "utca",
            "post_code": 0
        },
        {
            "name": "Hossz\u00fa",
            "kind": "utca",
            "post_code": 0
        },
        {
            "name": "H\u00f3vir\u00e1g",
            "kind": "utca",
            "post_code": 0
        },
        {
            "name": "Hunyadi",
            "kind": "utca",
            "post_code": 0
        },
        {
            "name": "Husz\u00e1r",
            "kind": "utca",
            "post_code": 0
        },
        {
            "name": "Ibolya",
            "kind": "utca",
            "post_code": 0
        },
        {
            "name": "Icce",
            "kind": "utca",
            "post_code": 0
        },
        {
            "name": "II. R\u00e1k\u00f3czi Ferenc",
            "kind": "t\u00e9r",
            "post_code": 0
        },
        {
            "name": "II. R\u00e1k\u00f3czi Ferenc",
            "kind": "\u00fat",
            "post_code": 0
        },
        {
            "name": "Ilona",
            "kind": "utca",
            "post_code": 0
        },
        {
            "name": "Ipoly",
            "kind": "utca",
            "post_code": 0
        },
        {
            "name": "Iskola",
            "kind": "k\u00f6z",
            "post_code": 0
        },
        {
            "name": "Iskola",
            "kind": "utca",
            "post_code": 0
        },
        {
            "name": "Istenmalmi",
            "kind": "utca",
            "post_code": 0
        },
        {
            "name": "Istr\u00e1ng",
            "kind": "utca",
            "post_code": 0
        },
        {
            "name": "Iv\u00e1nka",
            "kind": "utca",
            "post_code": 0
        },
        {
            "name": "Janics\u00e1r",
            "kind": "utca",
            "post_code": 0
        },
        {
            "name": "J\u00e1vorszky",
            "kind": "s\u00e9t\u00e1ny",
            "post_code": 0
        },
        {
            "name": "J\u00e1zmin",
            "kind": "t\u00e9r",
            "post_code": 0
        },
        {
            "name": "Jegenye",
            "kind": "utca",
            "post_code": 0
        },
        {
            "name": "J\u00e9gvir\u00e1g",
            "kind": "utca",
            "post_code": 0
        },
        {
            "name": "J\u00f3kai",
            "kind": "utca",
            "post_code": 0
        },
        {
            "name": "J\u00f3zsef Attila",
            "kind": "s\u00e9t\u00e1ny",
            "post_code": 0
        },
        {
            "name": "J\u00f3zsef",
            "kind": "utca",
            "post_code": 0
        },
        {
            "name": "Juh\u00e1sz",
            "kind": "utca",
            "post_code": 0
        },
        {
            "name": "K\u00e1di",
            "kind": "k\u00f6z",
            "post_code": 0
        },
        {
            "name": "Kakukk",
            "kind": "utca",
            "post_code": 0
        },
        {
            "name": "Kalpag",
            "kind": "utca",
            "post_code": 0
        },
        {
            "name": "K\u00e1lv\u00e1ria",
            "kind": "",
            "post_code": 0
        },
        {
            "name": "K\u00e1lvin",
            "kind": "utca",
            "post_code": 0
        },
        {
            "name": "Kamilla",
            "kind": "utca",
            "post_code": 0
        },
        {
            "name": "Kand\u00f3 K\u00e1lm\u00e1n",
            "kind": "utca",
            "post_code": 0
        },
        {
            "name": "Kankalin",
            "kind": "k\u00f6z",
            "post_code": 0
        },
        {
            "name": "Kanyar",
            "kind": "utca",
            "post_code": 0
        },
        {
            "name": "K\u00e1polna",
            "kind": "utca",
            "post_code": 0
        },
        {
            "name": "K\u00e1ptalan",
            "kind": "utca",
            "post_code": 0
        },
        {
            "name": "K\u00e1r\u00e1sz",
            "kind": "utca",
            "post_code": 0
        },
        {
            "name": "Karcs\u00fa Arz\u00e9n",
            "kind": "utca",
            "post_code": 0
        },
        {
            "name": "Kard",
            "kind": "utca",
            "post_code": 0
        },
        {
            "name": "Kass\u00e1k Lajos",
            "kind": "utca",
            "post_code": 0
        },
        {
            "name": "Katona J\u00f3zsef",
            "kind": "utca",
            "post_code": 0
        },
        {
            "name": "Katona Lajos",
            "kind": "utca",
            "post_code": 0
        },
        {
            "name": "Kazinczy Ferenc",
            "kind": "utca",
            "post_code": 0
        },
        {
            "name": "Kazinczy Lajos",
            "kind": "utca",
            "post_code": 0
        },
        {
            "name": "Kender",
            "kind": "utca",
            "post_code": 0
        },
        {
            "name": "K\u00e9p",
            "kind": "utca",
            "post_code": 0
        },
        {
            "name": "Kereszt",
            "kind": "utca",
            "post_code": 0
        },
        {
            "name": "Kert\u00e9sz",
            "kind": "utca",
            "post_code": 0
        },
        {
            "name": "Kert",
            "kind": "utca",
            "post_code": 0
        },
        {
            "name": "Kertv\u00e1rosi",
            "kind": "utca",
            "post_code": 0
        },
        {
            "name": "Keszeg",
            "kind": "utca",
            "post_code": 0
        },
        {
            "name": "Kisk\u00f6r\u00fat",
            "kind": "",
            "post_code": 0
        },
        {
            "name": "Kis",
            "kind": "utca",
            "post_code": 0
        },
        {
            "name": "Kiszsobr\u00e1k",
            "kind": "utca",
            "post_code": 0
        },
        {
            "name": "Kod\u00e1ly Zolt\u00e1n",
            "kind": "\u00fat",
            "post_code": 0
        },
        {
            "name": "K\u0151h\u00edd",
            "kind": "utca",
            "post_code": 0
        },
        {
            "name": "K\u00f6k\u00e9ny",
            "kind": "utca",
            "post_code": 0
        },
        {
            "name": "K\u00f6lcsey Ferenc",
            "kind": "utca",
            "post_code": 0
        },
        {
            "name": "Konstantin",
            "kind": "t\u00e9r",
            "post_code": 0
        },
        {
            "name": "Kopja",
            "kind": "utca",
            "post_code": 0
        },
        {
            "name": "K\u00f3rh\u00e1z",
            "kind": "\u00fat",
            "post_code": 0
        },
        {
            "name": "Kosdi",
            "kind": "\u00fat",
            "post_code": 0
        },
        {
            "name": "Kosdi",
            "kind": "utca",
            "post_code": 0
        },
        {
            "name": "Kossuth",
            "kind": "utca",
            "post_code": 0
        },
        {
            "name": "K\u00f6t\u0151",
            "kind": "utca",
            "post_code": 0
        },
        {
            "name": "K\u00f6zt\u00e1rsas\u00e1g",
            "kind": "\u00fat",
            "post_code": 0
        },
        {
            "name": "Krakk\u00f3",
            "kind": "k\u00f6z",
            "post_code": 0
        },
        {
            "name": "Kucsma",
            "kind": "utca",
            "post_code": 0
        },
        {
            "name": "Kukorica",
            "kind": "\u00fat",
            "post_code": 0
        },
        {
            "name": "K\u00fcls\u0151 R\u00e1di",
            "kind": "\u00fat",
            "post_code": 0
        },
        {
            "name": "Labda",
            "kind": "utca",
            "post_code": 0
        },
        {
            "name": "Landerer Lajos",
            "kind": "utca",
            "post_code": 0
        },
        {
            "name": "L\u00e1ndzsa",
            "kind": "utca",
            "post_code": 0
        },
        {
            "name": "Leh\u00e1r Ferenc",
            "kind": "utca",
            "post_code": 0
        },
        {
            "name": "Lemez",
            "kind": "utca",
            "post_code": 0
        },
        {
            "name": "L\u00e9pcs\u0151sor",
            "kind": "",
            "post_code": 0
        },
        {
            "name": "Leszakadt h\u00edd",
            "kind": "",
            "post_code": 0
        },
        {
            "name": "Lev\u00e9l",
            "kind": "utca",
            "post_code": 0
        },
        {
            "name": "Lilaak\u00e1c",
            "kind": "k\u00f6z",
            "post_code": 0
        },
        {
            "name": "Liliom",
            "kind": "utca",
            "post_code": 0
        },
        {
            "name": "Liszt Ferenc",
            "kind": "s\u00e9t\u00e1ny",
            "post_code": 0
        },
        {
            "name": "Lomb",
            "kind": "utca",
            "post_code": 0
        },
        {
            "name": "Lotz K\u00e1roly",
            "kind": "utca",
            "post_code": 0
        },
        {
            "name": "Lovas",
            "kind": "utca",
            "post_code": 0
        },
        {
            "name": "Luxemburg",
            "kind": "utca",
            "post_code": 0
        },
        {
            "name": "Mad\u00e1ch",
            "kind": "utca",
            "post_code": 0
        },
        {
            "name": "Madar\u00e1sz",
            "kind": "utca",
            "post_code": 0
        },
        {
            "name": "Magas",
            "kind": "utca",
            "post_code": 0
        },
        {
            "name": "Magyar",
            "kind": "utca",
            "post_code": 0
        },
        {
            "name": "Makay",
            "kind": "utca",
            "post_code": 0
        },
        {
            "name": "M\u00e1lyva",
            "kind": "utca",
            "post_code": 0
        },
        {
            "name": "M\u00e1ria",
            "kind": "utca",
            "post_code": 0
        },
        {
            "name": "M\u00e1rna",
            "kind": "utca",
            "post_code": 0
        },
        {
            "name": "M\u00e1ty\u00e1s",
            "kind": "utca",
            "post_code": 0
        },
        {
            "name": "M\u00c1V telep",
            "kind": "utca",
            "post_code": 0
        },
        {
            "name": "Mazsola",
            "kind": "utca",
            "post_code": 0
        },
        {
            "name": "M\u00e9h\u00e9sz",
            "kind": "utca",
            "post_code": 0
        },
        {
            "name": "Ment\u0151s",
            "kind": "k\u00f6z",
            "post_code": 0
        },
        {
            "name": "Meredek",
            "kind": "utca",
            "post_code": 0
        },
        {
            "name": "Meszely",
            "kind": "utca",
            "post_code": 0
        },
        {
            "name": "M\u00e9zeskal\u00e1cs",
            "kind": "utca",
            "post_code": 0
        },
        {
            "name": "Mez\u0151 Imre",
            "kind": "utca",
            "post_code": 0
        },
        {
            "name": "Migazzi Krist\u00f3f",
            "kind": "t\u00e9r",
            "post_code": 0
        },
        {
            "name": "Miksz\u00e1th K\u00e1lm\u00e1n",
            "kind": "utca",
            "post_code": 0
        },
        {
            "name": "Moln\u00e1r",
            "kind": "utca",
            "post_code": 0
        },
        {
            "name": "Mozs\u00e1r",
            "kind": "k\u00f6z",
            "post_code": 0
        },
        {
            "name": "Munk\u00e1csy Mih\u00e1ly",
            "kind": "utca",
            "post_code": 0
        },
        {
            "name": "Must",
            "kind": "utca",
            "post_code": 0
        },
        {
            "name": "M\u00fazeum",
            "kind": "utca",
            "post_code": 0
        },
        {
            "name": "N\u00e1das",
            "kind": "\u00fat",
            "post_code": 0
        },
        {
            "name": "Nagymez\u0151",
            "kind": "utca",
            "post_code": 0
        },
        {
            "name": "Nagy S\u00e1ndor J.",
            "kind": "utca",
            "post_code": 0
        },
        {
            "name": "Naphegy",
            "kind": "utca",
            "post_code": 0
        },
        {
            "name": "Napraforg\u00f3",
            "kind": "utca",
            "post_code": 0
        },
        {
            "name": "Napsug\u00e1r",
            "kind": "utca",
            "post_code": 0
        },
        {
            "name": "N\u00e1rcisz",
            "kind": "k\u00f6z",
            "post_code": 0
        },
        {
            "name": "N\u00e1rcisz",
            "kind": "utca",
            "post_code": 0
        },
        {
            "name": "Nasz\u00e1ly",
            "kind": "\u00fat",
            "post_code": 0
        },
        {
            "name": "Nasz\u00e1ly",
            "kind": "utca",
            "post_code": 0
        },
        {
            "name": "Nefelejcs",
            "kind": "utca",
            "post_code": 0
        },
        {
            "name": "Negyvennyolcasok",
            "kind": "\u00fatja",
            "post_code": 0
        },
        {
            "name": "N\u00e9meth L\u00e1szl\u00f3",
            "kind": "utca",
            "post_code": 0
        },
        {
            "name": "Nemzet\u0151r",
            "kind": "\u00fat",
            "post_code": 0
        },
        {
            "name": "N\u00f3gr\u00e1di",
            "kind": "utca",
            "post_code": 0
        },
        {
            "name": "Ny\u00e1r",
            "kind": "utca",
            "post_code": 0
        },
        {
            "name": "Ny\u00e1ry P\u00e1l",
            "kind": "utca",
            "post_code": 0
        },
        {
            "name": "Nyereg",
            "kind": "k\u00f6z",
            "post_code": 0
        },
        {
            "name": "Ny\u00edl",
            "kind": "utca",
            "post_code": 0
        },
        {
            "name": "oml\u00e1s vesz\u00e9ly!",
            "kind": "",
            "post_code": 0
        },
        {
            "name": "Orgona",
            "kind": "utca",
            "post_code": 0
        },
        {
            "name": "Orsz\u00e1g",
            "kind": "\u00fat",
            "post_code": 0
        },
        {
            "name": "\u00d6sv\u00e9ny",
            "kind": "utca",
            "post_code": 0
        },
        {
            "name": "Oswald",
            "kind": "utca",
            "post_code": 0
        },
        {
            "name": "\u0150sz",
            "kind": "utca",
            "post_code": 0
        },
        {
            "name": "Pa\u00e1l L\u00e1szl\u00f3",
            "kind": "utca",
            "post_code": 0
        },
        {
            "name": "Pacsirta",
            "kind": "utca",
            "post_code": 0
        },
        {
            "name": "Paduc",
            "kind": "utca",
            "post_code": 0
        },
        {
            "name": "P\u00e1fr\u00e1ny",
            "kind": "utca",
            "post_code": 0
        },
        {
            "name": "Pajzs",
            "kind": "utca",
            "post_code": 0
        },
        {
            "name": "Pal\u00e1nk",
            "kind": "k\u00f6z",
            "post_code": 0
        },
        {
            "name": "P\u00e1lffy",
            "kind": "utca",
            "post_code": 0
        },
        {
            "name": "P\u00e1nc\u00e9l",
            "kind": "utca",
            "post_code": 0
        },
        {
            "name": "Pap B\u00e9la",
            "kind": "utca",
            "post_code": 0
        },
        {
            "name": "Papv\u00f6lgyi",
            "kind": "\u00fat",
            "post_code": 0
        },
        {
            "name": "Park",
            "kind": "utca",
            "post_code": 0
        },
        {
            "name": "P\u00e1rta",
            "kind": "utca",
            "post_code": 0
        },
        {
            "name": "Pasa",
            "kind": "utca",
            "post_code": 0
        },
        {
            "name": "P\u00e1sztor",
            "kind": "utca",
            "post_code": 0
        },
        {
            "name": "Patk\u00f3",
            "kind": "k\u00f6z",
            "post_code": 0
        },
        {
            "name": "Pele",
            "kind": "k\u00f6z",
            "post_code": 0
        },
        {
            "name": "Pet\u0151fi S\u00e1ndor",
            "kind": "utca",
            "post_code": 0
        },
        {
            "name": "Petr\u00f3czy",
            "kind": "utca",
            "post_code": 0
        },
        {
            "name": "Piac",
            "kind": "utca",
            "post_code": 0
        },
        {
            "name": "Piarista",
            "kind": "utca",
            "post_code": 0
        },
        {
            "name": "Pincev\u00f6lgy",
            "kind": "d\u0171l\u0151",
            "post_code": 0
        },
        {
            "name": "Pint",
            "kind": "utca",
            "post_code": 0
        },
        {
            "name": "Pinty",
            "kind": "utca",
            "post_code": 0
        },
        {
            "name": "Pipacs",
            "kind": "k\u00f6z",
            "post_code": 0
        },
        {
            "name": "Pipit\u00e9r",
            "kind": "utca",
            "post_code": 0
        },
        {
            "name": "Pitypang",
            "kind": "utca",
            "post_code": 0
        },
        {
            "name": "Pog\u00e1nyv\u00e1ri",
            "kind": "k\u00f6z",
            "post_code": 0
        },
        {
            "name": "Posta",
            "kind": "park",
            "post_code": 0
        },
        {
            "name": "Posz\u00e1ta",
            "kind": "utca",
            "post_code": 0
        },
        {
            "name": "Pr\u00e9sh\u00e1z",
            "kind": "utca",
            "post_code": 0
        },
        {
            "name": "Puttony",
            "kind": "utca",
            "post_code": 0
        },
        {
            "name": "Qwell Rudolf",
            "kind": "utca",
            "post_code": 0
        },
        {
            "name": "R\u00e1cz P\u00e1l",
            "kind": "utca",
            "post_code": 0
        },
        {
            "name": "R\u00e1di",
            "kind": "\u00fat",
            "post_code": 0
        },
        {
            "name": "Radn\u00f3ti Mikl\u00f3s",
            "kind": "utca",
            "post_code": 0
        },
        {
            "name": "R\u00e1k\u00f3czi Ferenc",
            "kind": "\u00fat",
            "post_code": 0
        },
        {
            "name": "R\u00e9gi K",
            "kind": "",
            "post_code": 0
        },
        {
            "name": "Repce",
            "kind": "utca",
            "post_code": 0
        },
        {
            "name": "R\u00e9t",
            "kind": "k\u00f6z",
            "post_code": 0
        },
        {
            "name": "R\u00e9v",
            "kind": "k\u00f6z",
            "post_code": 0
        },
        {
            "name": "Rezeda",
            "kind": "utca",
            "post_code": 0
        },
        {
            "name": "Rig\u00f3",
            "kind": "utca",
            "post_code": 0
        },
        {
            "name": "Rozmaring",
            "kind": "utca",
            "post_code": 0
        },
        {
            "name": "R\u00f3zsa Ferenc",
            "kind": "utca",
            "post_code": 0
        },
        {
            "name": "Rozs",
            "kind": "utca",
            "post_code": 0
        },
        {
            "name": "S\u00e1f\u00e1r B\u00e9la",
            "kind": "k\u00f6z",
            "post_code": 0
        },
        {
            "name": "S\u00e1nc",
            "kind": "d\u0171l\u0151",
            "post_code": 0
        },
        {
            "name": "S\u00e1nc",
            "kind": "utca",
            "post_code": 0
        },
        {
            "name": "S\u00e1ndor",
            "kind": "utca",
            "post_code": 0
        },
        {
            "name": "Sarc",
            "kind": "k\u00f6z",
            "post_code": 0
        },
        {
            "name": "Saru",
            "kind": "utca",
            "post_code": 0
        },
        {
            "name": "Sas",
            "kind": "utca",
            "post_code": 0
        },
        {
            "name": "S\u00e1tor",
            "kind": "k\u00f6z",
            "post_code": 0
        },
        {
            "name": "Satu",
            "kind": "k\u00f6z",
            "post_code": 0
        },
        {
            "name": "Sereg\u00e9lyesi",
            "kind": "\u00fat",
            "post_code": 0
        },
        {
            "name": "Sir\u00e1ly",
            "kind": "utca",
            "post_code": 0
        },
        {
            "name": "Sisak",
            "kind": "utca",
            "post_code": 0
        },
        {
            "name": "Somogyi",
            "kind": "utca",
            "post_code": 0
        },
        {
            "name": "Soromp\u00f3",
            "kind": "utca",
            "post_code": 0
        },
        {
            "name": "S\u00f6v\u00e9ny",
            "kind": "utca",
            "post_code": 0
        },
        {
            "name": "Spiny\u00e9ri",
            "kind": "\u00fat",
            "post_code": 0
        },
        {
            "name": "Stadion",
            "kind": "utca",
            "post_code": 0
        },
        {
            "name": "Suba",
            "kind": "utca",
            "post_code": 0
        },
        {
            "name": "Sug\u00e1r",
            "kind": "utca",
            "post_code": 0
        },
        {
            "name": "S\u00fcg\u00e9r",
            "kind": "utca",
            "post_code": 0
        },
        {
            "name": "S\u00fcll\u0151",
            "kind": "utca",
            "post_code": 0
        },
        {
            "name": "Szablya",
            "kind": "utca",
            "post_code": 0
        },
        {
            "name": "Szab\u00f3 K\u00e1roly",
            "kind": "utca",
            "post_code": 0
        },
        {
            "name": "Szajk\u00f3",
            "kind": "utca",
            "post_code": 0
        },
        {
            "name": "Sz\u00e1nt\u00f3",
            "kind": "utca",
            "post_code": 0
        },
        {
            "name": "Szarvas",
            "kind": "k\u00f6z",
            "post_code": 0
        },
        {
            "name": "Sz\u00e9chenyi",
            "kind": "utca",
            "post_code": 0
        },
        {
            "name": "Szederfa",
            "kind": "sor",
            "post_code": 0
        },
        {
            "name": "Szegf\u0171",
            "kind": "utca",
            "post_code": 0
        },
        {
            "name": "Szekeres",
            "kind": "utca",
            "post_code": 0
        },
        {
            "name": "Sz\u00e9khegy",
            "kind": "d\u0171l\u0151",
            "post_code": 0
        },
        {
            "name": "Sz\u00e9ls\u0151",
            "kind": "sor",
            "post_code": 0
        },
        {
            "name": "Szent Erzs\u00e9bet",
            "kind": "s\u00e9t\u00e1ny",
            "post_code": 0
        },
        {
            "name": "Szent Fl\u00f3ri\u00e1n",
            "kind": "utca",
            "post_code": 0
        },
        {
            "name": "Szent-Gy\u00f6rgyi Albert",
            "kind": "utca",
            "post_code": 0
        },
        {
            "name": "Szent Istv\u00e1n",
            "kind": "t\u00e9r",
            "post_code": 0
        },
        {
            "name": "Szent J\u00e1nos",
            "kind": "utca",
            "post_code": 0
        },
        {
            "name": "Szent L\u00e1szl\u00f3",
            "kind": "\u00fat",
            "post_code": 0
        },
        {
            "name": "Szent Mih\u00e1ly",
            "kind": "d\u0171l\u0151",
            "post_code": 0
        },
        {
            "name": "Szent Mikl\u00f3s",
            "kind": "t\u00e9r",
            "post_code": 0
        },
        {
            "name": "Szigony",
            "kind": "k\u00f6z",
            "post_code": 0
        },
        {
            "name": "Szilassy",
            "kind": "utca",
            "post_code": 0
        },
        {
            "name": "Szinyei Merse P\u00e1l",
            "kind": "utca",
            "post_code": 0
        },
        {
            "name": "Szir\u00e9na",
            "kind": "k\u00f6z",
            "post_code": 0
        },
        {
            "name": "Szirom",
            "kind": "utca",
            "post_code": 0
        },
        {
            "name": "Sziv\u00e1rv\u00e1ny",
            "kind": "utca",
            "post_code": 0
        },
        {
            "name": "Sz\u00f3ja",
            "kind": "\u00fat",
            "post_code": 0
        },
        {
            "name": "Sz\u0151l\u0151vessz\u0151",
            "kind": "utca",
            "post_code": 0
        },
        {
            "name": "Sz\u0151nyi Istv\u00e1n",
            "kind": "utca",
            "post_code": 0
        },
        {
            "name": "Szult\u00e1n",
            "kind": "\u00fat",
            "post_code": 0
        },
        {
            "name": "Sz\u00fcret",
            "kind": "utca",
            "post_code": 0
        },
        {
            "name": "Tab\u00e1n",
            "kind": "utca",
            "post_code": 0
        },
        {
            "name": "T\u00e1bor",
            "kind": "k\u00f6z",
            "post_code": 0
        },
        {
            "name": "Tak\u00e1cs \u00c1d\u00e1m",
            "kind": "k\u00f6z",
            "post_code": 0
        },
        {
            "name": "Tak\u00e1cs \u00c1d\u00e1m",
            "kind": "utca",
            "post_code": 0
        },
        {
            "name": "T\u00e1ncsics Mih\u00e1ly",
            "kind": "utca",
            "post_code": 0
        },
        {
            "name": "T\u00e1rogat\u00f3",
            "kind": "utca",
            "post_code": 0
        },
        {
            "name": "T\u00e1tika",
            "kind": "utca",
            "post_code": 0
        },
        {
            "name": "Tavasz",
            "kind": "utca",
            "post_code": 0
        },
        {
            "name": "Tavir\u00f3zsa",
            "kind": "utca",
            "post_code": 0
        },
        {
            "name": "Tegez",
            "kind": "k\u00f6z",
            "post_code": 0
        },
        {
            "name": "T\u00e9glah\u00e1z",
            "kind": "d\u0171l\u0151",
            "post_code": 0
        },
        {
            "name": "T\u00e9glah\u00e1z",
            "kind": "k\u00f6z",
            "post_code": 0
        },
        {
            "name": "T\u00e9glah\u00e1z",
            "kind": "\u00fat",
            "post_code": 0
        },
        {
            "name": "Telep",
            "kind": "utca",
            "post_code": 0
        },
        {
            "name": "T\u00e9l",
            "kind": "utca",
            "post_code": 0
        },
        {
            "name": "Testv\u00e9rv\u00e1rosi",
            "kind": "k\u00f6z",
            "post_code": 0
        },
        {
            "name": "T\u00edm\u00e1r",
            "kind": "utca",
            "post_code": 0
        },
        {
            "name": "T\u00f6lgyfa",
            "kind": "utca",
            "post_code": 0
        },
        {
            "name": "T\u00f6nk\u00f6ly",
            "kind": "utca",
            "post_code": 0
        },
        {
            "name": "T\u00f3part",
            "kind": "utca",
            "post_code": 0
        },
        {
            "name": "T\u00f6rk\u00f6ly",
            "kind": "k\u00f6z",
            "post_code": 0
        },
        {
            "name": "T\u00f6rk\u00f6ly",
            "kind": "utca",
            "post_code": 0
        },
        {
            "name": "Tornyos P\u00e1l",
            "kind": "utca",
            "post_code": 0
        },
        {
            "name": "T\u00f6r\u00f6kf\u00fcrd\u0151",
            "kind": "k\u00f6z",
            "post_code": 0
        },
        {
            "name": "T\u00f6r\u00f6khegyi",
            "kind": "utca",
            "post_code": 0
        },
        {
            "name": "T\u00f6r\u00f6km\u00e9z",
            "kind": "k\u00f6z",
            "post_code": 0
        },
        {
            "name": "T\u00f6r\u00f6ks\u00e1nc",
            "kind": "k\u00f6z",
            "post_code": 0
        },
        {
            "name": "T\u00f6r\u00f6kver\u0151",
            "kind": "utca",
            "post_code": 0
        },
        {
            "name": "T\u00f3",
            "kind": "utca",
            "post_code": 0
        },
        {
            "name": "Tragor Ign\u00e1c",
            "kind": "utca",
            "post_code": 0
        },
        {
            "name": "Tulip\u00e1n",
            "kind": "utca",
            "post_code": 0
        },
        {
            "name": "\u00dajhegyi",
            "kind": "\u00fat",
            "post_code": 0
        },
        {
            "name": "Ulrich",
            "kind": "k\u00f6z",
            "post_code": 0
        },
        {
            "name": "\u0170rhaj\u00f3s",
            "kind": "utca",
            "post_code": 0
        },
        {
            "name": "\u00dczem",
            "kind": "utca",
            "post_code": 0
        },
        {
            "name": "V\u00e1czy P\u00e1l",
            "kind": "utca",
            "post_code": 0
        },
        {
            "name": "Vad\u00e1szati ter\u00fcletre vezet\u0151",
            "kind": "\u00fat",
            "post_code": 0
        },
        {
            "name": "V\u00e1g\u00e1ny",
            "kind": "utca",
            "post_code": 0
        },
        {
            "name": "V\u00e1g",
            "kind": "utca",
            "post_code": 0
        },
        {
            "name": "V\u00e1lt\u00f3",
            "kind": "utca",
            "post_code": 0
        },
        {
            "name": "V\u00e1m",
            "kind": "utca",
            "post_code": 0
        },
        {
            "name": "V\u00e1r",
            "kind": "l\u00e9pcs\u0151",
            "post_code": 0
        },
        {
            "name": "Varsa",
            "kind": "k\u00f6z",
            "post_code": 0
        },
        {
            "name": "V\u00e1s\u00e1r",
            "kind": "utca",
            "post_code": 0
        },
        {
            "name": "Vas\u00fat",
            "kind": "utca",
            "post_code": 0
        },
        {
            "name": "V\u00e9gh Dezs\u0151",
            "kind": "utca",
            "post_code": 0
        },
        {
            "name": "Venyige",
            "kind": "utca",
            "post_code": 0
        },
        {
            "name": "Veressipk\u00e1s",
            "kind": "utca",
            "post_code": 0
        },
        {
            "name": "Ver\u0151cei",
            "kind": "utca",
            "post_code": 0
        },
        {
            "name": "Vet\u00e9s",
            "kind": "utca",
            "post_code": 0
        },
        {
            "name": "Vincell\u00e9r",
            "kind": "t\u00e9r",
            "post_code": 0
        },
        {
            "name": "Viola",
            "kind": "utca",
            "post_code": 0
        },
        {
            "name": "Vir\u00e1g",
            "kind": "utca",
            "post_code": 0
        },
        {
            "name": "Vizimalom",
            "kind": "utca",
            "post_code": 0
        },
        {
            "name": "V\u00edzm\u0171vek",
            "kind": "",
            "post_code": 0
        },
        {
            "name": "V\u00f6r\u00f6skereszt",
            "kind": "sor",
            "post_code": 0
        },
        {
            "name": "V\u00f6r\u00f6smarty",
            "kind": "t\u00e9r",
            "post_code": 0
        },
        {
            "name": "Wolk\u00f3ber",
            "kind": "utca",
            "post_code": 0
        },
        {
            "name": "Zab",
            "kind": "utca",
            "post_code": 0
        },
        {
            "name": "Z\u00e1tony",
            "kind": "utca",
            "post_code": 0
        },
        {
            "name": "Zeke",
            "kind": "utca",
            "post_code": 0
        },
        {
            "name": "Zichy Hippolyt",
            "kind": "utca",
            "post_code": 0
        },
        {
            "name": "Z\u00f6ldfa",
            "kind": "utca",
            "post_code": 0
        },
        {
            "name": "Zr\u00ednyi",
            "kind": "utca",
            "post_code": 0
        },
        {
            "name": "Zsell\u00e9r",
            "kind": "d\u0171l\u0151",
            "post_code": 0
        },
        {
            "name": "Zsell\u00e9r",
            "kind": "utca",
            "post_code": 0
        },
        {
            "name": "Zsolt",
            "kind": "utca",
            "post_code": 0
        },
        {
            "name": "M\u00e1rcius 15.",
            "kind": "t\u00e9r",
            "post_code": 0
        }
    ]
}