{
    "codes": {
        "8900": [
            "Zalaegerszeg",
            " "
        ],
        "8904": [
            "Zalaegerszeg",
            "Andr\u00e1shida"
        ]
    },
    "streets": [
        {
            "name": "Ady Endre",
            "kind": "utca",
            "post_code": 0
        },
        {
            "name": "Ak\u00e1cfa",
            "kind": "sor",
            "post_code": 0
        },
        {
            "name": "Ak\u00e1cfa",
            "kind": "utca",
            "post_code": 0
        },
        {
            "name": "Alkotm\u00e1ny",
            "kind": "utca",
            "post_code": 0
        },
        {
            "name": "Als\u00f3erdei",
            "kind": "\u00fat",
            "post_code": 0
        },
        {
            "name": "Als\u00f3j\u00e1nkahegyi",
            "kind": "utca",
            "post_code": 0
        },
        {
            "name": "Andr\u00e1shida",
            "kind": "utca",
            "post_code": 0
        },
        {
            "name": "Ap\u00e1czai Csere J\u00e1nos",
            "kind": "t\u00e9r",
            "post_code": 0
        },
        {
            "name": "Ap\u00e1tfa",
            "kind": "utca",
            "post_code": 0
        },
        {
            "name": "Aranyes\u0151",
            "kind": "utca",
            "post_code": 0
        },
        {
            "name": "Arany J\u00e1nos",
            "kind": "utca",
            "post_code": 0
        },
        {
            "name": "\u00c1rnyas",
            "kind": "utca",
            "post_code": 0
        },
        {
            "name": "\u00c1rp\u00e1d",
            "kind": "utca",
            "post_code": 0
        },
        {
            "name": "\u00c1talszegett",
            "kind": "utca",
            "post_code": 0
        },
        {
            "name": "\u00c1tk\u00f6t\u0151",
            "kind": "utca",
            "post_code": 0
        },
        {
            "name": "Avas\u00e1rok",
            "kind": "utca",
            "post_code": 0
        },
        {
            "name": "Avashegyi",
            "kind": "utca",
            "post_code": 0
        },
        {
            "name": "Az\u00e1le\u00e1s",
            "kind": "utca",
            "post_code": 0
        },
        {
            "name": "Babits Mih\u00e1ly",
            "kind": "utca",
            "post_code": 0
        },
        {
            "name": "Bajcsy-Zsilinszky",
            "kind": "t\u00e9r",
            "post_code": 0
        },
        {
            "name": "Balassi B\u00e1lint",
            "kind": "utca",
            "post_code": 0
        },
        {
            "name": "Balatoni",
            "kind": "\u00fat",
            "post_code": 0
        },
        {
            "name": "B\u00e1nya",
            "kind": "utca",
            "post_code": 0
        },
        {
            "name": "Bar\u00e1th Ferenc",
            "kind": "utca",
            "post_code": 0
        },
        {
            "name": "Barka",
            "kind": "utca",
            "post_code": 0
        },
        {
            "name": "Baross G\u00e1bor",
            "kind": "utca",
            "post_code": 0
        },
        {
            "name": "Bart\u00f3k B\u00e9la",
            "kind": "utca",
            "post_code": 0
        },
        {
            "name": "B\u00e1thory Istv\u00e1n",
            "kind": "utca",
            "post_code": 0
        },
        {
            "name": "Bats\u00e1nyi J\u00e1nos",
            "kind": "utca",
            "post_code": 0
        },
        {
            "name": "Batthy\u00e1ny Lajos",
            "kind": "utca",
            "post_code": 0
        },
        {
            "name": "Bazitai",
            "kind": "\u00fat",
            "post_code": 0
        },
        {
            "name": "Becsali",
            "kind": "\u00fat",
            "post_code": 0
        },
        {
            "name": "B\u00e9keligeti",
            "kind": "utca",
            "post_code": 0
        },
        {
            "name": "B\u00e9ke",
            "kind": "utca",
            "post_code": 0
        },
        {
            "name": "Bels\u0151szeg",
            "kind": "utca",
            "post_code": 0
        },
        {
            "name": "Bem J\u00f3zsef",
            "kind": "utca",
            "post_code": 0
        },
        {
            "name": "Berek",
            "kind": "utca",
            "post_code": 0
        },
        {
            "name": "Berzsenyi D\u00e1niel",
            "kind": "utca",
            "post_code": 0
        },
        {
            "name": "Beseny\u0151",
            "kind": "utca",
            "post_code": 0
        },
        {
            "name": "Bethlen G\u00e1bor",
            "kind": "utca",
            "post_code": 0
        },
        {
            "name": "B\u00edbor",
            "kind": "utca",
            "post_code": 0
        },
        {
            "name": "B\u00edr\u00f3 M\u00e1rton",
            "kind": "utca",
            "post_code": 0
        },
        {
            "name": "B\u00f3bita",
            "kind": "utca",
            "post_code": 0
        },
        {
            "name": "Bocskai Istv\u00e1n",
            "kind": "utca",
            "post_code": 0
        },
        {
            "name": "Bodza",
            "kind": "utca",
            "post_code": 0
        },
        {
            "name": "Bogl\u00e1rka",
            "kind": "utca",
            "post_code": 0
        },
        {
            "name": "Bokor",
            "kind": "utca",
            "post_code": 0
        },
        {
            "name": "Bokr\u00e9ta",
            "kind": "\u00fat",
            "post_code": 0
        },
        {
            "name": "Borb\u00e9ly Gy\u00f6rgy",
            "kind": "k\u00f6z",
            "post_code": 0
        },
        {
            "name": "Borb\u00e9ly Gy\u00f6rgy",
            "kind": "utca",
            "post_code": 0
        },
        {
            "name": "Borosty\u00e1n",
            "kind": "sor",
            "post_code": 0
        },
        {
            "name": "Bors\u00e9t\u00e1ny",
            "kind": "utca",
            "post_code": 0
        },
        {
            "name": "Bor",
            "kind": "\u00fat",
            "post_code": 0
        },
        {
            "name": "Bosch\u00e1n Gyula",
            "kind": "k\u00f6z",
            "post_code": 0
        },
        {
            "name": "Botfa",
            "kind": "utca",
            "post_code": 0
        },
        {
            "name": "Botfy Lajos",
            "kind": "utca",
            "post_code": 0
        },
        {
            "name": "Bozsokihegyi",
            "kind": "\u00fat",
            "post_code": 0
        },
        {
            "name": "Bozsoki",
            "kind": "utca",
            "post_code": 0
        },
        {
            "name": "Bozsokiv\u00f6lgyi",
            "kind": "\u00fat",
            "post_code": 0
        },
        {
            "name": "Budai Nagy Antal",
            "kind": "utca",
            "post_code": 0
        },
        {
            "name": "Budai",
            "kind": "v\u00f6lgy",
            "post_code": 0
        },
        {
            "name": "B\u00fckkfa",
            "kind": "utca",
            "post_code": 0
        },
        {
            "name": "B\u00fazavir\u00e1g",
            "kind": "utca",
            "post_code": 0
        },
        {
            "name": "C\u00e9drus",
            "kind": "utca",
            "post_code": 0
        },
        {
            "name": "Cikl\u00e1men",
            "kind": "utca",
            "post_code": 0
        },
        {
            "name": "Cimp\u00f3hegyi",
            "kind": "utca",
            "post_code": 0
        },
        {
            "name": "Cinke",
            "kind": "utca",
            "post_code": 0
        },
        {
            "name": "Citromf\u0171",
            "kind": "utca",
            "post_code": 0
        },
        {
            "name": "Cs\u00e1csihegyi",
            "kind": "\u00fat",
            "post_code": 0
        },
        {
            "name": "Cs\u00e1csi",
            "kind": "utca",
            "post_code": 0
        },
        {
            "name": "Cs\u00e1fordhegyi",
            "kind": "\u00fat",
            "post_code": 0
        },
        {
            "name": "Csalog\u00e1ny",
            "kind": "utca",
            "post_code": 0
        },
        {
            "name": "Cs\u00e1nyi L\u00e1szl\u00f3",
            "kind": "t\u00e9r",
            "post_code": 0
        },
        {
            "name": "Csap\u00e1si",
            "kind": "utca",
            "post_code": 0
        },
        {
            "name": "Csendes",
            "kind": "utca",
            "post_code": 0
        },
        {
            "name": "Cseresny\u00e9sszeri",
            "kind": "\u00fat",
            "post_code": 0
        },
        {
            "name": "Cserfa",
            "kind": "utca",
            "post_code": 0
        },
        {
            "name": "Cserhegyi",
            "kind": "\u00fat",
            "post_code": 0
        },
        {
            "name": "Csert\u00e1n S\u00e1ndor",
            "kind": "utca",
            "post_code": 0
        },
        {
            "name": "Csiga",
            "kind": "utca",
            "post_code": 0
        },
        {
            "name": "Csilla",
            "kind": "d\u0171l\u0151",
            "post_code": 0
        },
        {
            "name": "Csillagf\u00e9ny",
            "kind": "utca",
            "post_code": 0
        },
        {
            "name": "Csillagf\u00fcrt",
            "kind": "utca",
            "post_code": 0
        },
        {
            "name": "Csillagv\u00f6lgy",
            "kind": "utca",
            "post_code": 0
        },
        {
            "name": "Csilla",
            "kind": "utca",
            "post_code": 0
        },
        {
            "name": "Cs\u00f6rge",
            "kind": "utca",
            "post_code": 0
        },
        {
            "name": "Csutor Imre",
            "kind": "utca",
            "post_code": 0
        },
        {
            "name": "Czobor M\u00e1ty\u00e1s",
            "kind": "utca",
            "post_code": 0
        },
        {
            "name": "Dalos",
            "kind": "utca",
            "post_code": 0
        },
        {
            "name": "Damjanich",
            "kind": "utca",
            "post_code": 0
        },
        {
            "name": "De\u00e1k Ferenc",
            "kind": "t\u00e9r",
            "post_code": 0
        },
        {
            "name": "D\u00e9ryn\u00e9",
            "kind": "utca",
            "post_code": 0
        },
        {
            "name": "Di\u00f3fa",
            "kind": "utca",
            "post_code": 0
        },
        {
            "name": "Di\u00f3s",
            "kind": "utca",
            "post_code": 0
        },
        {
            "name": "D\u00edsz",
            "kind": "t\u00e9r",
            "post_code": 0
        },
        {
            "name": "Dob\u00f3 Katalin",
            "kind": "utca",
            "post_code": 0
        },
        {
            "name": "Dombalja",
            "kind": "utca",
            "post_code": 0
        },
        {
            "name": "Domb",
            "kind": "utca",
            "post_code": 0
        },
        {
            "name": "D\u00f3zsa Gy\u00f6rgy",
            "kind": "utca",
            "post_code": 0
        },
        {
            "name": "Dr. Jancs\u00f3 Benedek",
            "kind": "utca",
            "post_code": 0
        },
        {
            "name": "Dukai Tak\u00e1cs Judit",
            "kind": "utca",
            "post_code": 0
        },
        {
            "name": "Eberg\u00e9nyi",
            "kind": "\u00fat",
            "post_code": 0
        },
        {
            "name": "\u00c9gerfa",
            "kind": "utca",
            "post_code": 0
        },
        {
            "name": "Egerszeghegyi",
            "kind": "\u00fat",
            "post_code": 0
        },
        {
            "name": "Egerv\u00e1ri",
            "kind": "\u00fat",
            "post_code": 0
        },
        {
            "name": "Egry J\u00f3zsef",
            "kind": "utca",
            "post_code": 0
        },
        {
            "name": "Enik\u0151",
            "kind": "utca",
            "post_code": 0
        },
        {
            "name": "E\u00f6tv\u00f6s J\u00f3zsef",
            "kind": "utca",
            "post_code": 0
        },
        {
            "name": "\u00c9p\u00edt\u0151k",
            "kind": "\u00fatja",
            "post_code": 0
        },
        {
            "name": "Erd\u00e9sz",
            "kind": "utca",
            "post_code": 0
        },
        {
            "name": "Erd\u0151alja",
            "kind": "utca",
            "post_code": 0
        },
        {
            "name": "Erkel Ferenc",
            "kind": "utca",
            "post_code": 0
        },
        {
            "name": "Erzs\u00e9bethegyi",
            "kind": "\u00fat",
            "post_code": 0
        },
        {
            "name": "Esthajnal",
            "kind": "utca",
            "post_code": 0
        },
        {
            "name": "Esze Tam\u00e1s",
            "kind": "utca",
            "post_code": 0
        },
        {
            "name": "F\u00e1c\u00e1nos",
            "kind": "utca",
            "post_code": 0
        },
        {
            "name": "Fagy\u00f6ngy",
            "kind": "utca",
            "post_code": 0
        },
        {
            "name": "Fakop\u00e1ncs",
            "kind": "utca",
            "post_code": 0
        },
        {
            "name": "Falum\u00fazeum",
            "kind": "utca",
            "post_code": 0
        },
        {
            "name": "Farkas D\u00e1vid",
            "kind": "utca",
            "post_code": 0
        },
        {
            "name": "F\u00e1y Andr\u00e1s",
            "kind": "utca",
            "post_code": 0
        },
        {
            "name": "Fecske",
            "kind": "utca",
            "post_code": 0
        },
        {
            "name": "Feh\u00e9rhegyi",
            "kind": "utca",
            "post_code": 0
        },
        {
            "name": "Fej\u00e9r Gy\u00f6rgy",
            "kind": "utca",
            "post_code": 0
        },
        {
            "name": "Feketerig\u00f3",
            "kind": "utca",
            "post_code": 0
        },
        {
            "name": "Fels\u0151d\u0171l\u0151",
            "kind": "utca",
            "post_code": 0
        },
        {
            "name": "Fels\u0151erd\u0151",
            "kind": "utca",
            "post_code": 0
        },
        {
            "name": "Feny\u0151",
            "kind": "utca",
            "post_code": 0
        },
        {
            "name": "Fenyvesalja",
            "kind": "utca",
            "post_code": 0
        },
        {
            "name": "Fenyves",
            "kind": "k\u00f6z",
            "post_code": 0
        },
        {
            "name": "F\u00e9szek",
            "kind": "utca",
            "post_code": 0
        },
        {
            "name": "Flaming\u00f3",
            "kind": "utca",
            "post_code": 0
        },
        {
            "name": "Fl\u00f3ri\u00e1n",
            "kind": "utca",
            "post_code": 0
        },
        {
            "name": "Folyond\u00e1r",
            "kind": "utca",
            "post_code": 0
        },
        {
            "name": "Forr\u00e1s",
            "kind": "utca",
            "post_code": 0
        },
        {
            "name": "F\u00fcgefa",
            "kind": "utca",
            "post_code": 0
        },
        {
            "name": "F\u00fcrd\u0151",
            "kind": "s\u00e9t\u00e1ny",
            "post_code": 0
        },
        {
            "name": "F\u00fcrd\u0151",
            "kind": "utca",
            "post_code": 0
        },
        {
            "name": "Futrinka",
            "kind": "utca",
            "post_code": 0
        },
        {
            "name": "Fuvar",
            "kind": "utca",
            "post_code": 0
        },
        {
            "name": "F\u00fczike",
            "kind": "utca",
            "post_code": 0
        },
        {
            "name": "G\u00e1bor \u00c1ron",
            "kind": "utca",
            "post_code": 0
        },
        {
            "name": "G\u00e1bor Mikl\u00f3s",
            "kind": "utca",
            "post_code": 0
        },
        {
            "name": "G\u00e1lafeji",
            "kind": "utca",
            "post_code": 0
        },
        {
            "name": "Galamb",
            "kind": "utca",
            "post_code": 0
        },
        {
            "name": "Gar\u00e1zs",
            "kind": "sor",
            "post_code": 0
        },
        {
            "name": "G\u00e1rdonyi G\u00e9za",
            "kind": "utca",
            "post_code": 0
        },
        {
            "name": "Gasparich M\u00e1rk",
            "kind": "utca",
            "post_code": 0
        },
        {
            "name": "G\u00e1t",
            "kind": "utca",
            "post_code": 0
        },
        {
            "name": "Gazdas\u00e1g",
            "kind": "utca",
            "post_code": 0
        },
        {
            "name": "G\u00e9b\u00e1rti",
            "kind": "\u00fat",
            "post_code": 0
        },
        {
            "name": "Gerle",
            "kind": "utca",
            "post_code": 0
        },
        {
            "name": "Geszteny\u00e9si",
            "kind": "utca",
            "post_code": 0
        },
        {
            "name": "G\u00e9vahegyi",
            "kind": "\u00fatja",
            "post_code": 0
        },
        {
            "name": "G\u00e9vav\u00f6lgyi",
            "kind": "\u00fat",
            "post_code": 0
        },
        {
            "name": "G\u00f6cseji Pataki Ferenc",
            "kind": "utca",
            "post_code": 0
        },
        {
            "name": "G\u00f6cseji",
            "kind": "\u00fat",
            "post_code": 0
        },
        {
            "name": "G\u00f3g\u00e1nhegyi",
            "kind": "\u00fat",
            "post_code": 0
        },
        {
            "name": "G\u00f3g\u00e1nv\u00f6lgyi",
            "kind": "utca",
            "post_code": 0
        },
        {
            "name": "Goldmark",
            "kind": "utca",
            "post_code": 0
        },
        {
            "name": "G\u00f3lyadombi",
            "kind": "utca",
            "post_code": 0
        },
        {
            "name": "G\u00f3lyah\u00edr",
            "kind": "utca",
            "post_code": 0
        },
        {
            "name": "G\u00f6nczy Ferenc",
            "kind": "utca",
            "post_code": 0
        },
        {
            "name": "Gy\u00e1r",
            "kind": "utca",
            "post_code": 0
        },
        {
            "name": "Gy\u00edk",
            "kind": "utca",
            "post_code": 0
        },
        {
            "name": "Gyimesi",
            "kind": "utca",
            "post_code": 0
        },
        {
            "name": "Gy\u00f6ngyvir\u00e1g",
            "kind": "\u00fat",
            "post_code": 0
        },
        {
            "name": "Gy\u00fcm\u00f6lcs\u00f6s",
            "kind": "utca",
            "post_code": 0
        },
        {
            "name": "Hajnal",
            "kind": "utca",
            "post_code": 0
        },
        {
            "name": "Hajn\u00f3czy J\u00f3zsef",
            "kind": "utca",
            "post_code": 0
        },
        {
            "name": "Halom",
            "kind": "utca",
            "post_code": 0
        },
        {
            "name": "Harangvir\u00e1g",
            "kind": "utca",
            "post_code": 0
        },
        {
            "name": "Harmat",
            "kind": "utca",
            "post_code": 0
        },
        {
            "name": "H\u00e1rsas",
            "kind": "\u00fat",
            "post_code": 0
        },
        {
            "name": "H\u00e1rsfa",
            "kind": "utca",
            "post_code": 0
        },
        {
            "name": "Hat\u00e1rj\u00e1r\u00f3",
            "kind": "utca",
            "post_code": 0
        },
        {
            "name": "Hath\u00e1zi",
            "kind": "utca",
            "post_code": 0
        },
        {
            "name": "Havasi gyop\u00e1r",
            "kind": "utca",
            "post_code": 0
        },
        {
            "name": "Hegyalja",
            "kind": "utca",
            "post_code": 0
        },
        {
            "name": "Hegyb\u00edr\u00f3",
            "kind": "utca",
            "post_code": 0
        },
        {
            "name": "Hegyi",
            "kind": "\u00fat",
            "post_code": 0
        },
        {
            "name": "Hegyk\u00f6zs\u00e9g",
            "kind": "utca",
            "post_code": 0
        },
        {
            "name": "Hegyoldal",
            "kind": "utca",
            "post_code": 0
        },
        {
            "name": "Helikon",
            "kind": "utca",
            "post_code": 0
        },
        {
            "name": "H\u00e9t vez\u00e9r",
            "kind": "utca",
            "post_code": 0
        },
        {
            "name": "Hevesi",
            "kind": "utca",
            "post_code": 0
        },
        {
            "name": "Hock J\u00e1nos",
            "kind": "utca",
            "post_code": 0
        },
        {
            "name": "Hoffhalter Rudolf",
            "kind": "utca",
            "post_code": 0
        },
        {
            "name": "Holdf\u00e9ny",
            "kind": "utca",
            "post_code": 0
        },
        {
            "name": "Holl\u00f3",
            "kind": "utca",
            "post_code": 0
        },
        {
            "name": "Holub J\u00f3zsef",
            "kind": "utca",
            "post_code": 0
        },
        {
            "name": "Homokt\u00f6vis",
            "kind": "utca",
            "post_code": 0
        },
        {
            "name": "Honv\u00e9d",
            "kind": "utca",
            "post_code": 0
        },
        {
            "name": "Hossz\u00faj\u00e1nka",
            "kind": "",
            "post_code": 0
        },
        {
            "name": "H\u00f3vir\u00e1g",
            "kind": "utca",
            "post_code": 0
        },
        {
            "name": "Hunyadi J\u00e1nos",
            "kind": "utca",
            "post_code": 0
        },
        {
            "name": "Ifj\u00fas\u00e1g",
            "kind": "\u00fatja",
            "post_code": 0
        },
        {
            "name": "Ilosvai",
            "kind": "\u00fat",
            "post_code": 0
        },
        {
            "name": "Irinyi J\u00e1nos",
            "kind": "utca",
            "post_code": 0
        },
        {
            "name": "Iskola",
            "kind": "k\u00f6z",
            "post_code": 0
        },
        {
            "name": "Iskola",
            "kind": "utca",
            "post_code": 0
        },
        {
            "name": "Ispot\u00e1ly",
            "kind": "k\u00f6z",
            "post_code": 0
        },
        {
            "name": "Izz\u00f3",
            "kind": "utca",
            "post_code": 0
        },
        {
            "name": "J\u00e1kum Ferenc",
            "kind": "utca",
            "post_code": 0
        },
        {
            "name": "J\u00e1nkahegy",
            "kind": "",
            "post_code": 0
        },
        {
            "name": "J\u00e1szai Mari",
            "kind": "utca",
            "post_code": 0
        },
        {
            "name": "J\u00e1zmin",
            "kind": "utca",
            "post_code": 0
        },
        {
            "name": "Jedlik \u00c1nyos",
            "kind": "utca",
            "post_code": 0
        },
        {
            "name": "Jegeny\u00e9s",
            "kind": "utca",
            "post_code": 0
        },
        {
            "name": "J\u00e9gmad\u00e1r",
            "kind": "utca",
            "post_code": 0
        },
        {
            "name": "J\u00f3kai M\u00f3r",
            "kind": "utca",
            "post_code": 0
        },
        {
            "name": "J\u00f3zsef Attila",
            "kind": "utca",
            "post_code": 0
        },
        {
            "name": "Juh\u00e1sz Gyula",
            "kind": "utca",
            "post_code": 0
        },
        {
            "name": "Kab\u00f3k Lajos",
            "kind": "utca",
            "post_code": 0
        },
        {
            "name": "Kakukkf\u0171",
            "kind": "utca",
            "post_code": 0
        },
        {
            "name": "Kamilla",
            "kind": "utca",
            "post_code": 0
        },
        {
            "name": "Kanizsai",
            "kind": "utca",
            "post_code": 0
        },
        {
            "name": "K\u00e1polnahegyi",
            "kind": "\u00fat",
            "post_code": 0
        },
        {
            "name": "Kar\u00e1csonyhegyi",
            "kind": "\u00fat",
            "post_code": 0
        },
        {
            "name": "Kar\u00e1csony S\u00e1ndor",
            "kind": "utca",
            "post_code": 0
        },
        {
            "name": "Kaszah\u00e1zi",
            "kind": "\u00fat",
            "post_code": 0
        },
        {
            "name": "Kasz\u00e1s",
            "kind": "utca",
            "post_code": 0
        },
        {
            "name": "Katona J\u00f3zsef",
            "kind": "utca",
            "post_code": 0
        },
        {
            "name": "Kazinczy Ferenc",
            "kind": "utca",
            "post_code": 0
        },
        {
            "name": "Kazinczy",
            "kind": "t\u00e9r",
            "post_code": 0
        },
        {
            "name": "Kelemen Imre",
            "kind": "utca",
            "post_code": 0
        },
        {
            "name": "Keresztury Dezs\u0151",
            "kind": "t\u00e9r",
            "post_code": 0
        },
        {
            "name": "Kert\u00e9sz",
            "kind": "utca",
            "post_code": 0
        },
        {
            "name": "Kert",
            "kind": "utca",
            "post_code": 0
        },
        {
            "name": "Kikelet",
            "kind": "utca",
            "post_code": 0
        },
        {
            "name": "Kil\u00e1t\u00f3",
            "kind": "utca",
            "post_code": 0
        },
        {
            "name": "Kinizsi P\u00e1l",
            "kind": "utca",
            "post_code": 0
        },
        {
            "name": "Kir\u00e1ly-Horhos",
            "kind": "",
            "post_code": 0
        },
        {
            "name": "Kir\u00e1ly",
            "kind": "utca",
            "post_code": 0
        },
        {
            "name": "Kisb\u00fckk",
            "kind": "d\u0171l\u0151",
            "post_code": 0
        },
        {
            "name": "Kis Csarit",
            "kind": "utca",
            "post_code": 0
        },
        {
            "name": "Kiserdei",
            "kind": "\u00fat",
            "post_code": 0
        },
        {
            "name": "Kisfaludy S\u00e1ndor",
            "kind": "utca",
            "post_code": 0
        },
        {
            "name": "Kishegyi",
            "kind": "\u00fat",
            "post_code": 0
        },
        {
            "name": "Kisp\u00e1lhegyi",
            "kind": "\u00fat",
            "post_code": 0
        },
        {
            "name": "Kispest",
            "kind": "utca",
            "post_code": 0
        },
        {
            "name": "Kis",
            "kind": "utca",
            "post_code": 0
        },
        {
            "name": "Klapka Gy\u00f6rgy",
            "kind": "utca",
            "post_code": 0
        },
        {
            "name": "Kod\u00e1ly Zolt\u00e1n",
            "kind": "utca",
            "post_code": 0
        },
        {
            "name": "K\u00f6k\u00e9ny",
            "kind": "utca",
            "post_code": 0
        },
        {
            "name": "K\u00f6lcsey Ferenc",
            "kind": "utca",
            "post_code": 0
        },
        {
            "name": "K\u00f6ny\u00f6k",
            "kind": "utca",
            "post_code": 0
        },
        {
            "name": "K\u00f6rmendi",
            "kind": "\u00fat",
            "post_code": 0
        },
        {
            "name": "Kossuth Lajos",
            "kind": "t\u00e9r",
            "post_code": 0
        },
        {
            "name": "Kossuth Lajos",
            "kind": "utca",
            "post_code": 0
        },
        {
            "name": "Kosztol\u00e1nyi Dezs\u0151",
            "kind": "t\u00e9r",
            "post_code": 0
        },
        {
            "name": "Kosztol\u00e1nyi Dezs\u0151",
            "kind": "utca",
            "post_code": 0
        },
        {
            "name": "Kov\u00e1cs K\u00e1roly",
            "kind": "t\u00e9r",
            "post_code": 0
        },
        {
            "name": "K\u00f6vecses",
            "kind": "utca",
            "post_code": 0
        },
        {
            "name": "K\u00f6zt\u00e1rsas\u00e1g",
            "kind": "\u00fatja",
            "post_code": 0
        },
        {
            "name": "Kr\u00f3kusz",
            "kind": "utca",
            "post_code": 0
        },
        {
            "name": "Kukoric\u00e1s",
            "kind": "utca",
            "post_code": 0
        },
        {
            "name": "K\u00fcls\u0151 K\u00f3rh\u00e1z",
            "kind": "utca",
            "post_code": 0
        },
        {
            "name": "Kutasi",
            "kind": "utca",
            "post_code": 0
        },
        {
            "name": "Kutilapi",
            "kind": "utca",
            "post_code": 0
        },
        {
            "name": "K\u00fat",
            "kind": "utca",
            "post_code": 0
        },
        {
            "name": "Landorhegyi",
            "kind": "\u00fat",
            "post_code": 0
        },
        {
            "name": "Lank\u00e1s",
            "kind": "utca",
            "post_code": 0
        },
        {
            "name": "Lehel",
            "kind": "utca",
            "post_code": 0
        },
        {
            "name": "Lejt\u0151s",
            "kind": "utca",
            "post_code": 0
        },
        {
            "name": "L\u00e9pcs\u0151sor",
            "kind": "utca",
            "post_code": 0
        },
        {
            "name": "Levendula",
            "kind": "utca",
            "post_code": 0
        },
        {
            "name": "Ligetsz\u00e9pe",
            "kind": "utca",
            "post_code": 0
        },
        {
            "name": "Liget",
            "kind": "utca",
            "post_code": 0
        },
        {
            "name": "Liliom",
            "kind": "utca",
            "post_code": 0
        },
        {
            "name": "Liszt Ferenc",
            "kind": "utca",
            "post_code": 0
        },
        {
            "name": "L\u0151rinc bar\u00e1t",
            "kind": "utca",
            "post_code": 0
        },
        {
            "name": "L\u0151t\u00e9ri",
            "kind": "utca",
            "post_code": 0
        },
        {
            "name": "Lov\u00e1sz",
            "kind": "utca",
            "post_code": 0
        },
        {
            "name": "Lukahegyi",
            "kind": "\u00fat",
            "post_code": 0
        },
        {
            "name": "Mad\u00e1ch Imre",
            "kind": "utca",
            "post_code": 0
        },
        {
            "name": "Mad\u00e1rbirs",
            "kind": "utca",
            "post_code": 0
        },
        {
            "name": "Magasb\u00fckk",
            "kind": "utca",
            "post_code": 0
        },
        {
            "name": "Majori",
            "kind": "utca",
            "post_code": 0
        },
        {
            "name": "M\u00e1jus 1.",
            "kind": "utca",
            "post_code": 0
        },
        {
            "name": "M\u00e1ln\u00e1s",
            "kind": "utca",
            "post_code": 0
        },
        {
            "name": "Malom",
            "kind": "utca",
            "post_code": 0
        },
        {
            "name": "Mandul\u00e1s",
            "kind": "utca",
            "post_code": 0
        },
        {
            "name": "Margar\u00e9ta",
            "kind": "utca",
            "post_code": 0
        },
        {
            "name": "Martinovics",
            "kind": "utca",
            "post_code": 0
        },
        {
            "name": "M\u00e1rt\u00edrok",
            "kind": "\u00fatja",
            "post_code": 0
        },
        {
            "name": "M\u00e1ty\u00e1s Kir\u00e1ly",
            "kind": "utca",
            "post_code": 0
        },
        {
            "name": "Meggyfa",
            "kind": "utca",
            "post_code": 0
        },
        {
            "name": "Meredek",
            "kind": "utca",
            "post_code": 0
        },
        {
            "name": "M\u00e9sz\u00e1ros L\u00e1z\u00e1r",
            "kind": "utca",
            "post_code": 0
        },
        {
            "name": "Mez\u0151",
            "kind": "utca",
            "post_code": 0
        },
        {
            "name": "Mikes Kelemen",
            "kind": "utca",
            "post_code": 0
        },
        {
            "name": "Millennium",
            "kind": "t\u00e9r",
            "post_code": 0
        },
        {
            "name": "M\u00f3kus",
            "kind": "utca",
            "post_code": 0
        },
        {
            "name": "M\u00f3ra Ferenc",
            "kind": "utca",
            "post_code": 0
        },
        {
            "name": "M\u00f3ricz Zsigmond",
            "kind": "utca",
            "post_code": 0
        },
        {
            "name": "Mosoly",
            "kind": "utca",
            "post_code": 0
        },
        {
            "name": "Mozi",
            "kind": "k\u00f6z",
            "post_code": 0
        },
        {
            "name": "Munk\u00e1csy Mih\u00e1ly",
            "kind": "utca",
            "post_code": 0
        },
        {
            "name": "Mura",
            "kind": "utca",
            "post_code": 0
        },
        {
            "name": "Musk\u00e1tli",
            "kind": "utca",
            "post_code": 0
        },
        {
            "name": "Nagy csarit",
            "kind": "utca",
            "post_code": 0
        },
        {
            "name": "Napkelet",
            "kind": "utca",
            "post_code": 0
        },
        {
            "name": "Napraforg\u00f3",
            "kind": "utca",
            "post_code": 0
        },
        {
            "name": "Napsug\u00e1r",
            "kind": "utca",
            "post_code": 0
        },
        {
            "name": "N\u00e1rcisz",
            "kind": "utca",
            "post_code": 0
        },
        {
            "name": "Nefelejcs",
            "kind": "utca",
            "post_code": 0
        },
        {
            "name": "Nekeresdi",
            "kind": "\u00fat",
            "post_code": 0
        },
        {
            "name": "Nemzet\u0151r",
            "kind": "utca",
            "post_code": 0
        },
        {
            "name": "Neszele",
            "kind": "\u00fat",
            "post_code": 0
        },
        {
            "name": "Nimr\u00f3d",
            "kind": "utca",
            "post_code": 0
        },
        {
            "name": "Nov\u00e1k Mih\u00e1ly",
            "kind": "utca",
            "post_code": 0
        },
        {
            "name": "Ny\u00e1rihegyi",
            "kind": "\u00fat",
            "post_code": 0
        },
        {
            "name": "Ny\u00e1r",
            "kind": "utca",
            "post_code": 0
        },
        {
            "name": "Nyerges",
            "kind": "utca",
            "post_code": 0
        },
        {
            "name": "Ny\u00edres",
            "kind": "utca",
            "post_code": 0
        },
        {
            "name": "Okt\u00f3ber 6.",
            "kind": "t\u00e9r",
            "post_code": 0
        },
        {
            "name": "Olajfa",
            "kind": "utca",
            "post_code": 0
        },
        {
            "name": "Olajmunk\u00e1s",
            "kind": "utca",
            "post_code": 0
        },
        {
            "name": "Ola",
            "kind": "utca",
            "post_code": 0
        },
        {
            "name": "\u00d6lyvesfalvi",
            "kind": "utca",
            "post_code": 0
        },
        {
            "name": "\u00d6reghegyi",
            "kind": "\u00fat",
            "post_code": 0
        },
        {
            "name": "\u00d6reg-Sz\u00edvhegyi",
            "kind": "utca",
            "post_code": 0
        },
        {
            "name": "Orgona",
            "kind": "utca",
            "post_code": 0
        },
        {
            "name": "\u0150rh\u00e1z",
            "kind": "utca",
            "post_code": 0
        },
        {
            "name": "Orsolya",
            "kind": "t\u00e9r",
            "post_code": 0
        },
        {
            "name": "Orsolya",
            "kind": "utca",
            "post_code": 0
        },
        {
            "name": "\u0150sz",
            "kind": "utca",
            "post_code": 0
        },
        {
            "name": "\u00d6veges J\u00f3zsef",
            "kind": "utca",
            "post_code": 0
        },
        {
            "name": "Pacsirta",
            "kind": "utca",
            "post_code": 0
        },
        {
            "name": "Pais Dezs\u0151",
            "kind": "utca",
            "post_code": 0
        },
        {
            "name": "Pal\u00f3czi Horv\u00e1th \u00c1d\u00e1m",
            "kind": "utca",
            "post_code": 0
        },
        {
            "name": "Panor\u00e1ma",
            "kind": "t\u00e9r",
            "post_code": 0
        },
        {
            "name": "Paperd\u0151",
            "kind": "utca",
            "post_code": 0
        },
        {
            "name": "Patak",
            "kind": "utca",
            "post_code": 0
        },
        {
            "name": "P\u00e1terdombi",
            "kind": "utca",
            "post_code": 0
        },
        {
            "name": "Patk\u00f3",
            "kind": "utca",
            "post_code": 0
        },
        {
            "name": "P\u00e1zm\u00e1ny P\u00e9ter",
            "kind": "utca",
            "post_code": 0
        },
        {
            "name": "Perczel M\u00f3r",
            "kind": "utca",
            "post_code": 0
        },
        {
            "name": "Perlaki",
            "kind": "utca",
            "post_code": 0
        },
        {
            "name": "Petelihegyi",
            "kind": "\u00fat",
            "post_code": 0
        },
        {
            "name": "Pet\u0151fi",
            "kind": "k\u00f6z",
            "post_code": 0
        },
        {
            "name": "Pet\u0151fi S\u00e1ndor",
            "kind": "utca",
            "post_code": 0
        },
        {
            "name": "Pet\u00fania",
            "kind": "utca",
            "post_code": 0
        },
        {
            "name": "Piac",
            "kind": "t\u00e9r",
            "post_code": 0
        },
        {
            "name": "Pincesor",
            "kind": "utca",
            "post_code": 0
        },
        {
            "name": "Pint\u00e9r M\u00e1t\u00e9",
            "kind": "utca",
            "post_code": 0
        },
        {
            "name": "Pipahegyi",
            "kind": "\u00fat",
            "post_code": 0
        },
        {
            "name": "Pityke",
            "kind": "utca",
            "post_code": 0
        },
        {
            "name": "Pitypang",
            "kind": "utca",
            "post_code": 0
        },
        {
            "name": "Plat\u00e1n",
            "kind": "sor",
            "post_code": 0
        },
        {
            "name": "Posta",
            "kind": "utca",
            "post_code": 0
        },
        {
            "name": "P\u00f3zva",
            "kind": "utca",
            "post_code": 0
        },
        {
            "name": "Pusk\u00e1s Tivadar",
            "kind": "utca",
            "post_code": 0
        },
        {
            "name": "P\u00fcsp\u00f6ki Gr\u00e1ci\u00e1n",
            "kind": "utca",
            "post_code": 0
        },
        {
            "name": "Radn\u00f3ti Mikl\u00f3s",
            "kind": "utca",
            "post_code": 0
        },
        {
            "name": "R\u00e1k\u00f3czi Ferenc",
            "kind": "utca",
            "post_code": 0
        },
        {
            "name": "R\u00e9t",
            "kind": "utca",
            "post_code": 0
        },
        {
            "name": "Rig\u00f3",
            "kind": "utca",
            "post_code": 0
        },
        {
            "name": "R\u00f3mer Fl\u00f3ris",
            "kind": "utca",
            "post_code": 0
        },
        {
            "name": "R\u00f6vidj\u00e1nka",
            "kind": "",
            "post_code": 0
        },
        {
            "name": "Rozmaring",
            "kind": "utca",
            "post_code": 0
        },
        {
            "name": "R\u00f3zsadombi",
            "kind": "utca",
            "post_code": 0
        },
        {
            "name": "R\u00f3zsafa",
            "kind": "\u00fat",
            "post_code": 0
        },
        {
            "name": "R\u00f3zs\u00e1k",
            "kind": "tere",
            "post_code": 0
        },
        {
            "name": "R\u00f3zs\u00e1s",
            "kind": "utca",
            "post_code": 0
        },
        {
            "name": "R\u00f3zsa",
            "kind": "utca",
            "post_code": 0
        },
        {
            "name": "R\u00f3zsav\u00f6lgyi",
            "kind": "utca",
            "post_code": 0
        },
        {
            "name": "S\u00e1godi",
            "kind": "\u00fat",
            "post_code": 0
        },
        {
            "name": "Sashegyi",
            "kind": "utca",
            "post_code": 0
        },
        {
            "name": "Sas",
            "kind": "utca",
            "post_code": 0
        },
        {
            "name": "S\u00edp",
            "kind": "utca",
            "post_code": 0
        },
        {
            "name": "S\u00f6v\u00e9ny",
            "kind": "utca",
            "post_code": 0
        },
        {
            "name": "Spedit\u0151r",
            "kind": "\u00fat",
            "post_code": 0
        },
        {
            "name": "Sport",
            "kind": "utca",
            "post_code": 0
        },
        {
            "name": "Stadion",
            "kind": "utca",
            "post_code": 0
        },
        {
            "name": "Stromfeld Aur\u00e9l",
            "kind": "utca",
            "post_code": 0
        },
        {
            "name": "Sug\u00e1r",
            "kind": "utca",
            "post_code": 0
        },
        {
            "name": "S\u00fct\u0151",
            "kind": "utca",
            "post_code": 0
        },
        {
            "name": "S\u00fcveghegy",
            "kind": "utca",
            "post_code": 0
        },
        {
            "name": "Szabads\u00e1g",
            "kind": "utca",
            "post_code": 0
        },
        {
            "name": "Sz\u00e1ll\u00edt\u00f3k",
            "kind": "\u00fatja",
            "post_code": 0
        },
        {
            "name": "Szarkal\u00e1b",
            "kind": "utca",
            "post_code": 0
        },
        {
            "name": "Sz\u00e1zszorsz\u00e9p",
            "kind": "utca",
            "post_code": 0
        },
        {
            "name": "Sz\u00e9chenyi",
            "kind": "t\u00e9r",
            "post_code": 0
        },
        {
            "name": "Szedenik",
            "kind": "\u00fat",
            "post_code": 0
        },
        {
            "name": "Szeder",
            "kind": "k\u00f6z",
            "post_code": 0
        },
        {
            "name": "Szegf\u0171",
            "kind": "utca",
            "post_code": 0
        },
        {
            "name": "Szeglet",
            "kind": "utca",
            "post_code": 0
        },
        {
            "name": "Szekeresv\u00f6lgyi",
            "kind": "utca",
            "post_code": 0
        },
        {
            "name": "Szelesv\u00f6lgyi",
            "kind": "utca",
            "post_code": 0
        },
        {
            "name": "Sz\u00e9lhordta",
            "kind": "\u00fat",
            "post_code": 0
        },
        {
            "name": "Szell\u0151h\u00e1ti",
            "kind": "utca",
            "post_code": 0
        },
        {
            "name": "Szendrey J\u00falia",
            "kind": "utca",
            "post_code": 0
        },
        {
            "name": "Szent Istv\u00e1n",
            "kind": "utca",
            "post_code": 0
        },
        {
            "name": "Szent L\u00e1szl\u00f3",
            "kind": "utca",
            "post_code": 0
        },
        {
            "name": "Szentm\u00e1rtoni",
            "kind": "utca",
            "post_code": 0
        },
        {
            "name": "Sz\u00e9perd\u0151",
            "kind": "utca",
            "post_code": 0
        },
        {
            "name": "Szeretet",
            "kind": "utca",
            "post_code": 0
        },
        {
            "name": "Szil\u00e1gyi Erzs\u00e9bet",
            "kind": "utca",
            "post_code": 0
        },
        {
            "name": "Szilv\u00e1s",
            "kind": "utca",
            "post_code": 0
        },
        {
            "name": "Szirom",
            "kind": "utca",
            "post_code": 0
        },
        {
            "name": "Sz\u00edvhegyi",
            "kind": "\u00fat",
            "post_code": 0
        },
        {
            "name": "Sz\u00f3",
            "kind": "k\u00f6z",
            "post_code": 0
        },
        {
            "name": "Sz\u0151l\u0151hegyi",
            "kind": "utca",
            "post_code": 0
        },
        {
            "name": "Sz\u0151l\u0151skert",
            "kind": "utca",
            "post_code": 0
        },
        {
            "name": "Sz\u00f6vetkezet",
            "kind": "utca",
            "post_code": 0
        },
        {
            "name": "Sz\u00fcret",
            "kind": "utca",
            "post_code": 0
        },
        {
            "name": "Takar\u00e9k",
            "kind": "k\u00f6z",
            "post_code": 0
        },
        {
            "name": "T\u00e1ncoslapi",
            "kind": "\u00fat",
            "post_code": 0
        },
        {
            "name": "T\u00e1ncsics Mih\u00e1ly",
            "kind": "utca",
            "post_code": 0
        },
        {
            "name": "Tavasz",
            "kind": "utca",
            "post_code": 0
        },
        {
            "name": "Telekalja",
            "kind": "utca",
            "post_code": 0
        },
        {
            "name": "T\u00e9l",
            "kind": "utca",
            "post_code": 0
        },
        {
            "name": "Temet\u0151",
            "kind": "utca",
            "post_code": 0
        },
        {
            "name": "Term\u00e1l",
            "kind": "utca",
            "post_code": 0
        },
        {
            "name": "Toldi Mikl\u00f3s",
            "kind": "utca",
            "post_code": 0
        },
        {
            "name": "T\u00f6lgyfa",
            "kind": "utca",
            "post_code": 0
        },
        {
            "name": "Tomori P\u00e1l",
            "kind": "utca",
            "post_code": 0
        },
        {
            "name": "Tompa Mih\u00e1ly",
            "kind": "utca",
            "post_code": 0
        },
        {
            "name": "Toposh\u00e1za",
            "kind": "utca",
            "post_code": 0
        },
        {
            "name": "T\u00f3th \u00c1rp\u00e1d",
            "kind": "utca",
            "post_code": 0
        },
        {
            "name": "T\u00f3",
            "kind": "utca",
            "post_code": 0
        },
        {
            "name": "T\u0151zike",
            "kind": "utca",
            "post_code": 0
        },
        {
            "name": "T\u00fccs\u00f6k",
            "kind": "utca",
            "post_code": 0
        },
        {
            "name": "Tuja",
            "kind": "sor",
            "post_code": 0
        },
        {
            "name": "Tulip\u00e1n",
            "kind": "utca",
            "post_code": 0
        },
        {
            "name": "T\u00fcnd\u00e9r",
            "kind": "utca",
            "post_code": 0
        },
        {
            "name": "T\u00fctt\u0151 Gy\u00f6rgy",
            "kind": "utca",
            "post_code": 0
        },
        {
            "name": "T\u00fctt\u0151ssy Ferenc",
            "kind": "utca",
            "post_code": 0
        },
        {
            "name": "\u00dajhegyi",
            "kind": "\u00fat",
            "post_code": 0
        },
        {
            "name": "\u00daj",
            "kind": "utca",
            "post_code": 0
        },
        {
            "name": "\u0170rhaj\u00f3s",
            "kind": "utca",
            "post_code": 0
        },
        {
            "name": "Vadr\u00f3zsa",
            "kind": "utca",
            "post_code": 0
        },
        {
            "name": "Vadvir\u00e1g",
            "kind": "utca",
            "post_code": 0
        },
        {
            "name": "V\u00e1g\u00f3h\u00edd",
            "kind": "utca",
            "post_code": 0
        },
        {
            "name": "Vajda Lajos",
            "kind": "utca",
            "post_code": 0
        },
        {
            "name": "Vakaroshegyi",
            "kind": "\u00fat",
            "post_code": 0
        },
        {
            "name": "V\u00e1licka",
            "kind": "utca",
            "post_code": 0
        },
        {
            "name": "V\u00e1rberki",
            "kind": "utca",
            "post_code": 0
        },
        {
            "name": "Varkaus",
            "kind": "t\u00e9r",
            "post_code": 0
        },
        {
            "name": "V\u00e1rk\u00f6r",
            "kind": "utca",
            "post_code": 0
        },
        {
            "name": "V\u00e1rosv\u00e9g",
            "kind": "utca",
            "post_code": 0
        },
        {
            "name": "V\u00e1s\u00e1rt\u00e9r",
            "kind": "utca",
            "post_code": 0
        },
        {
            "name": "Vass Lajos",
            "kind": "utca",
            "post_code": 0
        },
        {
            "name": "Vas\u00fat",
            "kind": "utca",
            "post_code": 0
        },
        {
            "name": "Vasv\u00e1ri P\u00e1l",
            "kind": "utca",
            "post_code": 0
        },
        {
            "name": "Ver\u0151f\u00e9ny",
            "kind": "utca",
            "post_code": 0
        },
        {
            "name": "Viola",
            "kind": "utca",
            "post_code": 0
        },
        {
            "name": "Vir\u00e1g Benedek",
            "kind": "utca",
            "post_code": 0
        },
        {
            "name": "Vir\u00e1gszer",
            "kind": "utca",
            "post_code": 0
        },
        {
            "name": "Vir\u00e1gz\u00f3 mez\u0151",
            "kind": "utca",
            "post_code": 0
        },
        {
            "name": "Vizslaparki",
            "kind": "\u00fat",
            "post_code": 0
        },
        {
            "name": "Vol\u00e1n",
            "kind": "utca",
            "post_code": 0
        },
        {
            "name": "V\u00f6lgyi",
            "kind": "\u00fat",
            "post_code": 0
        },
        {
            "name": "Vorhotai",
            "kind": "utca",
            "post_code": 0
        },
        {
            "name": "V\u00f6r\u00f6smarty Mih\u00e1ly",
            "kind": "utca",
            "post_code": 0
        },
        {
            "name": "Wlassics Gyula",
            "kind": "utca",
            "post_code": 0
        },
        {
            "name": "Zalagy\u00f6ngye",
            "kind": "utca",
            "post_code": 0
        },
        {
            "name": "Zalai T\u00f3th J\u00e1nos",
            "kind": "utca",
            "post_code": 0
        },
        {
            "name": "Zala",
            "kind": "utca",
            "post_code": 0
        },
        {
            "name": "Z\u00e1rda",
            "kind": "utca",
            "post_code": 0
        },
        {
            "name": "Z\u00e1vodszky Istv\u00e1n",
            "kind": "utca",
            "post_code": 0
        },
        {
            "name": "Zeng\u0151",
            "kind": "utca",
            "post_code": 0
        },
        {
            "name": "Z\u00f6lderd\u0151",
            "kind": "utca",
            "post_code": 0
        },
        {
            "name": "Zr\u00ednyi Mikl\u00f3s",
            "kind": "utca",
            "post_code": 0
        },
        {
            "name": "Zs\u00e1k",
            "kind": "utca",
            "post_code": 0
        },
        {
            "name": "D\u00edsz",
            "kind": "t\u00e9r",
            "post_code": 0
        },
        {
            "name": "Eur\u00f3pa",
            "kind": "t\u00e9r",
            "post_code": 0
        },
        {
            "name": "Mindszenty J\u00f3zsef",
            "kind": "t\u00e9r",
            "post_code": 0
        }
    ]
}