{
    "codes": {
        "2072": [
            "Zs\u00e1mb\u00e9k",
            null
        ]
    },
    "streets": [
        {
            "name": "Ady Endre",
            "kind": "lak\u00f3telep",
            "post_code": 0
        },
        {
            "name": "Ady Endre",
            "kind": "utca",
            "post_code": 0
        },
        {
            "name": "Ak\u00e1cfa",
            "kind": "utca",
            "post_code": 0
        },
        {
            "name": "Akad\u00e9mia",
            "kind": "utca",
            "post_code": 0
        },
        {
            "name": "Angyal\u00e1rok",
            "kind": "utca",
            "post_code": 0
        },
        {
            "name": "Barackos",
            "kind": "utca",
            "post_code": 0
        },
        {
            "name": "Bart\u00f3k B\u00e9la",
            "kind": "utca",
            "post_code": 0
        },
        {
            "name": "Benedek",
            "kind": "utca",
            "post_code": 0
        },
        {
            "name": "Berkenye",
            "kind": "utca",
            "post_code": 0
        },
        {
            "name": "Bethlen G\u00e1bor",
            "kind": "utca",
            "post_code": 0
        },
        {
            "name": "Bicskei",
            "kind": "utca",
            "post_code": 0
        },
        {
            "name": "Corvin J\u00e1nos",
            "kind": "utca",
            "post_code": 0
        },
        {
            "name": "Csap",
            "kind": "utca",
            "post_code": 0
        },
        {
            "name": "Csillagerd\u0151",
            "kind": "utca",
            "post_code": 0
        },
        {
            "name": "Di\u00f3fa",
            "kind": "utca",
            "post_code": 0
        },
        {
            "name": "D\u00f3zsa Gy\u00f6rgy",
            "kind": "utca",
            "post_code": 0
        },
        {
            "name": "Drivingcamp",
            "kind": "\u00fat",
            "post_code": 0
        },
        {
            "name": "Erd\u00e9lyi",
            "kind": "utca",
            "post_code": 0
        },
        {
            "name": "Etyeki",
            "kind": "utca",
            "post_code": 0
        },
        {
            "name": "F\u0151",
            "kind": "utca",
            "post_code": 0
        },
        {
            "name": "G\u00e1bor \u00c1ron",
            "kind": "utca",
            "post_code": 0
        },
        {
            "name": "Gagarin",
            "kind": "utca",
            "post_code": 0
        },
        {
            "name": "Gerecs \u00c1rp\u00e1d",
            "kind": "utca",
            "post_code": 0
        },
        {
            "name": "Gyurgyalag",
            "kind": "utca",
            "post_code": 0
        },
        {
            "name": "H\u00e1rsfa",
            "kind": "utca",
            "post_code": 0
        },
        {
            "name": "Hat\u00e1r",
            "kind": "\u00fat",
            "post_code": 0
        },
        {
            "name": "Hegyalja",
            "kind": "utca",
            "post_code": 0
        },
        {
            "name": "Herceghalmi",
            "kind": "\u00fat",
            "post_code": 0
        },
        {
            "name": "Honv\u00e9d",
            "kind": "utca",
            "post_code": 0
        },
        {
            "name": "Jegenye",
            "kind": "utca",
            "post_code": 0
        },
        {
            "name": "J\u00f3vil\u00e1g",
            "kind": "utca",
            "post_code": 0
        },
        {
            "name": "J\u00f3zsefv\u00e1rosi",
            "kind": "\u00e1tj\u00e1r\u00f3",
            "post_code": 0
        },
        {
            "name": "J\u00f3zsefv\u00e1rosi",
            "kind": "lak\u00f3telep",
            "post_code": 0
        },
        {
            "name": "J\u00f3zsefv\u00e1ros",
            "kind": "utca",
            "post_code": 0
        },
        {
            "name": "K\u00e1lv\u00e1ria",
            "kind": "utca",
            "post_code": 0
        },
        {
            "name": "K\u00e1polna",
            "kind": "utca",
            "post_code": 0
        },
        {
            "name": "Kir\u00e1ly",
            "kind": "utca",
            "post_code": 0
        },
        {
            "name": "K\u0151ris",
            "kind": "utca",
            "post_code": 0
        },
        {
            "name": "K\u00f6rtv\u00e9lyes",
            "kind": "utca",
            "post_code": 0
        },
        {
            "name": "Magyar",
            "kind": "utca",
            "post_code": 0
        },
        {
            "name": "Maj\u00e1lis",
            "kind": "k\u00f6z",
            "post_code": 0
        },
        {
            "name": "Malom\u00e1rok",
            "kind": "utca",
            "post_code": 0
        },
        {
            "name": "Malom",
            "kind": "d\u0171l\u0151",
            "post_code": 0
        },
        {
            "name": "Malom",
            "kind": "k\u00f6z",
            "post_code": 0
        },
        {
            "name": "M\u00e1nyi",
            "kind": "\u00fat",
            "post_code": 0
        },
        {
            "name": "M\u00e1nyi",
            "kind": "utca",
            "post_code": 0
        },
        {
            "name": "M\u00e1ty\u00e1s kir\u00e1ly",
            "kind": "utca",
            "post_code": 0
        },
        {
            "name": "Meggyes",
            "kind": "utca",
            "post_code": 0
        },
        {
            "name": "N\u00e1das",
            "kind": "k\u00f6z",
            "post_code": 0
        },
        {
            "name": "N\u00e1das",
            "kind": "utca",
            "post_code": 0
        },
        {
            "name": "Nagydi\u00f3fa",
            "kind": "utca",
            "post_code": 0
        },
        {
            "name": "Nagy-Homor\u00f3d",
            "kind": "utca",
            "post_code": 0
        },
        {
            "name": "Ny\u00e1rf\u00e1s",
            "kind": "utca",
            "post_code": 0
        },
        {
            "name": "Orgona",
            "kind": "utca",
            "post_code": 0
        },
        {
            "name": "Pacsirta",
            "kind": "utca",
            "post_code": 0
        },
        {
            "name": "P\u00e1los",
            "kind": "utca",
            "post_code": 0
        },
        {
            "name": "Pet\u0151fi S\u00e1ndor",
            "kind": "utca",
            "post_code": 0
        },
        {
            "name": "Piac",
            "kind": "k\u00f6z",
            "post_code": 0
        },
        {
            "name": "Plat\u00e1n",
            "kind": "utca",
            "post_code": 0
        },
        {
            "name": "R\u00e1cv\u00e1ros",
            "kind": "utca",
            "post_code": 0
        },
        {
            "name": "R\u00e1k\u00f3czi Ferenc",
            "kind": "\u00fat",
            "post_code": 0
        },
        {
            "name": "R\u00e9gitemplom",
            "kind": "utca",
            "post_code": 0
        },
        {
            "name": "R\u00f3zsa",
            "kind": "utca",
            "post_code": 0
        },
        {
            "name": "Somogyi B\u00e9la",
            "kind": "utca",
            "post_code": 0
        },
        {
            "name": "Szent Erzs\u00e9bet",
            "kind": "l\u00e9pcs\u0151",
            "post_code": 0
        },
        {
            "name": "Szent Istv\u00e1n",
            "kind": "t\u00e9r",
            "post_code": 0
        },
        {
            "name": "Szil\u00e1gys\u00e1g",
            "kind": "utca",
            "post_code": 0
        },
        {
            "name": "Sz\u0151l\u0151hegyi",
            "kind": "\u00fat",
            "post_code": 0
        },
        {
            "name": "Szomori",
            "kind": "\u00fat",
            "post_code": 0
        },
        {
            "name": "T\u00e1ncsics Mih\u00e1ly",
            "kind": "utca",
            "post_code": 0
        },
        {
            "name": "Tavasz",
            "kind": "utca",
            "post_code": 0
        },
        {
            "name": "Terv",
            "kind": "utca",
            "post_code": 0
        },
        {
            "name": "Vad\u00e1sz",
            "kind": "utca",
            "post_code": 0
        },
        {
            "name": "Z\u00e1rtkert",
            "kind": "",
            "post_code": 0
        },
        {
            "name": "Zichy Mikl\u00f3s",
            "kind": "t\u00e9r",
            "post_code": 0
        }
    ]
}