{
    "streets": [
        {
            "name": "Ady Endre",
            "kind": "utca",
            "post_code": 0
        },
        {
            "name": "Ak\u00e1cfa",
            "kind": "utca",
            "post_code": 0
        },
        {
            "name": "Aranyh\u00edd",
            "kind": "utca",
            "post_code": 0
        },
        {
            "name": "Arany J\u00e1nos",
            "kind": "utca",
            "post_code": 0
        },
        {
            "name": "\u00c1rnyas",
            "kind": "utca",
            "post_code": 0
        },
        {
            "name": "\u00c1rp\u00e1d",
            "kind": "k\u00f6rvas\u00fatsor",
            "post_code": 0
        },
        {
            "name": "Balatoni",
            "kind": "utca",
            "post_code": 0
        },
        {
            "name": "B\u00e1nk\u0151hegyi",
            "kind": "utca",
            "post_code": 0
        },
        {
            "name": "Bozzai P\u00e1l",
            "kind": "utca",
            "post_code": 0
        },
        {
            "name": "B\u00fazavir\u00e1g",
            "kind": "utca",
            "post_code": 0
        },
        {
            "name": "Cseredi",
            "kind": "d\u0171l\u0151",
            "post_code": 0
        },
        {
            "name": "Cserfa",
            "kind": "utca",
            "post_code": 0
        },
        {
            "name": "Csisz\u00e1r",
            "kind": "d\u0171l\u0151",
            "post_code": 0
        },
        {
            "name": "Delta",
            "kind": "telep",
            "post_code": 0
        },
        {
            "name": "D\u00f3zsa Gy\u00f6rgy",
            "kind": "utca",
            "post_code": 0
        },
        {
            "name": "Erd\u00e9sz",
            "kind": "utca",
            "post_code": 0
        },
        {
            "name": "F\u0151",
            "kind": "utca",
            "post_code": 0
        },
        {
            "name": "F\u00fcredi",
            "kind": "\u00fat",
            "post_code": 0
        },
        {
            "name": "F\u0171zki",
            "kind": "\u00fat",
            "post_code": 0
        },
        {
            "name": "Gl\u00f3busz",
            "kind": "utca",
            "post_code": 0
        },
        {
            "name": "Hegyalja",
            "kind": "utca",
            "post_code": 0
        },
        {
            "name": "Herczeg",
            "kind": "utca",
            "post_code": 0
        },
        {
            "name": "Horg\u00e1sz",
            "kind": "utca",
            "post_code": 0
        },
        {
            "name": "Ifj\u00fas\u00e1g",
            "kind": "\u00fatja",
            "post_code": 0
        },
        {
            "name": "Iskola",
            "kind": "utca",
            "post_code": 0
        },
        {
            "name": "Kajakos",
            "kind": "\u00fat",
            "post_code": 0
        },
        {
            "name": "Kenderhord\u00f3",
            "kind": "utca",
            "post_code": 0
        },
        {
            "name": "Kiss",
            "kind": "utca",
            "post_code": 0
        },
        {
            "name": "Kossuth",
            "kind": "utca",
            "post_code": 0
        },
        {
            "name": "Mandula",
            "kind": "utca",
            "post_code": 0
        },
        {
            "name": "M\u00f3kus",
            "kind": "utca",
            "post_code": 0
        },
        {
            "name": "N\u00e1das",
            "kind": "utca",
            "post_code": 0
        },
        {
            "name": "Naplemente",
            "kind": "utca",
            "post_code": 0
        },
        {
            "name": "Napsug\u00e1r",
            "kind": "t\u00e9r",
            "post_code": 0
        },
        {
            "name": "Ny\u00e1r",
            "kind": "utca",
            "post_code": 0
        },
        {
            "name": "Pet\u0151fi",
            "kind": "utca",
            "post_code": 0
        },
        {
            "name": "R\u00e1k\u00f3czi Ferenc",
            "kind": "utca",
            "post_code": 0
        },
        {
            "name": "Rozmaring",
            "kind": "utca",
            "post_code": 0
        },
        {
            "name": "R\u00f3zsa",
            "kind": "utca",
            "post_code": 0
        },
        {
            "name": "Szemes",
            "kind": "utca",
            "post_code": 0
        },
        {
            "name": "Szilvafa",
            "kind": "sor",
            "post_code": 0
        },
        {
            "name": "Tagyonhegyd\u0171l\u0151",
            "kind": "",
            "post_code": 0
        },
        {
            "name": "T\u00f6lgyfa",
            "kind": "utca",
            "post_code": 0
        },
        {
            "name": "Tusakos",
            "kind": "d\u0171l\u0151",
            "post_code": 0
        },
        {
            "name": "Tusakosi",
            "kind": "utca",
            "post_code": 0
        },
        {
            "name": "\u00dajhegyi",
            "kind": "\u00fat",
            "post_code": 0
        },
        {
            "name": "\u00datt\u00f6r\u0151",
            "kind": "utca",
            "post_code": 0
        },
        {
            "name": "Vadvir\u00e1g",
            "kind": "utca",
            "post_code": 0
        },
        {
            "name": "V\u00e9rk\u00fati",
            "kind": "utca",
            "post_code": 0
        },
        {
            "name": "Villasor",
            "kind": "utca",
            "post_code": 0
        },
        {
            "name": "Vitorl\u00e1s",
            "kind": "utca",
            "post_code": 0
        }
    ]
}